{"version": 0.6, "generator": "Overpass API 0.7.61.5 4133829e", "osm3s": {"timestamp_osm_base": "2023-12-19T05:41:00Z", "copyright": "The data included in this document is from www.openstreetmap.org. The data is made available under ODbL."}, "elements": [{"type": "node", "id": 360474334, "lat": 39.9478543, "lon": -75.1903505, "tags": {"name": "Penn Medicine", "network": "SEPTA", "operator": "SEPTA", "public_transport": "station", "railway": "station", "railway:position": "mi:1.70", "train": "yes", "wheelchair": "no", "wikidata": "Q7894579", "wikipedia": "en:Penn Medicine station"}}, {"type": "node", "id": 360513523, "lat": 39.9449115, "lon": -75.2383483, "tags": {"name": "Angora", "network": "SEPTA", "operator": "septa", "public_transport": "station", "railway": "station", "railway:position": "mi:4.40", "train": "yes", "wikidata": "Q4763847"}}, {"type": "node", "id": 360552272, "lat": 39.9435993, "lon": -75.216626, "tags": {"name": "49th Street", "network": "SEPTA", "operator": "SEPTA", "public_transport": "station", "railway": "station", "railway:position": "mi:3.20", "train": "yes", "wheelchair": "yes", "wikidata": "Q4638846"}}, {"type": "node", "id": 367958742, "lat": 40.0341791, "lon": -75.235452, "tags": {"addr:state": "PA", "ele": "28", "gnis:county_name": "Philadelphia", "gnis:feature_id": "1208018", "gnis:import_uuid": "57871b70-0100-4405-bb30-88b2e001a944", "gnis:reviewed": "no", "name": "Ivy Ridge", "network": "SEPTA", "operator": "septa", "public_transport": "station", "railway": "station", "railway:position": "mi:8.20", "source": "USGS Geonames", "train": "yes", "wikidata": "Q6099924", "wikipedia": "en:Ivy Ridge station"}}, {"type": "node", "id": 367958743, "lat": 40.0334543, "lon": -75.1225778, "tags": {"addr:state": "PA", "ele": "37", "gnis:county_name": "Philadelphia", "gnis:feature_id": "1207958", "gnis:import_uuid": "57871b70-0100-4405-bb30-88b2e001a944", "gnis:reviewed": "no", "name": "Olney", "network": "SEPTA", "operator": "septa", "public_transport": "station", "railway": "station", "railway:position": "mi:7.30", "source": "USGS Geonames", "train": "yes", "wikidata": "Q7088447"}}, {"type": "node", "id": 367958812, "lat": 40.0510578, "lon": -75.1716415, "tags": {"ele": "79", "gnis:county_name": "Philadelphia", "gnis:feature_id": "1208038", "gnis:import_uuid": "57871b70-0100-4405-bb30-88b2e001a944", "gnis:reviewed": "no", "name": "Washington Lane", "network": "SEPTA", "operator": "SEPTA", "public_transport": "station", "railway": "station", "railway:position": "mi:7.80", "source": "USGS Geonames", "train": "yes", "website": "http://www.septa.org/stations/rail/alternate-service/washingtonlane.html", "wikidata": "Q7972023", "wikipedia": "en:Washington Lane station"}}, {"type": "node", "id": 367958815, "lat": 40.0733919, "lon": -75.19682, "tags": {"addr:state": "PA", "ele": "110", "gnis:county_name": "Philadelphia", "gnis:feature_id": "1208036", "gnis:import_uuid": "57871b70-0100-4405-bb30-88b2e001a944", "gnis:reviewed": "no", "name": "Wyndmoor", "network": "SEPTA", "operator": "SEPTA", "public_transport": "station", "railway": "station", "railway:position": "mi:10.00", "source": "USGS Geonames", "train": "yes", "website": "http://www.septa.org/stations/rail/alternate-service/gravers.html", "wikidata": "Q8040141", "wikipedia": "en:Wyndmoor station"}}, {"type": "node", "id": 367958842, "lat": 40.0227281, "lon": -75.1598192, "tags": {"addr:state": "PA", "ele": "44", "gnis:county_name": "Philadelphia", "gnis:feature_id": "1208025", "gnis:import_uuid": "57871b70-0100-4405-bb30-88b2e001a944", "gnis:reviewed": "no", "name": "Wayne Junction", "network": "SEPTA", "operator": "septa", "public_transport": "station", "railway": "station", "railway:position": "mi:5.20", "source": "USGS Geonames", "train": "yes", "wikidata": "Q7976377", "wikipedia": "en:Wayne Junction (SEPTA station)"}}, {"type": "node", "id": 367958846, "lat": 40.0423876, "lon": -75.19006, "tags": {"addr:city": "Philadelphia", "addr:housenumber": "6505", "addr:postcode": "19119", "addr:state": "PA", "addr:street": "Greene Street", "ele": "67", "gnis:county_name": "Philadelphia", "gnis:feature_id": "1208023", "gnis:import_uuid": "57871b70-0100-4405-bb30-88b2e001a944", "gnis:reviewed": "no", "name": "Upsal", "network": "SEPTA", "operator": "SEPTA", "public_transport": "station", "railway": "station", "railway:position": "mi:3.80", "source": "USGS Geonames;local knowledge", "train": "yes", "website": "http://www.septa.org/stations/rail/upsal.html", "wikidata": "Q7899235", "wikipedia": "en:Upsal station"}}, {"type": "node", "id": 469917297, "lat": 39.9485309, "lon": -75.167004, "tags": {"addr:city": "Philadelphia", "name": "15th-16th & Locust", "network": "PATCO", "operator": "PATCO", "platforms": "1", "public_transport": "station", "railway": "station", "station": "subway", "subway": "yes", "wheelchair": "yes", "wikidata": "Q4551078", "wikipedia": "en:15\u201316th & Locust (PATCO station)"}}, {"type": "node", "id": 469917298, "lat": 39.9472633, "lon": -75.1568659, "tags": {"addr:city": "Philadelphia", "name": "9th-10th & Locust", "network": "PATCO", "operator": "PATCO", "platforms": "1", "public_transport": "station", "railway": "station", "station": "subway", "subway": "yes", "wheelchair": "yes", "wikidata": "Q4646737", "wikipedia": "en:9\u201310th & Locust (PATCO station)"}}, {"type": "node", "id": 471026103, "lat": 39.9478496, "lon": -75.161588, "tags": {"addr:city": "Philadelphia", "addr:postcode": "19107", "name": "12th-13th & Locust", "network": "PATCO", "operator": "PATCO", "platforms": "1", "public_transport": "station", "railway": "station", "station": "subway", "subway": "yes", "wheelchair": "no", "wikidata": "Q4548965", "wikipedia": "en:12\u201313th & Locust (PATCO station)"}}, {"type": "node", "id": 566505197, "lat": 40.0328708, "lon": -75.0238363, "tags": {"name": "Holmesburg Junction", "network": "SEPTA", "public_transport": "station", "railway": "station", "railway:position": "mi:77.2", "train": "yes", "wikidata": "Q5883670"}}, {"type": "node", "id": 650938316, "lat": 39.9627056, "lon": -75.2467035, "tags": {"name": "63rd Street", "network": "SEPTA", "operator": "SEPTA", "public_transport": "station", "railway": "station", "station": "subway", "subway": "yes"}}, {"type": "node", "id": 650959043, "lat": 39.9609881, "lon": -75.2328616, "tags": {"name": "56th Street", "network": "SEPTA", "operator": "SEPTA", "public_transport": "station", "railway": "station", "station": "subway", "subway": "yes", "wikidata": "Q4640769"}}, {"type": "node", "id": 650960111, "lat": 39.9586542, "lon": -75.2140058, "tags": {"name": "46th Street", "operator": "SEPTA", "operator_1": "SEPTA", "public_transport": "station", "railway": "station", "station": "subway", "subway": "yes", "wheelchair": "yes"}}, {"type": "node", "id": 775407248, "lat": 40.0509172, "lon": -75.1917249, "tags": {"addr:city": "Philadelphia", "addr:housenumber": "310", "addr:postcode": "19119", "addr:state": "PA", "addr:street": "Carpenter Lane", "name": "Carpenter", "network": "SEPTA", "operator": "SEPTA", "phone": "(215) 849-7474", "public_transport": "station", "railway": "station", "railway:position": "mi:4.40", "train": "yes", "website": "http://www.septa.org/stations/rail/carpenter.html", "wikidata": "Q5045697"}}, {"type": "node", "id": 775407360, "lat": 40.0574208, "lon": -75.1948812, "tags": {"addr:city": "Philadelphia", "addr:postcode": "19119", "addr:state": "PA", "name": "Allen Lane", "network": "SEPTA", "operator": "SEPTA", "platforms": "2", "public_transport": "station", "railway": "station", "railway:position": "mi:4.80", "train": "yes", "website": "http://www.septa.org/stations/rail/allenlane.html", "wikidata": "Q4731749"}}, {"type": "node", "id": 775915931, "lat": 39.9441504, "lon": -75.1653951, "tags": {"addr:city": "Philadelphia", "addr:housenumber": "500", "addr:street": "South Broad Street", "name": "Lombard-South", "network": "SEPTA", "operator": "SEPTA", "platforms": "1", "public_transport": "station", "railway": "station", "railway:position": "mi:7.40", "station": "subway", "subway": "yes", "wheelchair": "no", "wikidata": "Q6669414", "wikipedia": "en:Lombard\u2013South station"}}, {"type": "node", "id": 775915932, "lat": 39.9362304, "lon": -75.1671154, "tags": {"addr:housenumber": "1200", "addr:street": "South Broad Street", "name": "Ellsworth-Federal", "network": "SEPTA", "operator": "SEPTA", "platforms": "1", "public_transport": "station", "railway": "station", "railway:position": "mi:7.95", "station": "subway", "subway": "yes", "wheelchair": "no", "wikidata": "Q11681426", "wikipedia": "en:Ellsworth\u2013Federal station"}}, {"type": "node", "id": 775915933, "lat": 39.9298966, "lon": -75.1684917, "tags": {"addr:city": "Philadelphia", "name": "Tasker-Morris", "network": "SEPTA", "operator": "SEPTA", "platforms": "1", "public_transport": "station", "railway": "station", "railway:position": "mi:8.40", "station": "subway", "subway": "yes", "wheelchair": "no", "wikidata": "Q7687362", "wikipedia": "en:Tasker\u2013Morris station"}}, {"type": "node", "id": 775915935, "lat": 39.9237275, "lon": -75.1695817, "tags": {"addr:city": "Philadelphia", "name": "Snyder", "network": "SEPTA", "operator": "SEPTA", "platforms": "1", "public_transport": "station", "railway": "station", "railway:position": "mi:8.78", "station": "subway", "subway": "yes", "wikidata": "Q7548885", "wikipedia": "en:Snyder station"}}, {"type": "node", "id": 775915939, "lat": 39.9059917, "lon": -75.1731127, "tags": {"addr:city": "Philadelphia", "addr:housenumber": "3600", "addr:street": "South Broad Street", "internet_access": "no", "name": "NRG", "name:en": "NRG", "network": "SEPTA", "old_name": "Pattison", "operator": "SEPTA", "platforms": "2", "public_transport": "station", "railway": "station", "station": "subway", "subway": "yes", "wikidata": "Q4654508", "wikipedia": "en:NRG station"}}, {"type": "node", "id": 775922743, "lat": 40.0387963, "lon": -75.1447438, "tags": {"addr:city": "Philadelphia", "addr:housenumber": "5600", "addr:state": "PA", "addr:street": "North Broad Street", "name": "Olney Transportation Center", "operator": "SEPTA", "platforms": "2", "public_transport": "station", "railway": "station", "railway:position": "mi:0.76", "short_name": "Olney T.C.", "station": "subway", "subway": "yes", "wheelchair": "yes", "wikidata": "Q7088461", "wikipedia": "en:Olney Transportation Center"}}, {"type": "node", "id": 775922744, "lat": 40.0298125, "lon": -75.1467057, "tags": {"addr:city": "Philadelphia", "addr:housenumber": "5100", "addr:state": "PA", "addr:street": "North Broad Street", "name": "Logan", "network": "SEPTA", "operator": "SEPTA", "public_transport": "station", "railway": "station", "railway:position": "mi:1.38", "station": "subway", "subway": "yes", "wikidata": "Q6666919", "wikipedia": "en:Logan station"}}, {"type": "node", "id": 775922745, "lat": 40.0245715, "lon": -75.1478543, "tags": {"addr:city": "Philadelphia", "addr:housenumber": "4700", "addr:state": "PA", "addr:street": "North Broad Street", "name": "Wyoming", "network": "SEPTA", "operator": "SEPTA", "platforms": "2", "public_transport": "station", "railway": "station", "railway:position": "mi:1.75", "station": "subway", "subway": "yes", "wikidata": "Q5859777", "wikipedia": "en:Wyoming station (SEPTA)"}}, {"type": "node", "id": 775922746, "lat": 40.0175785, "lon": -75.1493881, "tags": {"addr:housenumber": "4200", "addr:street": "North Broad Street", "name": "Hunting Park", "network": "SEPTA", "operator": "SEPTA", "platforms": "2", "public_transport": "station", "railway": "station", "railway:position": "mi:2.20", "station": "subway", "subway": "yes", "wikidata": "Q389072", "wikipedia": "en:Hunting Park station"}}, {"type": "node", "id": 775922747, "lat": 40.0092413, "lon": -75.1512083, "tags": {"addr:city": "Philadelphia", "addr:housenumber": "3700", "addr:postcode": "19140", "addr:state": "PA", "addr:street": "North Broad Street", "name": "Erie", "network": "SEPTA", "operator": "SEPTA", "public_transport": "station", "railway": "station", "railway:position": "mi:2.82", "station": "subway", "subway": "yes", "wikidata": "Q2885954", "wikipedia": "en:Erie station (SEPTA)"}}, {"type": "node", "id": 775922748, "lat": 40.0015922, "lon": -75.1528751, "tags": {"name": "Allegheny", "operator": "septa", "public_transport": "station", "railway": "station", "railway:position": "mi:3.34", "station": "subway", "subway": "yes"}}, {"type": "node", "id": 775922749, "lat": 39.9946558, "lon": -75.1543919, "tags": {"addr:city": "Philadelphia", "addr:housenumber": "2700", "addr:state": "PA", "addr:street": "North Broad Street", "name": "North Philadelphia", "network": "SEPTA", "operator": "SEPTA", "platforms": "2", "public_transport": "station", "railway": "station", "railway:position": "mi:3.79", "station": "subway", "subway": "yes", "wheelchair": "yes", "wikidata": "Q7056322", "wikipedia": "en:North Philadelphia station (Broad Street Line)"}}, {"type": "node", "id": 775922751, "lat": 39.9785703, "lon": -75.1579015, "tags": {"addr:city": "Philadelphia", "addr:housenumber": "1700", "addr:state": "PA", "addr:street": "North Broad Street", "name": "Cecil B. Moore", "network": "SEPTA", "operator": "SEPTA", "public_transport": "station", "railway": "station", "railway:position": "mi:4.96", "station": "subway", "subway": "yes", "wheelchair": "yes", "wikidata": "Q5055946", "wikipedia": "en:Cecil B. Moore station"}}, {"type": "node", "id": 775922752, "lat": 39.9714988, "lon": -75.1594598, "tags": {"addr:city": "Philadelphia", "addr:street": "North Broad Street", "name": "Girard", "network": "SEPTA", "operator": "SEPTA", "public_transport": "station", "railway": "station", "railway:position": "mi:5.47", "station": "subway", "subway": "yes", "wheelchair": "yes", "wikidata": "Q5564139", "wikipedia": "en:Girard station (Broad Street Line)"}}, {"type": "node", "id": 775922753, "lat": 39.9668932, "lon": -75.1604429, "tags": {"addr:city": "Philadelphia", "addr:street": "North Broad Street", "name": "Fairmount", "network": "SEPTA", "network:wikidata": "Q2037863", "operator": "SEPTA", "public_transport": "station", "railway": "station", "railway:position": "mi:5.79", "station": "subway", "subway": "yes", "train": "yes", "wheelchair": "no", "wikidata": "Q5430629", "wikipedia": "en:Fairmount station (SEPTA)"}}, {"type": "node", "id": 775922755, "lat": 39.9624091, "lon": -75.1614309, "tags": {"addr:city": "Philadelphia", "addr:street": "North Broad Street", "name": "Spring Garden", "network": "SEPTA", "network:wikidata": "Q2037863", "operator": "SEPTA", "public_transport": "station", "railway": "station", "railway:position": "mi:6.10", "station": "subway", "subway": "yes", "train": "yes", "wheelchair": "yes", "wikidata": "Q7580508", "wikipedia": "en:Spring Garden station (Broad Street Line)"}}, {"type": "node", "id": 775922756, "lat": 39.9568762, "lon": -75.1626318, "tags": {"name": "Race-Vine", "network": "SEPTA", "operator": "SEPTA", "public_transport": "station", "railway": "station", "railway:position": "mi:6.47", "station": "subway", "subway": "yes", "wheelchair": "no", "wikidata": "Q7279050"}}, {"type": "node", "id": 775922859, "lat": 39.9542026, "lon": -75.1673687, "tags": {"addr:city": "Philadelphia", "addr:postcode": "19103", "name": "Suburban Station", "network": "SEPTA", "operator": "SEPTA", "public_transport": "station", "railway": "station", "railway:position": "mi:0.00", "train": "yes", "wikidata": "Q1531481", "wikipedia": "en:Suburban Station"}}, {"type": "node", "id": 1077682161, "lat": 39.8763364, "lon": -75.2446549, "tags": {"name": "PHL Airport Terminal B", "network": "SEPTA", "network:wikidata": "Q2037863", "operator": "SEPTA", "public_transport": "station", "railway": "station", "railway:position": "mi:9.10", "train": "yes", "wikidata": "Q7182722"}}, {"type": "node", "id": 1077682224, "lat": 39.8759814, "lon": -75.246433, "tags": {"name": "PHL Airport Terminal A", "network": "SEPTA", "network:wikidata": "Q2037863", "operator": "SEPTA", "public_transport": "station", "railway": "station", "railway:position": "mi:9.10", "train": "yes", "wikidata": "Q7182722"}}, {"type": "node", "id": 1077682282, "lat": 39.8790494, "lon": -75.2399593, "tags": {"name": "PHL Airport Terminals E & F", "network": "SEPTA", "network:wikidata": "Q2037863", "operator": "SEPTA", "public_transport": "station", "railway": "station", "railway:position": "mi:9.40", "train": "yes", "wheelchair": "yes", "wikidata": "Q7182722"}}, {"type": "node", "id": 1077682288, "lat": 39.8772959, "lon": -75.2414885, "tags": {"name": "PHL Airport Terminals C & D", "network": "SEPTA", "network:wikidata": "Q2037863", "operator": "SEPTA", "public_transport": "station", "railway": "station", "railway:position": "mi:9.30", "train": "yes", "wikidata": "Q7182722"}}, {"type": "node", "id": 1118107614, "lat": 40.0418091, "lon": -75.1368239, "tags": {"name": "Fern Rock Transportation Center", "network": "SEPTA", "operator": "SEPTA", "public_transport": "station", "railway": "station", "railway:position": "mi:0.15", "short_name": "Fern Rock T.C.", "station": "subway", "subway": "yes", "wikidata": "Q5444482", "wikipedia": "en:Fern Rock Transportation Center"}}, {"type": "node", "id": 1118107616, "lat": 39.8916933, "lon": -75.2449472, "tags": {"name": "Eastwick", "network": "SEPTA", "operator": "SEPTA", "public_transport": "station", "railway": "station", "railway:position": "mi:7.20", "source": "Yahoo", "train": "yes", "wikidata": "Q5330989", "wikipedia": "en:Eastwick (SEPTA station)"}}, {"type": "node", "id": 1118107640, "lat": 40.0657302, "lon": -75.2045873, "tags": {"addr:city": "Philadelphia", "addr:housenumber": "320", "addr:postcode": "19118", "addr:state": "PA", "addr:street": "West Willow Grove Avenue", "name": "Saint Martins", "network": "SEPTA", "operator": "SEPTA", "phone": "(215) 247-1999", "platforms": "2", "public_transport": "station", "railway": "station", "railway:position": "mi:5.60", "train": "yes", "website": "http://www.septa.org/stations/rail/stmartins.html", "wikidata": "Q7590044"}}, {"type": "node", "id": 1118107641, "lat": 40.0606027, "lon": -75.1789347, "tags": {"addr:city": "Philadelphia", "addr:housenumber": "6797", "addr:postcode": "19119", "addr:state": "PA", "addr:street": "Blakemore Street", "name": "Stenton", "network": "SEPTA", "operator": "SEPTA", "phone": "(215) 580-6854", "public_transport": "station", "railway": "station", "railway:position": "mi:8.60", "source": "local knowledge", "train": "yes", "website": "http://www.septa.org/stations/rail/alternate-service/stenton.html", "wikidata": "Q7607937", "wikipedia": "en:Stenton station"}}, {"type": "node", "id": 1118107649, "lat": 40.0759538, "lon": -75.0835851, "tags": {"name": "Fox Chase", "network": "SEPTA", "operator": "SEPTA", "public_transport": "station", "railway": "station", "railway:position": "mi:11.10", "train": "yes", "wikidata": "Q8565192", "wikipedia": "en:Fox Chase station"}}, {"type": "node", "id": 1118107671, "lat": 40.063581, "lon": -75.0869178, "tags": {"name": "Ryers", "network": "SEPTA", "operator": "septa", "public_transport": "station", "railway": "station", "railway:position": "mi:10.21", "train": "yes", "wikidata": "Q7385028"}}, {"type": "node", "id": 1118107678, "lat": 39.9922152, "lon": -75.1539044, "tags": {"name": "North Broad", "network": "SEPTA", "operator": "septa", "platforms": "2", "public_transport": "station", "railway": "station", "railway:position": "mi:2.90", "train": "yes", "wikidata": "Q7054296"}}, {"type": "node", "id": 1118160069, "lat": 40.1307147, "lon": -75.012098, "tags": {"name": "Somerton", "network": "SEPTA", "operator": "SEPTA", "public_transport": "station", "railway": "station", "railway:position": "mi:18.20", "train": "yes", "wikidata": "Q7559942", "wikipedia": "en:Somerton station"}}, {"type": "node", "id": 1118160089, "lat": 40.1278051, "lon": -75.0209468, "tags": {"name": "Forest Hills", "network": "SEPTA", "operator": "septa", "public_transport": "station", "railway": "station", "railway:position": "mi:17.70", "train": "yes", "wikidata": "Q5468953"}}, {"type": "node", "id": 1118160126, "lat": 40.0166327, "lon": -75.2102018, "tags": {"name": "Wissahickon", "network": "SEPTA", "operator": "septa", "public_transport": "station", "railway": "station", "railway:position": "mi:6.40", "train": "yes", "wikidata": "Q8027693", "wikipedia": "en:Wissahickon station"}}, {"type": "node", "id": 1118188467, "lat": 39.9964906, "lon": -75.1134652, "tags": {"addr:city": "Philadelphia", "addr:housenumber": "3200", "addr:state": "PA", "addr:street": "Kensington Avenue", "name": "Allegheny", "network": "SEPTA", "operator": "Southeastern Pennsylvania Transportation Authority", "operator:wikidata": "Q2037863", "platforms": "1", "public_transport": "station", "railway": "station", "station": "subway", "subway": "yes", "wheelchair": "yes", "wikidata": "Q4731270", "wikipedia": "en:Allegheny station (Market\u2013Frankford Line)"}}, {"type": "node", "id": 1118188478, "lat": 39.988866, "lon": -75.1272829, "tags": {"addr:city": "Philadelphia", "addr:housenumber": "2600", "addr:state": "PA", "addr:street": "Kensington Avenue", "name": "Huntingdon", "network": "SEPTA", "operator": "SEPTA", "platforms": "1", "public_transport": "station", "railway": "station", "station": "subway", "subway": "yes", "wheelchair": "yes", "wikidata": "Q5945102", "wikipedia": "en:Huntingdon station (SEPTA)"}}, {"type": "node", "id": 1118188481, "lat": 39.9852156, "lon": -75.1321258, "tags": {"addr:city": "Philadelphia", "addr:housenumber": "2300", "addr:state": "PA", "addr:street": "North Front Street", "name": "York-Dauphin", "network": "SEPTA", "operator": "SEPTA", "public_transport": "station", "railway": "station", "station": "subway", "subway": "yes", "wheelchair": "yes", "wikidata": "Q8055826", "wikipedia": "en:York\u2013Dauphin station"}}, {"type": "node", "id": 1118188483, "lat": 39.968916, "lon": -75.1362338, "tags": {"addr:city": "Philadelphia", "addr:housenumber": "1200", "addr:state": "PA", "addr:street": "North Front Street", "name": "Girard", "network": "SEPTA", "operator": "SEPTA", "platforms": "1", "public_transport": "station", "railway": "station", "station": "subway", "subway": "yes", "wheelchair": "yes", "wikidata": "Q25197230", "wikipedia": "en:Girard station (Market\u2013Frankford Line)"}}, {"type": "node", "id": 1118188499, "lat": 39.9785347, "lon": -75.1335538, "tags": {"addr:city": "Philadelphia", "addr:housenumber": "1900", "addr:state": "PA", "addr:street": "North Front Street", "name": "Berks", "network": "SEPTA", "operator": "SEPTA", "platforms": "1", "public_transport": "station", "railway": "station", "station": "subway", "subway": "yes", "wheelchair": "yes", "wikidata": "Q4892229", "wikipedia": "en:Berks station"}}, {"type": "node", "id": 1118188504, "lat": 40.0163655, "lon": -75.0840679, "tags": {"name": "Arrott Transportation Center", "network": "SEPTA", "old_name": "Margaret-Orthodox", "operator": "septa", "public_transport": "station", "railway": "station", "short_name": "Arrott T.C.", "station": "subway", "subway": "yes", "wikidata": "Q3290544"}}, {"type": "node", "id": 1118188518, "lat": 40.0059983, "lon": -75.0960928, "tags": {"name": "Erie-Torresdale", "network": "SEPTA", "operator": "septa", "public_transport": "station", "railway": "station", "station": "subway", "subway": "yes", "wikidata": "Q11681527"}}, {"type": "node", "id": 1118188524, "lat": 40.0105932, "lon": -75.088958, "tags": {"name": "Church", "network": "SEPTA", "operator": "septa", "public_transport": "station", "railway": "station", "station": "subway", "subway": "yes", "wikidata": "Q5116544"}}, {"type": "node", "id": 1118188527, "lat": 39.9915394, "lon": -75.1224276, "tags": {"addr:city": "Philadelphia", "addr:housenumber": "2800", "addr:state": "PA", "addr:street": "Kensington Avenue", "name": "Somerset", "network": "SEPTA", "operator": "SEPTA", "platforms": "1", "public_transport": "station", "railway": "station", "station": "subway", "subway": "yes", "wheelchair": "yes", "wikidata": "Q7559805", "wikipedia": "en:Somerset station (SEPTA)"}}, {"type": "node", "id": 1118188530, "lat": 40.0002153, "lon": -75.1066243, "tags": {"addr:city": "Philadelphia", "addr:housenumber": "3500", "addr:state": "PA", "addr:street": "Kensington Avenue", "name": "Tioga", "network": "SEPTA", "operator": "SEPTA", "platforms": "1", "public_transport": "station", "railway": "station", "station": "subway", "subway": "yes", "wheelchair": "yes", "wikidata": "Q7808699", "wikipedia": "en:Tioga station"}}, {"type": "node", "id": 1118209246, "lat": 39.9559058, "lon": -75.1532615, "tags": {"addr:city": "Philadelphia", "name": "Chinatown", "network": "SEPTA", "network:wikidata": "Q2037863", "operator": "SEPTA", "public_transport": "station", "railway": "station", "railway:position": "mi:6.62", "station": "subway", "subway": "yes", "train": "yes", "wikidata": "Q5100161", "wikipedia": "en:Chinatown (SEPTA station)"}}, {"type": "node", "id": 1685402978, "lat": 39.9600003, "lon": -75.2248623, "tags": {"elevator": "yes", "name": "52nd Street", "network": "SEPTA", "operator": "SEPTA", "public_transport": "station", "railway": "station", "station": "subway", "subway": "yes", "wheelchair": "yes", "wikidata": "Q2880330"}}, {"type": "node", "id": 2014327122, "lat": 39.9815838, "lon": -75.1495197, "tags": {"name": "Temple University", "network": "SEPTA", "operator": "SEPTA", "public_transport": "station", "railway": "station", "railway:position": "mi:2.10", "train": "yes", "wheelchair": "yes", "wikidata": "Q7698686"}}, {"type": "node", "id": 2644271944, "lat": 39.9527752, "lon": -75.1580261, "tags": {"addr:city": "Philadelphia", "addr:postcode": "19107", "addr:state": "PA", "fare_zone": "C", "name": "Jefferson Station", "name:en": "Jefferson Station", "network": "SEPTA", "network:wikidata": "Q2037863", "old_name": "Market East Station", "operator": "SEPTA", "platforms": "2", "public_transport": "station", "railway": "station", "railway:position": "mi:0.50", "toilets": "yes", "toilets:access": "public", "train": "yes", "wikidata": "Q1900642", "wikipedia": "en:Jefferson Station (SEPTA)"}}, {"type": "node", "id": 4179747391, "lat": 39.9559238, "lon": -75.1914953, "tags": {"name": "34th Street", "network": "SEPTA", "operator": "SEPTA", "platforms": "1", "public_transport": "station", "railway": "station", "station": "subway", "subway": "yes", "wheelchair": "no", "wikidata": "Q4635453"}}, {"type": "node", "id": 4179752984, "lat": 39.9619732, "lon": -75.2408051, "tags": {"name": "60th Street", "network": "SEPTA", "operator": "SEPTA", "public_transport": "station", "railway": "station", "station": "subway", "subway": "yes", "wheelchair": "yes", "wikidata": "Q4641725"}}, {"type": "node", "id": 5335439514, "lat": 39.9972609, "lon": -75.1552656, "tags": {"addr:state": "PA", "name": "North Philadelphia", "network": "Amtrak;SEPTA", "public_transport": "station", "railway": "station", "railway:position": "mi:85.0", "railway:ref": "PHN", "train": "yes", "wikidata": "Q2000732"}}, {"type": "node", "id": 5358059677, "lat": 39.9550324, "lon": -75.18347, "tags": {"name": "30th Street", "network": "SEPTA", "operator": "SEPTA", "public_transport": "station", "railway": "station", "station": "subway", "subway": "yes", "tram": "yes", "wikidata": "Q4634655"}}, {"type": "node", "id": 5358093543, "lat": 40.0231608, "lon": -75.0778115, "tags": {"name": "Frankford Transportation Center", "network": "SEPTA", "public_transport": "station", "railway": "station", "short_name": "Frankford T.C.", "station": "subway", "subway": "yes", "wikidata": "Q5490782"}}, {"type": "node", "id": 5358095953, "lat": 39.9605274, "lon": -75.1403778, "tags": {"addr:housenumber": "600", "addr:street": "North Front Street", "name": "Spring Garden", "network": "SEPTA", "network:wikidata": "Q2037863", "public_transport": "station", "railway": "station", "station": "subway", "subway": "yes", "train": "yes", "wikidata": "Q9079459", "wikipedia": "en:Spring Garden station (Market\u2013Frankford Line)"}}, {"type": "node", "id": 5372039289, "lat": 39.9511591, "lon": -75.1537918, "tags": {"name": "8th Street", "network": "SEPTA", "network:wikidata": "Q2037863", "public_transport": "station", "railway": "station", "station": "subway", "subway": "yes", "train": "yes", "wheelchair": "yes", "wikidata": "Q8255403"}}, {"type": "node", "id": 5372039290, "lat": 39.9512871, "lon": -75.1535469, "tags": {"name": "8th & Market", "network": "SEPTA", "network:wikidata": "Q2037863", "public_transport": "station", "railway": "station", "railway:position": "mi:6.93", "station": "subway", "subway": "yes", "train": "yes", "wheelchair": "yes", "wikidata": "Q8255403"}}, {"type": "node", "id": 5372090015, "lat": 39.9499946, "lon": -75.1438048, "tags": {"name": "2nd Street", "network": "SEPTA", "network:wikidata": "Q2037863", "public_transport": "station", "railway": "station", "station": "subway", "subway": "yes", "train": "yes", "wikidata": "Q4633918", "wikipedia": "en:2nd Street station (SEPTA)"}}, {"type": "node", "id": 5372090220, "lat": 39.9517977, "lon": -75.1583456, "tags": {"name": "11th Street", "network": "SEPTA", "network:wikidata": "Q2037863", "public_transport": "station", "railway": "station", "station": "subway", "subway": "yes", "train": "yes", "wheelchair": "no", "wikidata": "Q4547989", "wikipedia": "en:11th Street station (SEPTA)"}}, {"type": "node", "id": 5372093802, "lat": 39.9505503, "lon": -75.1488907, "tags": {"addr:city": "Philadelphia", "addr:postcode": "19106", "addr:state": "PA", "addr:street": "5th Street", "name": "5th Street", "network": "SEPTA", "network:wikidata": "Q2037863", "public_transport": "station", "railway": "station", "station": "subway", "subway": "yes", "train": "yes", "wikidata": "Q4641464", "wikipedia": "en:5th Street station (SEPTA)"}}, {"type": "node", "id": 5372098384, "lat": 39.952184, "lon": -75.1615338, "tags": {"name": "13th Street", "network": "SEPTA", "public_transport": "station", "railway": "station", "station": "subway", "subway": "yes", "tram": "yes", "wikidata": "Q4549546", "wikipedia": "en:13th Street station (SEPTA)"}}, {"type": "node", "id": 5372105611, "lat": 39.9526346, "lon": -75.1651258, "tags": {"name": "15th Street", "network": "SEPTA", "public_transport": "station", "railway": "station", "station": "subway", "subway": "yes", "tram": "yes", "wheelchair": "yes", "wikidata": "Q4551050", "wikipedia": "en:15th Street station (SEPTA)"}}, {"type": "node", "id": 5372108003, "lat": 39.9572587, "lon": -75.2018813, "tags": {"addr:city": "Philadelphia", "addr:postcode": "19104", "name": "40th Street", "network": "SEPTA", "operator": "SEPTA", "public_transport": "station", "railway": "station", "station": "subway", "subway": "yes", "wikidata": "Q4637500"}}, {"type": "node", "id": 5377305092, "lat": 39.9488158, "lon": -75.1643881, "tags": {"addr:city": "Philadelphia", "addr:housenumber": "200", "addr:state": "PA", "addr:street": "South Broad Street", "name": "Walnut-Locust", "network": "SEPTA", "operator": "SEPTA", "platforms": "2", "public_transport": "station", "railway": "station", "railway:position": "mi:7.07", "station": "subway", "subway": "yes", "wheelchair": "yes", "wikidata": "Q7963710", "wikipedia": "en:Walnut\u2013Locust station"}}, {"type": "node", "id": 5377316453, "lat": 39.9531287, "lon": -75.1642021, "tags": {"addr:city": "Philadelphia", "addr:state": "PA", "name": "City Hall", "network": "SEPTA", "network:wikidata": "Q2037863", "operator": "SEPTA", "public_transport": "station", "railway": "station", "railway:position": "mi:6.82", "station": "subway", "subway": "yes", "train": "yes", "wheelchair": "no", "wikidata": "Q5123198", "wikipedia": "en:City Hall station (SEPTA)"}}, {"type": "node", "id": 5460903183, "lat": 39.9169429, "lon": -75.1710579, "tags": {"addr:housenumber": "2700", "addr:street": "South Broad Street", "name": "Oregon", "network": "SEPTA", "operator": "SEPTA", "public_transport": "station", "railway": "station", "railway:position": "mi:9.31", "station": "subway", "subway": "yes", "wikidata": "Q7101029", "wikipedia": "en:Oregon (SEPTA station)"}}, {"type": "node", "id": 5529504457, "lat": 39.9870963, "lon": -75.1560417, "tags": {"addr:city": "Philadelphia", "addr:street": "North Broad Street", "name": "Susquehanna-Dauphin", "network": "SEPTA", "operator": "Septa;SEPTA", "public_transport": "station", "railway": "station", "railway:position": "mi:4.37", "station": "subway", "subway": "yes", "wheelchair": "no", "wikidata": "Q11704150", "wikipedia": "en:Susquehanna\u2013Dauphin station"}}, {"type": "node", "id": 5864908345, "lat": 40.0629183, "lon": -75.1853925, "tags": {"name": "Sedgwick", "network": "SEPTA", "operator": "SEPTA", "public_transport": "station", "railway": "station", "railway:position": "mi:8.90", "train": "yes", "wikidata": "Q7445264"}}, {"type": "node", "id": 6097540131, "lat": 39.9559304, "lon": -75.1819051, "tags": {"addr:state": "PA", "iata": "ZFV", "name": "Philadelphia 30th Street Station", "network": "Amtrak;SEPTA;NJ Transit", "operator": "Amtrak", "public_transport": "station", "railway": "station", "railway:ref": "PHL", "train": "yes", "wheelchair": "yes", "wikidata": "Q224214"}}, {"type": "node", "id": 6616787521, "lat": 40.0232498, "lon": -75.039015, "tags": {"name": "Tacony", "network": "SEPTA", "public_transport": "station", "railway": "station", "railway:position": "mi:78.2", "train": "yes", "wikidata": "Q7674052"}}, {"type": "node", "id": 6616787526, "lat": 40.0544244, "lon": -74.9845185, "tags": {"addr:state": "PA", "ele": "8", "gnis:county_name": "Philadelphia", "gnis:feature_id": "1207901", "gnis:reviewed": "no", "name": "Torresdale", "network": "SEPTA", "operator": "septa", "public_transport": "station", "railway": "station", "railway:position": "mi:74.6", "source": "USGS Geonames", "train": "yes", "wikidata": "Q7827076"}}, {"type": "node", "id": 7004606694, "lat": 40.0107114, "lon": -75.0698879, "tags": {"name": "Bridesburg", "network": "SEPTA", "operator": "septa", "public_transport": "station", "railway": "station", "railway:position": "mi:80.1", "train": "yes", "wikidata": "Q4966148"}}, {"type": "node", "id": 7004749559, "lat": 40.0362811, "lon": -75.1614769, "tags": {"name": "Wister", "network": "SEPTA", "operator": "septa", "public_transport": "station", "railway": "station", "railway:position": "mi:6.10", "train": "yes", "wikidata": "Q8027747"}}, {"type": "node", "id": 7004749560, "lat": 40.0651805, "lon": -75.1911876, "tags": {"addr:city": "Philadelphia", "addr:housenumber": "149", "addr:postcode": "19119", "addr:street": "East Gowen Avenue", "name": "Mount Airy", "network": "SEPTA", "operator": "SEPTA", "phone": "+1-215-580-6942", "public_transport": "station", "railway": "station", "railway:position": "mi:9.30", "train": "yes", "website": "http://www.septa.org/stations/rail/mtairy.html", "wikidata": "Q15256667"}}, {"type": "node", "id": 7004749561, "lat": 40.0037889, "lon": -75.1654407, "tags": {"addr:state": "PA", "ele": "39", "gnis:county_name": "Philadelphia", "gnis:feature_id": "1208014", "gnis:import_uuid": "57871b70-0100-4405-bb30-88b2e001a944", "gnis:reviewed": "no", "name": "Allegheny", "network": "SEPTA", "operator": "septa", "public_transport": "station", "railway": "station", "railway:position": "mi:4.00", "source": "USGS Geonames", "train": "yes", "wikidata": "Q4731271"}}, {"type": "node", "id": 7004749563, "lat": 40.0298482, "lon": -75.1811682, "tags": {"addr:city": "Philadelphia", "addr:housenumber": "359", "addr:postcode": "19144", "addr:state": "PA", "addr:street": "West Chelten Avenue", "ele": "66", "gnis:county_name": "Philadelphia", "gnis:feature_id": "1208009", "gnis:import_uuid": "57871b70-0100-4405-bb30-88b2e001a944", "gnis:reviewed": "no", "name": "Chelten Avenue", "network": "SEPTA", "operator": "SEPTA", "phone": "(215) 843-5614", "public_transport": "station", "railway": "station", "railway:position": "mi:2.80", "source": "USGS Geonames", "train": "yes", "website": "http://www.septa.org/stations/rail/cheltenave.html", "wikidata": "Q5090173", "wikipedia": "en:Chelten Avenue station"}}, {"type": "node", "id": 7004749572, "lat": 40.0377966, "lon": -75.171891, "tags": {"name": "Germantown", "network": "SEPTA", "operator": "septa", "public_transport": "station", "railway": "station", "railway:position": "mi:6.80", "train": "yes", "wikidata": "Q5552028"}}, {"type": "node", "id": 7004749578, "lat": 40.035191, "lon": -75.1868656, "tags": {"addr:city": "Philadelphia", "addr:housenumber": "333", "addr:state": "PA", "addr:street": "West Tulpehocken Street", "name": "Tulpehocken", "network": "SEPTA", "operator": "SEPTA", "public_transport": "station", "railway": "station", "railway:position": "mi:3.30", "train": "yes", "website": "http://www.septa.org/stations/rail/tulpehocken.html", "wikidata": "Q7852306"}}, {"type": "node", "id": 7004749580, "lat": 40.0773546, "lon": -75.2019455, "tags": {"name": "Gravers", "network": "SEPTA", "operator": "SEPTA", "public_transport": "station", "railway": "station", "railway:position": "mi:10.30", "train": "yes", "website": "http://www.septa.org/stations/rail/alternate-service/gravers.html", "wikidata": "Q5597885", "wikipedia": "en:Gravers station"}}, {"type": "node", "id": 7004749582, "lat": 40.0232855, "lon": -75.1777824, "tags": {"addr:state": "PA", "ele": "61", "gnis:county_name": "Philadelphia", "gnis:feature_id": "1208010", "gnis:import_uuid": "57871b70-0100-4405-bb30-88b2e001a944", "gnis:reviewed": "no", "name": "Queen Lane", "network": "SEPTA", "operator": "septa", "public_transport": "station", "railway": "station", "railway:position": "mi:2.20", "source": "USGS Geonames", "train": "yes", "wheelchair": "yes", "wikidata": "Q7270419"}}, {"type": "node", "id": 7004789885, "lat": 40.011478, "lon": -75.1920089, "tags": {"addr:city": "Philadelphia", "addr:housenumber": "3610", "addr:postcode": "19129", "addr:state": "PA", "addr:street": "Midvale Avenue", "name": "East Falls", "network": "SEPTA", "operator": "SEPTA", "phone": "(215) 580-6894", "public_transport": "station", "railway": "station", "railway:position": "mi:5.50", "train": "yes", "website": "http://www.septa.org/stations/rail/eastfalls.html", "wikidata": "Q5328332"}}, {"type": "node", "id": 7004789891, "lat": 39.990815, "lon": -75.2256162, "tags": {"name": "Wynnefield Avenue", "network": "SEPTA", "operator": "septa", "public_transport": "station", "railway": "station", "railway:position": "mi:4.90", "train": "yes", "wikidata": "Q12073236"}}, {"type": "node", "id": 7012661314, "lat": 40.0270147, "lon": -75.2251482, "tags": {"addr:state": "PA", "ele": "19", "name": "Manayunk", "network": "SEPTA", "operator": "septa", "public_transport": "station", "railway": "station", "railway:position": "mi:7.50", "source": "USGS Geonames", "train": "yes", "wikidata": "Q6747159", "wikipedia": "en:Manayunk station"}}, {"type": "node", "id": 7061222712, "lat": 39.9898764, "lon": -75.2499989, "tags": {"name": "Overbrook", "network": "SEPTA", "operator": "SEPTA", "phone": "(215) 878-7111", "public_transport": "station", "railway": "station", "railway:position": "mi:5.4", "train": "yes", "website": "http://www.septa.org/stations/rail/overbrook.html", "wikidata": "Q7113566"}}, {"type": "node", "id": 7063988607, "lat": 40.0414027, "lon": -75.1347899, "tags": {"name": "Fern Rock Transportation Center", "network": "SEPTA", "operator": "SEPTA", "public_transport": "station", "railway": "station", "railway:position": "mi:7.00", "short_name": "Fern Rock T.C.", "train": "yes", "wikidata": "Q5444482", "wikipedia": "en:Fern Rock Transportation Center"}}, {"type": "node", "id": 7064477742, "lat": 40.0761535, "lon": -75.2083308, "tags": {"ele": "131", "name": "Chestnut Hill West", "network": "SEPTA", "operator": "SEPTA", "phone": "(215) 247-3834", "public_transport": "station", "railway": "station", "railway:position": "mi:6.65", "train": "yes", "website": "https://www.septa.org/stations/rail/chestnuthillwest.html", "wikidata": "Q5093958", "wikipedia": "en:Chestnut Hill West station"}}, {"type": "node", "id": 7064617212, "lat": 40.0809185, "lon": -75.2077675, "tags": {"name": "Chestnut Hill East", "network": "SEPTA", "operator": "SEPTA", "phone": "(215) 580-6880", "public_transport": "station", "railway": "station", "railway:position": "mi:10.80", "train": "yes", "website": "http://www.septa.org/stations/rail/chestnuthilleast.html", "wikidata": "Q5093949", "wikipedia": "en:Chestnut Hill East station"}}, {"type": "node", "id": 7194028327, "lat": 39.9509527, "lon": -75.1536208, "tags": {"name": "8th & Market", "network": "PATCO", "public_transport": "station", "railway": "station", "station": "subway", "subway": "yes", "wheelchair": "yes", "wikidata": "Q8255403"}}, {"type": "node", "id": 7704015326, "lat": 39.9552169, "lon": -75.1891538, "tags": {"name": "33rd Street", "network": "SEPTA", "operator": "SEPTA", "public_transport": "station", "railway": "station", "railway:position": "mi:0.57", "station": "tram", "subway": "no", "tram": "yes"}}]}