{"version": 0.6, "generator": "Overpass API 0.7.61.5 4133829e", "osm3s": {"timestamp_osm_base": "2023-12-19T05:42:56Z", "copyright": "The data included in this document is from www.openstreetmap.org. The data is made available under ODbL."}, "elements": [{"type": "node", "id": 361011456, "lat": 39.9522349, "lon": -75.1616645, "tags": {"bench": "yes", "bus": "yes", "covered": "yes", "highway": "bus_stop", "name": "13th St & Market St", "network": "SEPTA", "network:wikidata": "Q2037863", "operator": "SEPTA", "public_transport": "platform", "shelter": "yes"}}, {"type": "node", "id": 1015348819, "lat": 39.9513224, "lon": -75.1486509, "tags": {"bus": "yes", "highway": "bus_stop", "name": "5th and Market", "public_transport": "platform", "shelter": "no"}}, {"type": "node", "id": 1036223940, "lat": 39.951258, "lon": -75.163682, "tags": {"bench": "yes", "bus": "yes", "highway": "bus_stop", "name": "Broad St & S Penn Sq", "network": "SEPTA", "network:wikidata": "Q2037863", "network:wikipedia": "en:SEPTA", "operator": "SEPTA", "public_transport": "platform", "ref": "20414", "shelter": "yes", "tactile_paving": "no"}}, {"type": "node", "id": 1036227129, "lat": 39.9536672, "lon": -75.1647226, "tags": {"bus": "yes", "highway": "bus_stop", "network": "SEPTA", "network:wikidata": "Q2037863", "operator": "SEPTA", "public_transport": "platform", "wheelchair": "yes"}}, {"type": "node", "id": 1586414619, "lat": 39.964711, "lon": -75.1822572, "tags": {"bus": "yes", "highway": "bus_stop", "name": "Anne d'Harnoncourt Drive & Spring Garden Street", "public_transport": "platform", "route_ref": "38"}}, {"type": "node", "id": 1896674573, "lat": 39.9498937, "lon": -75.1440398, "tags": {"bus": "yes", "highway": "bus_stop", "network": "SEPTA", "network:wikidata": "Q2037863", "operator": "SEPTA", "public_transport": "platform"}}, {"type": "node", "id": 3415309163, "lat": 39.9483879, "lon": -75.1646275, "tags": {"bench": "no", "bus": "yes", "highway": "bus_stop", "name": "Broad St & Locust St", "network": "SEPTA", "network:wikidata": "Q2037863", "operator": "SEPTA", "public_transport": "platform", "ref": "15187", "shelter": "yes", "tactile_paving": "no"}}, {"type": "node", "id": 3415309166, "lat": 39.9495244, "lon": -75.164374, "tags": {"bench": "yes", "bin": "no", "bus": "yes", "highway": "bus_stop", "lit": "yes", "name": "Broad St & Walnut St", "network": "SEPTA", "network:wikidata": "Q2037863", "operator": "SEPTA", "public_transport": "platform", "ref": "15186", "shelter": "yes", "tactile_paving": "no"}}, {"type": "node", "id": 3415309230, "lat": 39.9519603, "lon": -75.1594763, "tags": {"bus": "yes", "covered": "yes", "highway": "bus_stop", "name": "12th St & Market St", "network": "SEPTA", "network:wikidata": "Q2037863", "operator": "SEPTA", "public_transport": "platform", "shelter": "yes"}}, {"type": "node", "id": 3417263291, "lat": 39.9448509, "lon": -75.1417528, "tags": {"bus": "yes", "highway": "bus_stop", "public_transport": "platform"}}, {"type": "node", "id": 3428124095, "lat": 39.9505155, "lon": -75.1472905, "tags": {"bus": "yes", "departures_board": "no", "highway": "bus_stop", "name": "57 South to Whitman Plaza", "network": "SEPTA", "network:wikidata": "Q2037863", "operator": "Septa", "public_transport": "platform", "ref": "850", "shelter": "yes"}}, {"type": "node", "id": 3428124096, "lat": 39.9502841, "lon": -75.1474327, "tags": {"bench": "yes", "bus": "yes", "highway": "bus_stop", "public_transport": "platform", "shelter": "no"}}, {"type": "node", "id": 3429163960, "lat": 39.9506311, "lon": -75.1487059, "tags": {"bus": "yes", "highway": "bus_stop", "public_transport": "platform", "shelter": "no"}}, {"type": "node", "id": 3429164418, "lat": 39.950911, "lon": -75.152393, "tags": {"bus": "yes", "highway": "bus_stop", "public_transport": "platform"}}, {"type": "node", "id": 3429164419, "lat": 39.9510755, "lon": -75.1524225, "tags": {"bus": "yes", "highway": "bus_stop", "public_transport": "platform"}}, {"type": "node", "id": 3429439362, "lat": 39.9537848, "lon": -75.1575714, "tags": {"bus": "yes", "highway": "bus_stop", "public_transport": "platform", "shelter": "yes"}}, {"type": "node", "id": 3429660043, "lat": 39.9535947, "lon": -75.1561335, "tags": {"bench": "no", "bin": "no", "bus": "yes", "highway": "bus_stop", "name": "Arch St & 10th St", "public_transport": "platform", "shelter": "no", "tactile_paving": "no"}}, {"type": "node", "id": 3429660053, "lat": 39.9532081, "lon": -75.1529678, "tags": {"bench": "yes", "bin": "no", "bus": "yes", "highway": "bus_stop", "lit": "no", "public_transport": "platform", "ref": "4472", "shelter": "yes", "tactile_paving": "no"}}, {"type": "node", "id": 3439389459, "lat": 39.9542701, "lon": -75.1695993, "tags": {"bus": "yes", "highway": "bus_stop", "public_transport": "platform", "shelter": "yes"}}, {"type": "node", "id": 3439389467, "lat": 39.9540819, "lon": -75.1680882, "tags": {"bench": "yes", "bin": "no", "bus": "yes", "check_date:shelter": "2023-11-24", "highway": "bus_stop", "public_transport": "platform", "shelter": "yes", "tactile_paving": "no"}}, {"type": "node", "id": 3453181056, "lat": 39.9546645, "lon": -75.1646497, "tags": {"bus": "yes", "highway": "bus_stop", "name": "Arch St & 15th St", "network": "SEPTA", "network:wikidata": "Q2037863", "operator": "SEPTA", "public_transport": "platform"}}, {"type": "node", "id": 3454064546, "lat": 39.9522877, "lon": -75.162122, "tags": {"bus": "yes", "highway": "bus_stop", "name": "Market St. At 13th St.", "network": "SEPTA", "network:wikidata": "Q2037863", "operator": "SEPTA", "public_transport": "platform", "shelter": "yes"}}, {"type": "node", "id": 3454064549, "lat": 39.9518618, "lon": -75.1586241, "tags": {"bench": "yes", "bus": "yes", "highway": "bus_stop", "public_transport": "platform", "shelter": "yes"}}, {"type": "node", "id": 3468863130, "lat": 39.9481225, "lon": -75.1539965, "tags": {"bus": "yes", "highway": "bus_stop", "public_transport": "platform"}}, {"type": "node", "id": 3475530938, "lat": 39.9501614, "lon": -75.1703967, "tags": {"bench": "yes", "bin": "yes", "bus": "yes", "highway": "bus_stop", "lit": "yes", "name": "Walnut St & 18th St", "network": "SEPTA", "network:wikidata": "Q2037863", "operator": "SEPTA", "public_transport": "platform", "ref": "14084", "shelter": "yes", "tactile_paving": "no"}}, {"type": "node", "id": 3475530939, "lat": 39.9503751, "lon": -75.1720843, "tags": {"bench": "yes", "bin": "no", "bus": "yes", "highway": "bus_stop", "lit": "yes", "name": "Walnut St & 19th St", "network": "SEPTA", "network:wikidata": "Q2037863", "operator": "SEPTA", "public_transport": "platform", "ref": "14085", "shelter": "yes", "tactile_paving": "no"}}, {"type": "node", "id": 3475530940, "lat": 39.9505688, "lon": -75.1736519, "tags": {"bench": "yes", "bin": "no", "bus": "yes", "highway": "bus_stop", "name": "Walnut St & 20th St", "network": "SEPTA", "network:wikidata": "Q2037863", "operator": "SEPTA", "public_transport": "platform", "shelter": "yes", "tactile_paving": "no"}}, {"type": "node", "id": 3476015084, "lat": 39.9508081, "lon": -75.1755623, "tags": {"bench": "no", "bin": "no", "bus": "yes", "highway": "bus_stop", "name": "Walnut St & 21st St", "network": "SEPTA", "network:wikidata": "Q2037863", "operator": "SEPTA", "public_transport": "platform", "shelter": "yes", "tactile_paving": "no"}}, {"type": "node", "id": 3476015085, "lat": 39.9511644, "lon": -75.1782928, "tags": {"bus": "yes", "highway": "bus_stop", "name": "Walnut St & 23rd St", "network": "SEPTA", "network:wikidata": "Q2037863", "operator": "SEPTA", "public_transport": "platform"}}, {"type": "node", "id": 3487491425, "lat": 39.9513015, "lon": -75.1670282, "tags": {"bench": "no", "bin": "no", "bus": "yes", "highway": "bus_stop", "public_transport": "platform", "shelter": "no", "tactile_paving": "no"}}, {"type": "node", "id": 3488810607, "lat": 39.9501776, "lon": -75.1588188, "tags": {"bench": "yes", "bin": "yes", "bus": "yes", "covered": "yes", "highway": "bus_stop", "lit": "yes", "network": "SEPTA", "network:wikidata": "Q2037863", "operator": "SEPTA", "public_transport": "platform", "ref": "6057", "shelter": "yes", "tactile_paving": "no"}}, {"type": "node", "id": 3488810609, "lat": 39.9503801, "lon": -75.1604094, "tags": {"bench": "yes", "bin": "no", "bus": "yes", "highway": "bus_stop", "lit": "yes", "name": "Chestnut St & 12th St", "network": "SEPTA", "network:wikidata": "Q2037863", "operator": "SEPTA", "public_transport": "platform", "ref": "6058", "shelter": "yes", "tactile_paving": "no"}}, {"type": "node", "id": 3499206771, "lat": 39.9485216, "lon": -75.1572493, "tags": {"bench": "no", "bin": "yes", "bus": "yes", "covered": "yes", "highway": "bus_stop", "lit": "yes", "network": "SEPTA", "network:wikidata": "Q2037863", "operator": "SEPTA", "public_transport": "platform", "ref": "14884", "shelter": "yes", "tactile_paving": "no"}}, {"type": "node", "id": 3504181482, "lat": 39.9556508, "lon": -75.1725768, "tags": {"bus": "yes", "covered": "yes", "highway": "bus_stop", "network": "SEPTA", "network:wikidata": "Q2037863", "operator": "SEPTA", "public_transport": "platform", "shelter": "yes"}}, {"type": "node", "id": 3527163514, "lat": 39.9505677, "lon": -75.1619632, "tags": {"bench": "yes", "bus": "yes", "highway": "bus_stop", "name": "Chestnut St & 13th St", "network": "SEPTA", "network:wikidata": "Q2037863", "operator": "SEPTA", "public_transport": "platform", "ref": "6059", "shelter": "yes", "tactile_paving": "no"}}, {"type": "node", "id": 3529171313, "lat": 39.9471343, "lon": -75.1648941, "tags": {"bench": "no", "bus": "yes", "highway": "bus_stop", "public_transport": "platform", "ref": "15188", "shelter": "no", "tactile_paving": "no"}}, {"type": "node", "id": 3529171314, "lat": 39.9457155, "lon": -75.1652004, "tags": {"bus": "yes", "highway": "bus_stop", "public_transport": "platform", "shelter": "yes"}}, {"type": "node", "id": 3532578447, "lat": 39.9490993, "lon": -75.1618723, "tags": {"bench": "yes", "bin": "yes", "bus": "yes", "highway": "bus_stop", "lit": "no", "public_transport": "platform", "ref": "14887", "shelter": "yes", "tactile_paving": "no"}}, {"type": "node", "id": 3540215363, "lat": 39.9484801, "lon": -75.1710988, "tags": {"bus": "yes", "highway": "bus_stop", "name": "Rittenhouse Sq & 18th St", "network": "SEPTA", "network:wikidata": "Q2037863", "operator": "SEPTA", "public_transport": "platform"}}, {"type": "node", "id": 3540604459, "lat": 39.9499285, "lon": -75.1688203, "tags": {"bench": "yes", "bin": "yes", "bus": "yes", "highway": "bus_stop", "public_transport": "platform", "shelter": "yes", "tactile_paving": "no"}}, {"type": "node", "id": 3545078818, "lat": 39.9506618, "lon": -75.1641282, "tags": {"bench": "yes", "bus": "yes", "highway": "bus_stop", "network": "SEPTA", "network:wikidata": "Q2037863", "operator": "SEPTA", "public_transport": "platform", "ref": "15185", "shelter": "yes", "tactile_paving": "no"}}, {"type": "node", "id": 3545078830, "lat": 39.9495875, "lon": -75.1657504, "tags": {"bench": "yes", "bin": "no", "bus": "yes", "highway": "bus_stop", "lit": "yes", "network": "SEPTA", "network:wikidata": "Q2037863", "operator": "SEPTA", "public_transport": "platform", "ref": "14079", "shelter": "yes", "tactile_paving": "no"}}, {"type": "node", "id": 3566597918, "lat": 39.9579025, "lon": -75.1770742, "tags": {"bench": "no", "bus": "yes", "covered": "no", "highway": "bus_stop", "name": "23rd St & Race St", "network": "SEPTA", "network:wikidata": "Q2037863", "operator": "SEPTA", "public_transport": "platform", "shelter": "no"}}, {"type": "node", "id": 3566597920, "lat": 39.9563598, "lon": -75.1774101, "tags": {"bench": "no", "bus": "yes", "covered": "no", "highway": "bus_stop", "name": "23rd St & Arch St", "network": "SEPTA", "network:wikidata": "Q2037863", "operator": "SEPTA", "public_transport": "platform", "shelter": "no"}}, {"type": "node", "id": 3590076676, "lat": 39.9453776, "lon": -75.1514983, "tags": {"bus": "yes", "highway": "bus_stop", "name": "Spruce St & 6th St", "network": "SEPTA", "network:wikidata": "Q2037863", "operator": "SEPTA", "public_transport": "platform"}}, {"type": "node", "id": 3590076818, "lat": 39.9467579, "lon": -75.1535055, "tags": {"bus": "yes", "highway": "bus_stop", "name": "Washington Sq & Locust St", "network": "SEPTA", "network:wikidata": "Q2037863", "operator": "SEPTA", "public_transport": "platform"}}, {"type": "node", "id": 3599791185, "lat": 39.9469222, "lon": -75.1546092, "tags": {"bench": "no", "bin": "no", "bus": "yes", "highway": "bus_stop", "name": "Locust St & 8th St", "network": "SEPTA", "network:wikidata": "Q2037863", "operator": "SEPTA", "public_transport": "platform", "shelter": "no", "tactile_paving": "no"}}, {"type": "node", "id": 5633921630, "lat": 39.9607043, "lon": -75.1736111, "tags": {"bench": "yes", "bin": "yes", "bus": "yes", "highway": "bus_stop", "network": "SEPTA", "network:wikidata": "Q2037863", "operator": "Septa", "public_transport": "platform", "ref": "16569", "shelter": "no", "tactile_paving": "no"}}, {"type": "node", "id": 5723374722, "lat": 39.9511933, "lon": -75.1532848, "tags": {"bench": "yes", "bus": "yes", "highway": "bus_stop", "lit": "yes", "network": "SEPTA", "network:wikidata": "Q2037863", "operator": "SEPTA", "public_transport": "platform", "shelter": "yes"}}, {"type": "node", "id": 5723374731, "lat": 39.9513183, "lon": -75.1557221, "tags": {"bench": "yes", "bus": "yes", "highway": "bus_stop", "lit": "yes", "network": "SEPTA", "network:wikidata": "Q2037863", "operator": "SEPTA", "public_transport": "platform", "shelter": "yes"}}, {"type": "node", "id": 5723387982, "lat": 39.9488447, "lon": -75.1691887, "tags": {"bench": "yes", "bus": "yes", "highway": "bus_stop", "lit": "yes", "network": "SEPTA", "network:wikidata": "Q2037863", "operator": "SEPTA", "public_transport": "platform", "shelter": "yes"}}, {"type": "node", "id": 6028779485, "lat": 39.950731, "lon": -75.150861, "tags": {"bench": "no", "bin": "no", "bus": "yes", "highway": "bus_stop", "name": "Megabus to NYC", "public_transport": "platform", "shelter": "no", "tactile_paving": "no"}}, {"type": "node", "id": 6618646884, "lat": 39.9540859, "lon": -75.1764849, "tags": {"bench": "no", "bus": "yes", "departures_board": "no", "highway": "bus_stop", "network": "SEPTA", "network:wikidata": "Q2037863", "network:wikipedia": "en:SEPTA", "operator": "SEPTA", "public_transport": "platform", "ref": "10281", "shelter": "no"}}, {"type": "node", "id": 6625248815, "lat": 39.9497636, "lon": -75.1423368, "tags": {"bus": "yes", "highway": "bus_stop", "public_transport": "platform"}}, {"type": "node", "id": 6625248816, "lat": 39.9498622, "lon": -75.1423125, "tags": {"bus": "yes", "highway": "bus_stop", "public_transport": "platform"}}, {"type": "node", "id": 6625432771, "lat": 39.9500203, "lon": -75.1433327, "tags": {"bus": "yes", "highway": "bus_stop", "public_transport": "platform"}}, {"type": "node", "id": 6832966485, "lat": 39.9530169, "lon": -75.1580033, "tags": {"bus": "yes", "highway": "bus_stop", "name": "Focus Travel Agency", "public_transport": "platform"}}, {"type": "node", "id": 7167585620, "lat": 39.9509078, "lon": -75.150925, "tags": {"brand": "FlixBus", "brand:wikidata": "Q15712258", "bus": "yes", "highway": "bus_stop", "name": "FlixBus Philadelphia Market Street", "public_transport": "platform"}}, {"type": "node", "id": 7973722885, "lat": 39.9483541, "lon": -75.1442378, "tags": {"bench": "no", "bus": "yes", "highway": "bus_stop", "name": "Chestnut Street & South 2nd Street", "public_transport": "platform", "route_ref": "21;42", "shelter": "no"}}, {"type": "node", "id": 7973722890, "lat": 39.9488546, "lon": -75.1481199, "tags": {"bus": "yes", "highway": "bus_stop", "name": "Chestnut Street @ Second Bank Of The United States", "public_transport": "platform", "route_ref": "9;21;42"}}, {"type": "node", "id": 7976913478, "lat": 39.9501178, "lon": -75.1459569, "tags": {"bus": "yes", "highway": "bus_stop", "name": "Market Street & South 3rd Street", "public_transport": "platform", "route_ref": "17;33;48"}}, {"type": "node", "id": 7976913481, "lat": 39.9506774, "lon": -75.1506649, "tags": {"bench": "yes", "bin": "no", "bus": "yes", "highway": "bus_stop", "name": "Market Street & South 6th Street", "public_transport": "platform", "route_ref": "17;33;48;Megabus", "shelter": "yes", "tactile_paving": "no"}}, {"type": "node", "id": 7976943917, "lat": 39.949002, "lon": -75.160584, "tags": {"bench": "no", "bus": "yes", "highway": "bus_stop", "name": "North 12th Street & Walnut Street", "public_transport": "platform", "ref": "16132", "route_ref": "23;45", "shelter": "yes", "tactile_paving": "no"}}, {"type": "node", "id": 7976943923, "lat": 39.9489313, "lon": -75.1604196, "tags": {"bench": "no", "bin": "yes", "bus": "yes", "highway": "bus_stop", "lit": "yes", "name": "Walnut Street & North 12th Street", "public_transport": "platform", "ref": "14886", "route_ref": "9;12;21;42", "shelter": "no", "tactile_paving": "no"}}, {"type": "node", "id": 7976943933, "lat": 39.9478055, "lon": -75.1527606, "tags": {"bench": "no", "bin": "no", "bus": "yes", "highway": "bus_stop", "lit": "yes", "name": "North 7th Street & Walnut Street", "public_transport": "platform", "ref": "18515", "route_ref": "47", "shelter": "no", "tactile_paving": "no"}}, {"type": "node", "id": 7976962579, "lat": 39.9510128, "lon": -75.1771976, "tags": {"bench": "no", "bin": "no", "bus": "yes", "departures_board": "no", "highway": "bus_stop", "name": "Walnut Street & South 22nd Street", "public_transport": "platform", "route_ref": "9;12;21;42", "shelter": "yes", "tactile_paving": "no"}}, {"type": "node", "id": 7977009030, "lat": 39.9544742, "lon": -75.1629424, "tags": {"bench": "no", "bus": "yes", "highway": "bus_stop", "name": "Arch Street & North Broad Street", "public_transport": "platform", "route_ref": "48", "shelter": "no"}}, {"type": "node", "id": 7977031966, "lat": 39.9523628, "lon": -75.176897, "tags": {"bench": "no", "bin": "yes", "bus": "yes", "highway": "bus_stop", "name": "South 22nd Street & Chestnut Street", "public_transport": "platform", "route_ref": "7", "shelter": "yes", "tactile_paving": "no"}}, {"type": "node", "id": 7977031968, "lat": 39.9577641, "lon": -75.1757984, "tags": {"bus": "yes", "highway": "bus_stop", "name": "North 22nd Street & Race Street", "public_transport": "platform", "route_ref": "7;48"}}, {"type": "node", "id": 7977031972, "lat": 39.9524097, "lon": -75.1767486, "tags": {"bench": "yes", "bin": "no", "bus": "yes", "highway": "bus_stop", "name": "Chestnut Street & South 22nd Street", "public_transport": "platform", "shelter": "yes", "tactile_paving": "no"}}, {"type": "node", "id": 8825246805, "lat": 39.9487064, "lon": -75.1588315, "tags": {"bench": "yes", "bin": "yes", "bus": "yes", "highway": "bus_stop", "public_transport": "platform", "shelter": "yes", "tactile_paving": "no"}}, {"type": "node", "id": 8878395934, "lat": 39.944985, "lon": -75.1483205, "tags": {"bin": "yes", "bus": "yes", "departures_board": "no", "highway": "bus_stop", "name": "42 To Wyncote", "network": "SEPTA", "network:wikidata": "Q2037863", "operator": "Septa", "public_transport": "platform", "ref": "22139", "shelter": "no"}}, {"type": "node", "id": 8878395935, "lat": 39.9450446, "lon": -75.1484911, "tags": {"bus": "yes", "departures_board": "no", "highway": "bus_stop", "name": "57 To Whitman Plaza", "network": "SEPTA", "network:wikidata": "Q2037863", "operator": "Septa", "public_transport": "platform", "ref": "18099", "shelter": "no"}}, {"type": "node", "id": 8878395936, "lat": 39.9461385, "lon": -75.1482524, "tags": {"bus": "yes", "departures_board": "no", "highway": "bus_stop", "name": "57 To Whitman Plaza", "network": "SEPTA", "network:wikidata": "Q2037863", "operator": "Septa", "public_transport": "platform", "ref": "18098", "shelter": "no"}}, {"type": "node", "id": 8878395937, "lat": 39.9474432, "lon": -75.1479654, "tags": {"bus": "yes", "departures_board": "no", "highway": "bus_stop", "name": "57 To Whitman Plaza", "network": "SEPTA", "network:wikidata": "Q2037863", "operator": "Septa", "public_transport": "platform", "ref": "18095", "shelter": "no"}}, {"type": "node", "id": 8878395938, "lat": 39.9489458, "lon": -75.1476254, "tags": {"bus": "yes", "departures_board": "no", "highway": "bus_stop", "name": "57 to Whitman Plaza", "network": "SEPTA", "network:wikidata": "Q2037863", "operator": "Septa", "public_transport": "platform", "ref": "18094"}}, {"type": "node", "id": 8878395939, "lat": 39.9436157, "lon": -75.1488076, "tags": {"bus": "yes", "departures_board": "no", "highway": "bus_stop", "name": "57 To Whitman Plaza", "network": "SEPTA", "network:wikidata": "Q2037863", "operator": "Septa", "public_transport": "platform", "ref": "18100", "shelter": "no"}}, {"type": "node", "id": 8878395940, "lat": 39.9427433, "lon": -75.148996, "tags": {"bus": "yes", "departures_board": "no", "highway": "bus_stop", "name": "57 To Whitman Plaza", "network": "SEPTA", "network:wikidata": "Q2037863", "operator": "Septa", "public_transport": "platform", "ref": "18101", "shelter": "no"}}, {"type": "node", "id": 9272860072, "lat": 39.9539036, "lon": -75.1749552, "tags": {"bench": "no", "bin": "no", "bus": "yes", "departures_board": "no", "highway": "bus_stop", "lit": "yes", "network": "SEPTA", "network:wikidata": "Q2037863", "network:wikipedia": "en:SEPTA", "note": "Bus routes:\n31 to 76th-City\n44 to Ardmore\n62 to Andorra\n124 to King of Prussia & Chesterbrook\n125 to King of Prussia & Valley Forge", "operator": "SEPTA", "public_transport": "platform", "ref": "10279", "shelter": "no", "tactile_paving": "no"}}, {"type": "node", "id": 9272887824, "lat": 39.9515427, "lon": -75.1561228, "tags": {"bench": "yes", "bus": "yes", "highway": "bus_stop", "network": "SEPTA", "network:wikidata": "Q2037863", "network:wikipedia": "en:SEPTA", "note": "Bus routes\n38 to Wissahickon Transportation Center\n44 to Ardmore\n62 to Andorra", "operator": "SEPTA", "public_transport": "platform", "ref": "30081", "route_ref": "38;44;62", "shelter": "yes"}}, {"type": "node", "id": 10046242856, "lat": 39.9560952, "lon": -75.1760765, "tags": {"bus": "yes", "departures_board": "timetable", "description": "The 48 bus stops here.", "highway": "bus_stop", "name": "Arch St & 22nd St Bus Stop", "network": "SETPA", "not:network:wikidata": "Q2037863", "operator": "SEPTA", "public_transport": "platform", "shelter": "no"}}]}