{"version": 0.6, "generator": "Overpass API 0.7.61.5 4133829e", "osm3s": {"timestamp_osm_base": "2023-12-20T01:38:15Z", "copyright": "The data included in this document is from www.openstreetmap.org. The data is made available under ODbL."}, "elements": [{"type": "node", "id": 343293806, "lat": 39.9607305, "lon": -75.1594566, "tags": {"addr:city": "Philadelphia", "addr:housenumber": "501", "addr:postcode": "19123", "addr:state": "PA", "addr:street": "North 13th Street", "amenity": "pub", "brewery": "yes", "name": "Prohibition Taproom", "opening_hours": "Mo-Su 11:00-02:00", "source": "survey"}}, {"type": "node", "id": 357303425, "lat": 39.9606683, "lon": -75.1471214, "tags": {"addr:city": "Philadelphia", "addr:housenumber": "500", "addr:postcode": "19123", "addr:state": "PA", "addr:street": "Spring Garden Street", "amenity": "bar", "brewery": "yes", "craft": "brewery", "gnis:county_id": "101", "microbrewery": "yes", "name": "Yards Brewing Company", "operator": "Yards Brewing Company", "restaurant": "yes", "website": "https://yardsbrewing.com/", "wikidata": "Q16903914", "wikipedia": "en:Yards Brewing Company"}}, {"type": "node", "id": 651838077, "lat": 39.949089, "lon": -75.1707551, "tags": {"addr:city": "Philadelphia", "addr:housenumber": "227", "addr:postcode": "19103", "addr:state": "PA", "addr:street": "South 18th Street", "amenity": "restaurant", "check_date": "2023-07-21", "contact:facebook": "https://www.facebook.com/ParcRestaurant", "contact:website": "https://parc-restaurant.com/", "cuisine": "french", "email": "parc.info@starr-restaurants.com", "name": "Parc", "opening_hours": "Mo-Th 08:00-22:00; Fr 08:00-23:00; Sa 10:00-23:00; Su 10:00-22:00", "phone": "+1-215-545-2262", "reservation": "yes", "website:menu": "https://parc-restaurant.com/#menus", "wheelchair": "limited"}}, {"type": "node", "id": 826274416, "lat": 39.9590381, "lon": -75.1582284}, {"type": "node", "id": 1033935437, "lat": 39.9524202, "lon": -75.1755247, "tags": {"addr:housenumber": "2101", "addr:street": "Chestnut Street", "amenity": "bar", "contact:phone": "+1 215-568-3355", "contact:website": "https://mixbarandgrillphilly.com/location/mix-bar-grill", "description": "The bar is open until whenever the rush ends.", "name": "Mix Bar & Grill", "opening_hours": "Mo-We,Su 11:00-22:00; Th-Sa 11:00-23:00", "outdoor_seating": "yes"}}, {"type": "node", "id": 1034412875, "lat": 39.9489302, "lon": -75.1600819, "tags": {"addr:housenumber": "1123", "addr:street": "Walnut Street", "amenity": "restaurant", "check_date": "2023-04-12", "contact:instagram": "https://www.instagram.com/thehayesphl", "contact:phone": "+1 215-982-2192", "contact:website": "https://www.thehayesphl.com", "email": "info@twrg.com", "name": "The Hayes", "opening_hours": "Mo off; Tu 16:00-22:00; We-Th,Su 12:00-22:00; Fr-Sa 12:00-24:00"}}, {"type": "node", "id": 1034425431, "lat": 39.9462088, "lon": -75.1577445, "tags": {"addr:housenumber": "941", "addr:street": "Spruce Street", "amenity": "pub", "check_date": "2023-04-12", "contact:facebook": "https://www.facebook.com/vargabar", "contact:phone": "+1 215-627-5200", "contact:website": "https://vargabar.com", "name": "Varga", "opening_hours": "Mo-Th 16:00-24:00; Fr 16:00-26:00; Sa 12:00-26:00; Su 12:00-24:00"}}, {"type": "node", "id": 1035941121, "lat": 39.9504604, "lon": -75.169114, "tags": {"amenity": "restaurant", "cuisine": "moroccan", "name": "Argan Moroccan Cuisine"}}, {"type": "node", "id": 1073734567, "lat": 39.9592064, "lon": -75.1501109, "tags": {"amenity": "pub", "name": "JD McGillicuddy's"}}, {"type": "node", "id": 1167105119, "lat": 39.9507269, "lon": -75.1637185, "tags": {"addr:city": "Philadelphia", "addr:housenumber": "1388", "addr:postcode": "19107", "addr:street": "Chestnut Street", "amenity": "restaurant", "check_date": "2023-10-12", "name": "The Capital Grille", "opening_hours": "Mo-Th 11:30-21:00; Fr 11:30-22:00; Sa 16:00-22:00; Su 16:00-21:00", "phone": "+1 215-545-9588", "website": "https://m.thecapitalgrille.com/locations/pa/philadelphia/philadelphia/8013"}}, {"type": "node", "id": 1463841254, "lat": 39.9485657, "lon": -75.1448374, "tags": {"addr:city": "Philadelphia", "addr:housenumber": "217-219", "addr:postcode": "19106", "addr:state": "PA", "addr:street": "Chestnut Street", "amenity": "restaurant", "cuisine": "spanish", "name": "Amada"}}, {"type": "node", "id": 1482514639, "lat": 39.9455278, "lon": -75.1654742, "tags": {"addr:housenumber": "1410", "addr:postcode": "19102", "addr:street": "Pine Street", "amenity": "restaurant", "cuisine": "italian", "name": "Girasole"}}, {"type": "node", "id": 1489690688, "lat": 39.9484315, "lon": -75.1621587, "tags": {"addr:housename": "13th Street Pizza", "addr:housenumber": "209", "addr:postcode": "19107", "addr:street": "South 13th Street", "amenity": "restaurant", "check_date": "2023-10-12", "cuisine": "pizza", "name": "Cappelli", "phone": "+1 215-309-5490"}}, {"type": "node", "id": 1489697259, "lat": 39.950078, "lon": -75.161799, "tags": {"addr:housename": "Zio Pizza", "addr:housenumber": "111", "addr:postcode": "19107", "addr:street": "South 13th Street", "amenity": "restaurant", "check_date": "2023-10-12", "contact:facebook": "https://www.facebook.com/ziosbrickovenpizza", "cuisine": "pizza", "name": "Zio's Brickoven Pizzeria", "opening_hours": "Mo-Th 10:00-21:00; Fr-Sa 11:00-22:00; Su 11:00-21:00", "phone": "+1 215-627-1615; +1 215-627-5018", "source": "Good Maps", "website": "https://www.ziosbrickoven.com"}}, {"type": "node", "id": 1518109393, "lat": 39.9529963, "lon": -75.1592391, "tags": {"amenity": "bar", "name": "Fieldhouse Philadelphia", "toilets:wheelchair": "yes", "wheelchair": "yes"}}, {"type": "node", "id": 1608843604, "lat": 39.948667, "lon": -75.1441372, "tags": {"addr:city": "Philadelphia", "addr:country": "US", "addr:housenumber": "56", "addr:postcode": "19106", "addr:state": "PA", "addr:street": "South 2nd Street", "amenity": "pub", "diet:vegan": "yes", "name": "Khyber Pass Pub", "opening_hours": "Mo-Su,PH 10:00-02:00", "phone": "+1-215-238-5888", "website": "https://www.khyberpasspub.com/"}}, {"type": "node", "id": 1702834404, "lat": 39.9564002, "lon": -75.1541726, "tags": {"addr:city": "Philadelphia", "addr:housenumber": "238", "addr:postcode": "19107", "addr:street": "North 9th Street", "alt_name": "SangKee", "amenity": "restaurant", "cuisine": "chinese", "name": "Sang Kee Peking Duck House", "opening_hours": "Mo-Su 10:00-22:45; Fr,Sa 10:00-23:45", "short_name": "Sang Kee", "source": "Official website, http://www.phillychinatown.com/sangkee.htm", "website": "https://www.sangkeechinatown.com/"}}, {"type": "node", "id": 1702834414, "lat": 39.9554721, "lon": -75.1559832, "tags": {"addr:city": "Philadelphia", "addr:housenumber": "1001", "addr:postcode": "19107", "addr:street": "Race Street", "amenity": "restaurant", "check_date": "2023-10-11", "cuisine": "chinese", "name": "David's Mai Lai Wah", "opening_hours": "16:00-27:00", "phone": "+1 215-627-2610", "website": "https://www.davidsmailaiwah.com"}}, {"type": "node", "id": 1702834419, "lat": 39.955961, "lon": -75.1572716, "tags": {"addr:city": "Philadelphia", "addr:housenumber": "211", "addr:postcode": "19107", "addr:street": "North 11th Street", "amenity": "restaurant", "cuisine": "japanese", "name": "Yakitori Boy", "website": "https://www.yakitoriboy.com/"}}, {"type": "node", "id": 1702834425, "lat": 39.9554203, "lon": -75.1569989, "tags": {"addr:city": "Philadelphia", "addr:housenumber": "1026", "addr:postcode": "19107", "addr:street": "Race St", "amenity": "restaurant", "cuisine": "chinese", "name": "Joy Tsin Lau", "name:zh": "\u9189\u4ed9\u6a13", "source": "http://www.yelp.com/biz/joy-tsin-lau-philadelphia-2"}}, {"type": "node", "id": 1815002332, "lat": 39.9427673, "lon": -75.1410658}, {"type": "node", "id": 1815002336, "lat": 39.9427071, "lon": -75.1409712}, {"type": "node", "id": 1815002337, "lat": 39.9421596, "lon": -75.1409491}, {"type": "node", "id": 1815002338, "lat": 39.9418614, "lon": -75.1410624}, {"type": "node", "id": 1815002346, "lat": 39.9418948, "lon": -75.1410778}, {"type": "node", "id": 1815002355, "lat": 39.9418645, "lon": -75.1409793}, {"type": "node", "id": 1815002356, "lat": 39.941848, "lon": -75.1409927}, {"type": "node", "id": 1815002358, "lat": 39.9418419, "lon": -75.1410195}, {"type": "node", "id": 1815002361, "lat": 39.9427097, "lon": -75.1410845}, {"type": "node", "id": 1815002362, "lat": 39.9418969, "lon": -75.1409665}, {"type": "node", "id": 1815002366, "lat": 39.941845, "lon": -75.141045}, {"type": "node", "id": 1815002372, "lat": 39.9419869, "lon": -75.1409558}, {"type": "node", "id": 1815002381, "lat": 39.942575, "lon": -75.1409551}, {"type": "node", "id": 1815002389, "lat": 39.9421586, "lon": -75.1411067}, {"type": "node", "id": 1815002393, "lat": 39.9428634, "lon": -75.1410269}, {"type": "node", "id": 1815002394, "lat": 39.9427657, "lon": -75.1409907}, {"type": "node", "id": 1815002395, "lat": 39.9425773, "lon": -75.1411025}, {"type": "node", "id": 1815002396, "lat": 39.9424177, "lon": -75.1409484}, {"type": "node", "id": 1815002399, "lat": 39.9419848, "lon": -75.1410939}, {"type": "node", "id": 1815002403, "lat": 39.9424182, "lon": -75.1411087}, {"type": "node", "id": 1815002404, "lat": 39.9424665, "lon": -75.1411068, "tags": {"access": "customers", "entrance": "main", "level": "0"}}, {"type": "node", "id": 1889907923, "lat": 39.9429467, "lon": -75.1571176, "tags": {"addr:housenumber": "901", "addr:postcode": "19147", "addr:street": "South St", "amenity": "restaurant", "cuisine": "pizza", "name": "Little Italy Pizza", "website": "http://www.littleitalyone.com"}}, {"type": "node", "id": 1937637141, "lat": 39.9557024, "lon": -75.1680332, "tags": {"addr:city": "Philadelphia", "addr:housenumber": "1700", "addr:postcode": "19103", "addr:street": "Benjamin Franklin Parkway", "amenity": "pub", "check_date": "2023-10-10", "contact:facebook": "https://www.facebook.com/ConMurphysPhilly", "name": "Con Murphy's", "opening_hours": "Mo-We 11:00-24:00, Th 09:00-24:00, Fr-Sa 09:00-24:00, Su off", "phone": "+1 267-687-1128", "source": "survey", "website": "https://conmurphyspub.com"}}, {"type": "node", "id": 1940775046, "lat": 39.9473988, "lon": -75.1791961, "tags": {"addr:city": "Philadelphia", "addr:housenumber": "2227", "addr:postcode": "19103", "addr:state": "PA", "addr:street": "Pine Street", "amenity": "restaurant", "cuisine": "brunch;comfort_food", "email": "info@cotolettafs.com", "name": "Cotoletta", "opening_hours": "Mo-Th 17:00-22:00; Fr 17:00-23:00; Sa 10:00-14:30,17:00-23:00; Su 10:00-14:30,17:00-22:00", "phone": "+1-267-519-9697", "website": "https://www.cotolettafs.com/"}}, {"type": "node", "id": 1940776523, "lat": 39.9512797, "lon": -75.1741414, "tags": {"addr:city": "Philadelphia", "addr:housenumber": "2012", "addr:postcode": "19103", "addr:street": "Sansom Street", "amenity": "restaurant", "check_date": "2023-10-15", "cuisine": "italian", "name": "Melograno", "opening_hours": "Mo off; Tu-Th,Su 17:00-21:30; Fr-Sa 17:00-22:00", "phone": "+1 215-875-8116", "website": "https://www.melogranophilly.com"}}, {"type": "node", "id": 2002973851, "lat": 39.9493006, "lon": -75.1525508, "tags": {"addr:city": "Philadelphia", "addr:housenumber": "700", "addr:postcode": "19016", "addr:street": "Chestnut", "amenity": "restaurant", "cuisine": "american", "designation": "Anna McPeak", "name": "Jones Restaurant", "website": "https://jones-restaurant.com/"}}, {"type": "node", "id": 2040315443, "lat": 39.944812, "lon": -75.1632105, "tags": {"addr:city": "Philadelphia", "addr:housenumber": "412", "addr:postcode": "19147", "addr:state": "PA", "addr:street": "South 13th Street", "amenity": "restaurant", "bar": "yes", "cuisine": "pizza", "designation": "13th and Waverly street", "name": "Paulie Gee's Soul City", "opening_hours": "Su-Th 11:30-23:00, Fr-Sa 11:30-02:00", "phone": "+1-267-239-5761", "sport": "billiards", "website": "https://pauliegee.com/soul-city/"}}, {"type": "node", "id": 2040424579, "lat": 39.9467368, "lon": -75.163189, "tags": {"addr:housenumber": "1312", "addr:street": "Spruce Street", "amenity": "restaurant", "check_date": "2023-04-11", "contact:phone": "+1 215-732-3478", "cuisine": "italian", "name": "Vetri Cucina", "opening_hours": "17:00+ \"Dinner every day starting at 5PM\"", "website": "https://vetricucina.com"}}, {"type": "node", "id": 2065987563, "lat": 39.9537514, "lon": -75.1567341, "tags": {"addr:housename": "Banana Leaf", "addr:housenumber": "1009", "addr:postcode": "19107", "addr:street": "Arch Street", "amenity": "restaurant", "cuisine": "asian", "name": "Banana Leaf", "opening_hours": "Mo-Su 11:00-01:00"}}, {"type": "node", "id": 2065987946, "lat": 39.9534483, "lon": -75.1564447, "tags": {"addr:housename": "Pho Cali", "addr:housenumber": "1000", "addr:postcode": "19107", "addr:street": "Arch Street", "amenity": "restaurant", "cuisine": "vietnamese", "name": "Pho Cali", "name:zh": "\u52a0\u5dde\u7c89\u738b", "opening_hours": "Su-Th 10:30-22:30, Fr,Sa 11:00-23:00"}}, {"type": "node", "id": 2065989577, "lat": 39.9532745, "lon": -75.1564662, "tags": {"addr:housename": "Yummy Yummy", "addr:housenumber": "52", "addr:postcode": "19107", "addr:street": "North 10th Street", "amenity": "restaurant", "cuisine": "asian", "name": "Yummy Yummy"}}, {"type": "node", "id": 2065990011, "lat": 39.9539498, "lon": -75.1563195, "tags": {"addr:housename": "Empress Gardens", "addr:housenumber": "108", "addr:postcode": "19107", "addr:street": "North 10th Street", "amenity": "restaurant", "cuisine": "chinese", "name": "Empress Gardens"}}, {"type": "node", "id": 2078082474, "lat": 39.9470731, "lon": -75.1682365, "tags": {"addr:housenumber": "306", "addr:street": "South 16th Street", "amenity": "restaurant", "cuisine": "thai", "name": "Jasmine Rice"}}, {"type": "node", "id": 2186349324, "lat": 39.9509449, "lon": -75.1655084, "tags": {"addr:city": "Philadelphia", "addr:housenumber": "1428-1432", "addr:postcode": "19102", "addr:state": "PA", "addr:street": "Chestnut Street", "amenity": "restaurant", "brand": "Del Frisco's Double Eagle Steakhouse", "brand:wikidata": "Q23461481", "check_date": "2023-10-08", "cuisine": "steak_house", "name": "Del Frisco's Double Eagle Steakhouse", "opening_hours": "Mo-We 17:00-21:00; Th-Fr 17:00-22:00; Sa 16:00-22:00; Su 16:00-21:00", "phone": "+1 215-246-0533", "website": "https://www.delfriscos.com/location/del-friscos-double-eagle-steakhouse-philadelphia-pa"}}, {"type": "node", "id": 2226025522, "lat": 39.9532308, "lon": -75.1610942, "tags": {"addr:city": "Philadelphia", "addr:housenumber": "1239", "addr:postcode": "19107", "addr:street": "Filbert Street", "amenity": "restaurant", "brand": "Chili's", "brand:wikidata": "Q1072948", "brand:wikipedia": "en:Chili's", "check_date": "2023-10-11", "cuisine": "tex-mex", "name": "Chili's", "official_name": "Chili's Grill & Bar", "opening_hours": "Mo-Th,Su 11:00-22:00; Fr-Sa 11:00-23:00", "phone": "+1 215-569-0850", "website": "https://www.chilis.com/locations/us/pennsylvania/philadelphia/center-city"}}, {"type": "node", "id": 2247020285, "lat": 39.9488238, "lon": -75.1788911, "tags": {"addr:city": "Philadelphia", "addr:housenumber": "2229", "addr:postcode": "19103", "addr:street": "Spruce Street", "amenity": "restaurant", "check_date": "2023-10-14", "name": "SALLY", "opening_hours": "Mo,We-Fr 16:30-22:00; Tu off; Sa-Su 10:30-13:30,16:30-22:00", "phone": "+1 267-773-7178", "website": "https://www.sallyphl.com"}}, {"type": "node", "id": 2253188235, "lat": 39.9510658, "lon": -75.1771765, "tags": {"addr:city": "Philadelphia", "addr:housenumber": "2135", "addr:postcode": "19103", "addr:state": "PA", "addr:street": "Walnut Street", "amenity": "restaurant", "check_date": "2023-10-10", "cuisine": "sushi", "name": "Tsuki Sushi", "opening_hours": "Mo off; Tu-Fr 11:00-22:00; Sa-Su 12:00-22:00", "phone": "+1 215-561-5666", "website": "https://www.tsukiwalnut.com"}}, {"type": "node", "id": 2254889201, "lat": 39.9508621, "lon": -75.1629441, "tags": {"addr:city": "Philadelphia", "addr:housenumber": "1337", "addr:postcode": "19107", "addr:street": "Chestnut Street", "amenity": "restaurant", "check_date": "2023-10-12", "cuisine": "brazilian", "name": "Fogo de Chao", "opening_hours": "Mo-Th 11:30-14:30,17:00-22:00; Fr 11:30-14:30,17:00-22:30; Sa-Su 11:30-21:00", "phone": "+1 215-636-9700", "website": "https://fogodechao.com/location/philadelphia"}}, {"type": "node", "id": 2256040035, "lat": 39.9531112, "lon": -75.1598822, "tags": {"addr:housenumber": "1201", "addr:street": "Filbert Street", "amenity": "restaurant", "check_date": "2023-04-12", "contact:website": "https://maggianos.com/locations/pennsylvania/philadelphia/1201-filbert-st.", "cuisine": "italian", "description": "Carryout: 215-567-2233  Reserve a table: 215-567-2020", "name": "Maggiano's", "opening_hours": "11:30-22:00", "wheelchair": "yes"}}, {"type": "node", "id": 2256040037, "lat": 39.9513778, "lon": -75.1793805, "tags": {"addr:city": "Philadelphia", "addr:housenumber": "151", "addr:postcode": "19103", "addr:state": "PA", "addr:street": "South 24th Street", "amenity": "restaurant", "capacity": "max ~25", "cuisine": "italian", "name": "Sotto", "note": "ele: 24th St. at grade level;ca. 24 ft below Walnut St.", "opening_hours": "Tu-Th 12:00-21:00; Fr-Sa 12:00-22:00", "phone": "+1-215-496-9222", "smoking": "no", "website": "http://sottorestaurant.net/", "wheelchair": "no"}}, {"type": "node", "id": 2256040057, "lat": 39.9506774, "lon": -75.1632811, "tags": {"addr:city": "Philadelphia", "addr:housenumber": "1336", "addr:postcode": "19107", "addr:street": "Chestnut Street", "amenity": "bar", "check_date": "2023-10-12", "contact:facebook": "https://www.facebook.com/LuckyStrikePhiladelphia", "contact:instagram": "https://www.instagram.com/luckystrikeph", "leisure": "bowling_alley", "name": "Lucky Strike", "opening_hours": "Mo-Th 16:00-23:00, Fr 14:00-26:00, Sa 12:00-26:00, Su 12:00-23:00", "phone": "+1 215-545-2471", "sport": "10pin", "website": "https://www.luckystrikeent.com/location/lucky-strike-philadelphia"}}, {"type": "node", "id": 2267258438, "lat": 39.9497204, "lon": -75.1706366, "tags": {"addr:housenumber": "205", "addr:street": "South 18th Street", "amenity": "restaurant", "check_date": "2023-04-11", "contact:phone": "+1 215-732-6622", "contact:website": "https://www.rouge98.com/", "name": "Rouge"}}, {"type": "node", "id": 2267258439, "lat": 39.9499539, "lon": -75.1699232, "tags": {"addr:city": "Philadelphia", "addr:housenumber": "1714", "addr:postcode": "19103", "addr:street": "Walnut Street", "amenity": "restaurant", "check_date": "2023-10-15", "contact:facebook": "https://www.facebook.com/pietroscoaloven", "contact:instagram": "https://www.instagram.com/pietrositalian", "name": "Pietro's Coal Oven Pizza", "opening_hours": "Mo-Th,Su 12:00-20:30; Fr-Sa 12:00-21:30", "phone": "+1 215-735-8090", "website": "https://pietrospizza.com"}}, {"type": "node", "id": 2267258440, "lat": 39.9491709, "lon": -75.1636593, "tags": {"addr:city": "Philadelphia", "addr:housenumber": "1334", "addr:postcode": "19107", "addr:street": "Walnut Street", "amenity": "restaurant", "check_date": "2023-04-11", "contact:phone": "+1 215-985-4155", "contact:website": "https://www.saharagrillphiladelphia.com/", "cuisine": "middle_eastern", "name": "Sahara Grill", "opening_hours": "11:00-22:00"}}, {"type": "node", "id": 2267258442, "lat": 39.9520693, "lon": -75.1596357, "tags": {"addr:city": "Philadelphia", "addr:housenumber": "1113", "addr:postcode": "19107", "addr:street": "Market Street", "amenity": "restaurant", "brand": "Hard Rock Cafe", "brand:wikidata": "Q918151", "brand:wikipedia": "en:Hard Rock Cafe", "check_date": "2023-04-12", "contact:phone": "+1 215-238-1000", "contact:website": "https://www.hardrockcafe.com/location/philadelphia/", "cuisine": "american", "name": "Hard Rock Cafe", "opening_hours": "Mo-Th,Su 11:30-22:00; Fr-Sa 11:30-23:00"}}, {"type": "node", "id": 2377568646, "lat": 39.9603209, "lon": -75.1686379, "tags": {"addr:city": "Philadelphia", "addr:country": "US", "addr:housenumber": "1804", "addr:postcode": "19130", "addr:state": "PA", "addr:street": "Callowhill Street", "amenity": "restaurant", "cuisine": "diner;breakfast;brunch", "diet:vegan": "yes", "diet:vegetarian": "yes", "name": "Sabrina's Cafe - Art Museum", "opening_hours": "Su-Mo 08:00-16:00; Tu-We 08:00-21:00; Th-Sa 08:00-22:00", "outdoor_seating": "yes", "phone": "+1-215-636-9061", "website": "https://www.sabrinascafe.com/"}}, {"type": "node", "id": 2457180088, "lat": 39.9544332, "lon": -75.1667563, "tags": {"addr:housename": "Phoenix Building", "addr:housenumber": "1600", "addr:postcode": "19103", "addr:street": "Arch Street", "amenity": "pub", "check_date": "2023-10-09", "contact:facebook": "https://www.facebook.com/tnnphilly", "name": "Tir na nOg", "opening_hours": "Mo 11:00-20:00; Tu-We 11:00-21:00; Th-Fr 11:00-22:00; Sa 09:00-22:00; Su 09:00-20:00", "phone": "+1 267-514-1700", "source": "survey", "website": "https://tirnanogphilly.com/"}}, {"type": "node", "id": 2457190028, "lat": 39.9483288, "lon": -75.1663588, "tags": {"addr:housenumber": "1500", "addr:postcode": "19102", "addr:street": "Locust Street", "amenity": "pub", "name": "Fado", "source": "survey", "website": "https://www.fadoirishpub.com/philadelphia/", "wheelchair": "yes"}}, {"type": "node", "id": 2571955549, "lat": 39.9630578, "lon": -75.1680189, "tags": {"addr:city": "Philadelphia", "addr:housenumber": "1820", "addr:street": "Spring Garden St", "amenity": "restaurant", "cuisine": "chinese", "fixme": "This POI may have closed. I do not see it from the street.", "name": "Golden Chopsticks"}}, {"type": "node", "id": 2571955811, "lat": 39.963226, "lon": -75.169319, "tags": {"amenity": "restaurant", "cuisine": "japanese", "name": "Kansai Japanese Cuisine", "opening_hours": "Tu-Th 11:00-22:00; Fr 11:00-22:30; Sa 12:00-22:30; Su 12:00-22:00", "phone": "(215) 568-0888", "website": "https://www.kansaiphilly.com/"}}, {"type": "node", "id": 2571956193, "lat": 39.9631401, "lon": -75.1693389, "tags": {"amenity": "restaurant", "name": "Christie's Deli", "phone": "(215) 563-0555"}}, {"type": "node", "id": 2581938913, "lat": 39.9630609, "lon": -75.170932, "tags": {"addr:housenumber": "529", "addr:street": "North 20th Street", "amenity": "restaurant", "name": "McCrossen's Tavern", "outdoor_seating": "yes"}}, {"type": "node", "id": 2581946414, "lat": 39.9603604, "lon": -75.169326, "tags": {"addr:housenumber": "1822", "addr:street": "Callowhill Street", "amenity": "restaurant", "cuisine": "japanese", "name": "Doma Japanese Restaurant"}}, {"type": "node", "id": 2581946416, "lat": 39.9603759, "lon": -75.169451, "tags": {"addr:housenumber": "1824", "addr:street": "Callowhill Street", "amenity": "restaurant", "cuisine": "indian", "name": "King of Tandoor"}}, {"type": "node", "id": 2581946417, "lat": 39.9603963, "lon": -75.1696291, "tags": {"addr:housenumber": "1836", "addr:street": "Callowhill Street", "amenity": "pub", "name": "Kite and Key", "outdoor_seating": "yes"}}, {"type": "node", "id": 2583160710, "lat": 39.9455589, "lon": -75.1717866, "tags": {"addr:city": "Philadelphia", "addr:housenumber": "1801", "addr:postcode": "19146", "addr:state": "PA", "addr:street": "Lombard Street", "amenity": "restaurant", "cuisine": "korean", "diet:pescetarian": "yes", "diet:vegetarian": "yes", "lgbtq": "welcome", "name": "SouthGate", "opening_hours": "Tu-Th 17:00-23:00; Fr 16:00-00:00; Sa 11:00-00:00; Su 11:00-21:00", "payment:cash": "yes", "payment:credit_cards": "yes", "payment:debit_cards": "yes", "phone": "+1 215-560-8443", "reservation": "recommended", "smoking": "outside", "website": "https://southgatephilly.com"}}, {"type": "node", "id": 2599725035, "lat": 39.9455168, "lon": -75.1653427, "tags": {"amenity": "restaurant", "name": "Sbraga"}}, {"type": "node", "id": 2795233692, "lat": 39.9584652, "lon": -75.15836, "tags": {"addr:city": "Philadelphia", "addr:housenumber": "325", "addr:postcode": "19107", "addr:street": "North 12th Street", "amenity": "restaurant", "check_date": "2023-10-11", "contact:instagram": "https://www.instagram.com/woodstreetpizza", "cuisine": "pizza", "name": "Wood Street Pizza", "opening_hours": "Mo-Tu 11:00-21:00; We 11:00-22:00; Th 11:00-23:00; Fr 11:00-24:00; Sa 12:00-24:00; Su 12:00-22:00", "phone": "+1-215-515-3382", "website": "https://www.woodstreetphilly.com/"}}, {"type": "node", "id": 2821950508, "lat": 39.9505355, "lon": -75.1690861, "tags": {"amenity": "restaurant", "cuisine": "seafood", "name": "Luke's Lobster", "source:cuisine": "survey"}}, {"type": "node", "id": 2822025477, "lat": 39.9488398, "lon": -75.1622899, "tags": {"addr:city": "Philadelphia", "addr:housenumber": "202", "addr:postcode": "19107", "addr:street": "South 13th Street", "amenity": "bar", "check_date": "2023-10-12", "lgbtq": "primary", "name": "Woody's Bar", "website": "https://woodysbar.com"}}, {"type": "node", "id": 2910156414, "lat": 39.9513934, "lon": -75.1737834, "tags": {"addr:city": "Philadelphia", "addr:housenumber": "118", "addr:postcode": "19103", "addr:street": "South 20th Street", "amenity": "restaurant", "check_date": "2023-04-11", "cuisine": "american", "name": "Village Whiskey", "opening_hours": "Mo 11:00-23:00;Tu-Th 11:00-24:00;Fr 11:00-01:00;Sa 10:30-01:00;Su 10:30-23:00", "phone": "+1 215 665 1088", "website": "https://villagewhiskey.com/"}}, {"type": "node", "id": 3040246034, "lat": 39.9471555, "lon": -75.1534825, "tags": {"addr:city": "Philadelphia", "addr:housenumber": "210", "addr:postcode": "19106", "addr:street": "West Washington Square", "amenity": "restaurant", "check_date": "2023-04-12", "contact:phone": "+1 215-592-7787", "contact:website": "https://talulasgarden.com", "cuisine": "american", "name": "Talula's Garden", "opening_hours": "Mo-Fr 17:00-22:00; Sa 16:00-22:00; Su 10:00-14:00 \"brunch\",16:00-22:00 \"dinner\""}}, {"type": "node", "id": 3042654511, "lat": 39.9495502, "lon": -75.1459458, "tags": {"addr:city": "Philadelphia", "addr:housenumber": "22", "addr:postcode": "19106", "addr:street": "South 3rd Street", "amenity": "bar", "check_date": "2023-10-16", "name": "National Mechanics", "opening_hours": "Mo-Tu 12:00-22:00, We-Fr 12:00-26:00, Sa 10:00-26:00, Su 10:00-22:00", "phone": "+1-215-701-4883", "smoking": "outside", "website": "https://www.nationalmechanics.com/", "wheelchair": "no", "wheelchair:description": "Their website says ramp at side wheelchair accessible but it's difficult to get attention of any staff from outside and there is trash/rubble on a very steep ramp."}}, {"type": "node", "id": 3076971133, "lat": 39.9480904, "lon": -75.1534068, "tags": {"addr:housenumber": "719", "addr:street": "Walnut Street", "amenity": "restaurant", "check_date": "2023-04-12", "contact:website": "https://www.fatsalmonsushi.com", "cuisine": "sushi", "name": "Fat Salmon", "opening_hours": "Mo off; Tu-Th 16:00-20:30; Fr-Sa 16:00-21:30; Su 16:00-20:00", "wheelchair": "yes"}}, {"type": "node", "id": 3076983433, "lat": 39.9485669, "lon": -75.157268, "tags": {"addr:city": "Philadelphia", "addr:housenumber": "929", "addr:postcode": "19107", "addr:street": "Walnut Street", "amenity": "restaurant", "check_date": "2023-04-13", "contact:website": "https://www.barrarossa.com", "name": "Barra Rossa", "opening_hours": "Tu 16:00-21:00; Mo off, Tu 12:00-21:00, We 12:00-21:00", "phone": "(215) 644-9074", "wheelchair": "yes", "wheelchair:description": "entrance at right of front accessible."}}, {"type": "node", "id": 3094941729, "lat": 39.946541, "lon": -75.161027, "tags": {"addr:city": "Philadelphia", "addr:housenumber": "1137", "addr:postcode": "19107", "addr:street": "Spruce Street", "amenity": "restaurant", "check_date": "2023-04-12", "contact:facebook": "https://www.facebook.com/TriaPhilly", "cuisine": "tapas", "internet_access": "wlan", "name": "Tria", "opening_hours": "Mo-Th 16:00-21:30; Fr-Sa 12:00-22:00; Su 14:00-20:30", "phone": "+1 215 629 92 00", "website": "https://triaphilly.com", "wheelchair": "limited", "wheelchair:description": "Entrance and restroom accessible but unfortunately all seating in wheelchair accessible indoor area is high top tables. Outdoor seating tables in warmer weather."}}, {"type": "node", "id": 3103177329, "lat": 39.9499816, "lon": -75.1455883, "tags": {"addr:city": "Philadelphia", "addr:housenumber": "248", "addr:postcode": "19106", "addr:street": "Market Street", "amenity": "restaurant", "cuisine": "indian", "name": "Karma", "wheelchair": "yes", "wheelchair:description": "Front entrance and seating is wheelchair accessible. Restroom not yet assessed."}}, {"type": "node", "id": 3103189629, "lat": 39.9505254, "lon": -75.1454962, "tags": {"addr:city": "Philadelphia", "addr:housenumber": "7", "addr:postcode": "19106", "addr:street": "North 3rd Street", "amenity": "restaurant", "cuisine": "french", "name": "Bistro 7", "wheelchair": "limited", "wheelchair:description": "One step at entrance. Business says restroom is wheelchair accessible but needs to be reviewed and updated here."}}, {"type": "node", "id": 3308112713, "lat": 39.9533715, "lon": -75.1555168}, {"type": "node", "id": 3308112714, "lat": 39.9531851, "lon": -75.1555554}, {"type": "node", "id": 3308112715, "lat": 39.9531939, "lon": -75.155628}, {"type": "node", "id": 3400941943, "lat": 39.9557827, "lon": -75.1725874}, {"type": "node", "id": 3400941944, "lat": 39.9557722, "lon": -75.1725161}, {"type": "node", "id": 3400941945, "lat": 39.9556899, "lon": -75.1726104}, {"type": "node", "id": 3401274279, "lat": 39.9496915, "lon": -75.1611826}, {"type": "node", "id": 3401274280, "lat": 39.9495456, "lon": -75.1612187}, {"type": "node", "id": 3401274281, "lat": 39.949534, "lon": -75.1611292}, {"type": "node", "id": 3401274282, "lat": 39.9496786, "lon": -75.1610935}, {"type": "node", "id": 3401274295, "lat": 39.9502673, "lon": -75.1626403}, {"type": "node", "id": 3401274296, "lat": 39.9501536, "lon": -75.1626666}, {"type": "node", "id": 3401274297, "lat": 39.9501323, "lon": -75.1625091}, {"type": "node", "id": 3401274298, "lat": 39.9502492, "lon": -75.1624858}, {"type": "node", "id": 3401274364, "lat": 39.9533803, "lon": -75.1555894}, {"type": "node", "id": 3404334299, "lat": 39.948862, "lon": -75.1661924}, {"type": "node", "id": 3405465319, "lat": 39.951011, "lon": -75.170899}, {"type": "node", "id": 3409971723, "lat": 39.9556825, "lon": -75.1725353}, {"type": "node", "id": 3413417147, "lat": 39.9488031, "lon": -75.1662049}, {"type": "node", "id": 3413417148, "lat": 39.9488892, "lon": -75.1664113}, {"type": "node", "id": 3413417149, "lat": 39.9488304, "lon": -75.1664238}, {"type": "node", "id": 3413417151, "lat": 39.9487736, "lon": -75.1664358}, {"type": "node", "id": 3413417152, "lat": 39.9487464, "lon": -75.1662169}, {"type": "node", "id": 3413417154, "lat": 39.9487647, "lon": -75.1663639}, {"type": "node", "id": 3413742596, "lat": 39.9564344, "lon": -75.1385826}, {"type": "node", "id": 3413742597, "lat": 39.9560191, "lon": -75.1387194}, {"type": "node", "id": 3413742598, "lat": 39.9556675, "lon": -75.1368204}, {"type": "node", "id": 3413742599, "lat": 39.9560664, "lon": -75.1367024}, {"type": "node", "id": 3414251603, "lat": 39.9547135, "lon": -75.1647378}, {"type": "node", "id": 3414251604, "lat": 39.9547042, "lon": -75.1646624}, {"type": "node", "id": 3417195707, "lat": 39.94853, "lon": -75.1664874}, {"type": "node", "id": 3417195708, "lat": 39.948557, "lon": -75.1667048}, {"type": "node", "id": 3424828944, "lat": 39.9495398, "lon": -75.1590901}, {"type": "node", "id": 3429439376, "lat": 39.9535061, "lon": -75.156578}, {"type": "node", "id": 3429439377, "lat": 39.953209, "lon": -75.1566407}, {"type": "node", "id": 3429439379, "lat": 39.9534952, "lon": -75.1564885}, {"type": "node", "id": 3429439380, "lat": 39.9531982, "lon": -75.1565586}, {"type": "node", "id": 3429439383, "lat": 39.9533501, "lon": -75.1565235}, {"type": "node", "id": 3429439404, "lat": 39.9538739, "lon": -75.1548696}, {"type": "node", "id": 3429439405, "lat": 39.953852, "lon": -75.1547016}, {"type": "node", "id": 3429439406, "lat": 39.9539233, "lon": -75.155314}, {"type": "node", "id": 3429439407, "lat": 39.9535429, "lon": -75.1553941}, {"type": "node", "id": 3429659657, "lat": 39.9538858, "lon": -75.1549605}, {"type": "node", "id": 3429659664, "lat": 39.9539861, "lon": -75.1549382}, {"type": "node", "id": 3429660044, "lat": 39.953634, "lon": -75.156129}, {"type": "node", "id": 3429660045, "lat": 39.953843, "lon": -75.1560843}, {"type": "node", "id": 3432401170, "lat": 39.9551263, "lon": -75.1558609}, {"type": "node", "id": 3435455072, "lat": 39.9509699, "lon": -75.1705951}, {"type": "node", "id": 3435455073, "lat": 39.9510187, "lon": -75.1705837}, {"type": "node", "id": 3435455075, "lat": 39.9510605, "lon": -75.1708879}, {"type": "node", "id": 3441501224, "lat": 39.9501406, "lon": -75.1625689}, {"type": "node", "id": 3450860944, "lat": 39.955272, "lon": -75.1543926}, {"type": "node", "id": 3450860945, "lat": 39.9553047, "lon": -75.15465}, {"type": "node", "id": 3450860946, "lat": 39.9553128, "lon": -75.1547199}, {"type": "node", "id": 3450860949, "lat": 39.955327, "lon": -75.1543811}, {"type": "node", "id": 3450860953, "lat": 39.9553545, "lon": -75.1546113}, {"type": "node", "id": 3450860954, "lat": 39.9553581, "lon": -75.1546395}, {"type": "node", "id": 3450860956, "lat": 39.9553719, "lon": -75.1543719}, {"type": "node", "id": 3450860957, "lat": 39.9553744, "lon": -75.1552025}, {"type": "node", "id": 3450860958, "lat": 39.9553836, "lon": -75.15527}, {"type": "node", "id": 3450860960, "lat": 39.9553993, "lon": -75.1546021}, {"type": "node", "id": 3450860961, "lat": 39.9554027, "lon": -75.1546307}, {"type": "node", "id": 3450860963, "lat": 39.9554107, "lon": -75.1547007}, {"type": "node", "id": 3450860967, "lat": 39.9554222, "lon": -75.1543617}, {"type": "node", "id": 3450860974, "lat": 39.9554354, "lon": -75.1546958}, {"type": "node", "id": 3450860979, "lat": 39.9554489, "lon": -75.155791}, {"type": "node", "id": 3450860980, "lat": 39.9554493, "lon": -75.1546758}, {"type": "node", "id": 3450860981, "lat": 39.9554513, "lon": -75.1546927}, {"type": "node", "id": 3450860983, "lat": 39.9554531, "lon": -75.1546208}, {"type": "node", "id": 3450861094, "lat": 39.9554942, "lon": -75.154667}, {"type": "node", "id": 3450861096, "lat": 39.9554961, "lon": -75.1546123}, {"type": "node", "id": 3450861111, "lat": 39.9555345, "lon": -75.1546048}, {"type": "node", "id": 3450861115, "lat": 39.9555406, "lon": -75.1546578}, {"type": "node", "id": 3450861138, "lat": 39.9555999, "lon": -75.1552245}, {"type": "node", "id": 3450861150, "lat": 39.9556207, "lon": -75.1551509}, {"type": "node", "id": 3450861156, "lat": 39.9556282, "lon": -75.1552186}, {"type": "node", "id": 3450861163, "lat": 39.9556473, "lon": -75.1557479}, {"type": "node", "id": 3454064542, "lat": 39.9517789, "lon": -75.1600409, "tags": {"addr:city": "Philadelphia", "addr:housenumber": "1200", "addr:postcode": "19107", "addr:street": "Market Street", "amenity": "restaurant", "check_date": "2023-10-15", "contact:phone": "+1 215-231-7300", "contact:website": "https://www.bankandbourbon.com", "name": "Bank & Bourbon"}}, {"type": "node", "id": 3460473830, "lat": 39.9530614, "lon": -75.1548763}, {"type": "node", "id": 3460473831, "lat": 39.9530684, "lon": -75.1549331}, {"type": "node", "id": 3460473832, "lat": 39.9530751, "lon": -75.1549883}, {"type": "node", "id": 3460473833, "lat": 39.9530815, "lon": -75.155041}, {"type": "node", "id": 3460473834, "lat": 39.9530886, "lon": -75.155099}, {"type": "node", "id": 3460473836, "lat": 39.9532878, "lon": -75.1548292}, {"type": "node", "id": 3460473837, "lat": 39.9532948, "lon": -75.1548862}, {"type": "node", "id": 3460473838, "lat": 39.9533015, "lon": -75.1549414}, {"type": "node", "id": 3460473839, "lat": 39.9533079, "lon": -75.1549941}, {"type": "node", "id": 3460473840, "lat": 39.953315, "lon": -75.1550522}, {"type": "node", "id": 3460473842, "lat": 39.9535547, "lon": -75.1554891}, {"type": "node", "id": 3460473846, "lat": 39.9536415, "lon": -75.1561887}, {"type": "node", "id": 3460473853, "lat": 39.9538507, "lon": -75.1561438}, {"type": "node", "id": 3460473857, "lat": 39.9539189, "lon": -75.1554124}, {"type": "node", "id": 3460473860, "lat": 39.953935, "lon": -75.155409}, {"type": "node", "id": 3460473862, "lat": 39.9539523, "lon": -75.1546793}, {"type": "node", "id": 3460473886, "lat": 39.9541164, "lon": -75.1557302}, {"type": "node", "id": 3460473890, "lat": 39.9541265, "lon": -75.155807}, {"type": "node", "id": 3460473892, "lat": 39.9541366, "lon": -75.1558048}, {"type": "node", "id": 3460473895, "lat": 39.9541429, "lon": -75.1559366}, {"type": "node", "id": 3460473897, "lat": 39.9541536, "lon": -75.1559342}, {"type": "node", "id": 3460473898, "lat": 39.9541605, "lon": -75.1557204}, {"type": "node", "id": 3460473899, "lat": 39.9541612, "lon": -75.156076}, {"type": "node", "id": 3460473904, "lat": 39.9542059, "lon": -75.156066}, {"type": "node", "id": 3460473926, "lat": 39.9543068, "lon": -75.1556975}, {"type": "node", "id": 3460473927, "lat": 39.9543126, "lon": -75.1557417}, {"type": "node", "id": 3460473932, "lat": 39.9543364, "lon": -75.1557363}, {"type": "node", "id": 3460473941, "lat": 39.9543748, "lon": -75.1560282}, {"type": "node", "id": 3460473942, "lat": 39.9543774, "lon": -75.1556815}, {"type": "node", "id": 3460473943, "lat": 39.9544216, "lon": -75.1560189}, {"type": "node", "id": 3470849309, "lat": 39.9482622, "lon": -75.1437699, "tags": {"addr:city": "Philadelphia", "addr:housenumber": "132", "addr:postcode": "19106", "addr:street": "Chestnut Street", "amenity": "restaurant", "cuisine": "korean", "name": "Buk Chon", "phone": "+1 215-925-9998"}}, {"type": "node", "id": 3470849326, "lat": 39.9485312, "lon": -75.1441653, "tags": {"addr:city": "Philadelphia", "addr:housenumber": "60", "addr:postcode": "19106", "addr:street": "South 2nd Street", "amenity": "restaurant", "check_date": "2023-10-17", "contact:instagram": "https://www.instagram.com/margheritapizzaphilly", "cuisine": "pizza", "name": "Margherita Pizzeria", "opening_hours": "Mo-Th 11:00-19:30; Fr 11:00-20:30; Sa 12:00-20:30; Su off", "phone": "+1 215-922-7053", "website": "https://www.ordermargheritapizzeria.com"}}, {"type": "node", "id": 3470849327, "lat": 39.9484891, "lon": -75.1441761, "tags": {"addr:city": "Philadelphia", "addr:housenumber": "201", "addr:postcode": "19106", "addr:street": "Chestnut Street", "amenity": "bar", "check_date": "2023-10-17", "name": "Rotten Ralph's Pub & Eatery", "opening_hours": "Mo-Fr 12:00-26:00, Sa-Su 11:00-26:00", "phone": "+1 215-925-2440", "website": "https://www.rottenralphspub.com"}}, {"type": "node", "id": 3470849328, "lat": 39.9487996, "lon": -75.1441117, "tags": {"addr:city": "Philadelphia", "addr:housenumber": "48", "addr:postcode": "19106", "addr:street": "South 2nd Street", "amenity": "restaurant", "check_date": "2023-10-17", "email": "contact@sassafrasbar.com", "facebook": "https://www.facebook.com/Sassafrasbar", "name": "Sassafras", "opening_hours": "Mo-Tu 16:00-26:00; We-Su 12:00-26:00", "phone": "+1-215-925-2317", "website": "https://www.sassafrasbar.com/"}}, {"type": "node", "id": 3470849334, "lat": 39.9488335, "lon": -75.1441085, "tags": {"addr:city": "Philadelphia", "addr:housenumber": "48", "addr:postcode": "19106", "addr:street": "South 2nd Street", "amenity": "pub", "name": "Brownie's Pub"}}, {"type": "node", "id": 3470849335, "lat": 39.9487307, "lon": -75.1438899, "tags": {"addr:housenumber": "123", "addr:street": "Chestnut Street", "amenity": "pub", "check_date": "2023-10-17", "contact:instagram": "https://www.instagram.com/theploughphilly", "name": "The Plough & the Stars", "opening_hours": "Mo-Fr 12:00-26:00, Sa-Su 11:30-26:00", "phone": "+1 215-733-0300", "website": "https://ploughstars.com", "wheelchair": "limited"}}, {"type": "node", "id": 3483213549, "lat": 39.9486937, "lon": -75.1741395}, {"type": "node", "id": 3483213550, "lat": 39.9485922, "lon": -75.174159}, {"type": "node", "id": 3483213551, "lat": 39.9485613, "lon": -75.1738858}, {"type": "node", "id": 3483213552, "lat": 39.948629, "lon": -75.1738727}, {"type": "node", "id": 3483213553, "lat": 39.9486412, "lon": -75.1739802}, {"type": "node", "id": 3483213554, "lat": 39.948654, "lon": -75.1739777}, {"type": "node", "id": 3483213555, "lat": 39.9486467, "lon": -75.173914}, {"type": "node", "id": 3483213556, "lat": 39.9486677, "lon": -75.17391}, {"type": "node", "id": 3488810599, "lat": 39.949676, "lon": -75.1590277}, {"type": "node", "id": 3488810600, "lat": 39.9496803, "lon": -75.1590591}, {"type": "node", "id": 3488810601, "lat": 39.9496514, "lon": -75.1588467}, {"type": "node", "id": 3488810602, "lat": 39.949512, "lon": -75.1588788}, {"type": "node", "id": 3499206798, "lat": 39.9489002, "lon": -75.1599819}, {"type": "node", "id": 3499206799, "lat": 39.9490174, "lon": -75.1599564}, {"type": "node", "id": 3499206802, "lat": 39.9491724, "lon": -75.1599214}, {"type": "node", "id": 3499206803, "lat": 39.9492473, "lon": -75.1599051}, {"type": "node", "id": 3499206804, "lat": 39.9488898, "lon": -75.1599032}, {"type": "node", "id": 3499206805, "lat": 39.9492362, "lon": -75.159826}, {"type": "node", "id": 3499206806, "lat": 39.94917, "lon": -75.1599026}, {"type": "node", "id": 3499206807, "lat": 39.9490148, "lon": -75.1599364}, {"type": "node", "id": 3511373649, "lat": 39.941185, "lon": -75.1404988, "tags": {"addr:city": "Philadelphia", "addr:housenumber": "555", "addr:postcode": "19147", "addr:street": "South Christopher Columbus Boulevard", "amenity": "restaurant", "check_date": "2023-06-10", "name": "Chart House", "opening_hours": "Mo-Th 16:30-21:00; Fr-Sa 16:30-22:00; Su 11:00-21:00", "opening_hours:kitchen": "Mo-Th 16:30-21:00; Fr-Sa 16:30-22:00; Su 11:00-21:00", "phone": "+1 215-625-8383", "website": "https://www.chart-house.com/location/chart-house-philadelphia-pa/"}}, {"type": "node", "id": 3518601791, "lat": 39.9551271, "lon": -75.1558722}, {"type": "node", "id": 3518601792, "lat": 39.9552915, "lon": -75.1558345}, {"type": "node", "id": 3518602093, "lat": 39.9552973, "lon": -75.155839}, {"type": "node", "id": 3518602094, "lat": 39.9553021, "lon": -75.1558422}, {"type": "node", "id": 3518602095, "lat": 39.9553089, "lon": -75.1558422}, {"type": "node", "id": 3518602096, "lat": 39.9553145, "lon": -75.1558396}, {"type": "node", "id": 3518602097, "lat": 39.9553209, "lon": -75.1558349}, {"type": "node", "id": 3518602098, "lat": 39.9553241, "lon": -75.1558249}, {"type": "node", "id": 3518602099, "lat": 39.9553241, "lon": -75.1558129}, {"type": "node", "id": 3518602100, "lat": 39.9553221, "lon": -75.1558088}, {"type": "node", "id": 3518602101, "lat": 39.9553173, "lon": -75.1558046}, {"type": "node", "id": 3518602102, "lat": 39.9553137, "lon": -75.155802}, {"type": "node", "id": 3518602103, "lat": 39.9553067, "lon": -75.1557619}, {"type": "node", "id": 3518602104, "lat": 39.9551176, "lon": -75.1558051}, {"type": "node", "id": 3520099609, "lat": 39.9565475, "lon": -75.1559353}, {"type": "node", "id": 3520099610, "lat": 39.9565216, "lon": -75.1557403}, {"type": "node", "id": 3527163511, "lat": 39.9506137, "lon": -75.1627406, "tags": {"addr:city": "Philadelphia", "addr:housenumber": "1322", "addr:postcode": "19107", "addr:street": "Chestnut Street", "amenity": "bar", "check_date": "2023-10-12", "contact:instagram": "https://www.instagram.com/tradesmansphl", "name": "Tradesman's", "opening_hours": "Mo-Th 16:00-23:00, Fr 16:00-26:00, Sa 11:00-26:00, Su 11:00-23:00", "opening_hours:kitchen": "Mo-Th 16:00-23:00; Fr 16:00-22:00; Sa-Su 11:00-22:00", "phone": "+1 267-457-3994", "website": "https://www.craftconceptsgroup.com/tradesmans"}}, {"type": "node", "id": 3527163512, "lat": 39.9505942, "lon": -75.1625219, "tags": {"addr:city": "Philadelphia", "addr:housenumber": "1318", "addr:street": "Chestnut Street", "amenity": "bar", "check_date": "2023-10-12", "contact:instagram": "https://www.instagram.com/bruphilly", "name": "Br\u00fc Craft & Wurst", "opening_hours": "11:00-26:00", "phone": "+1 215-800-1079", "website": "https://mail.bruphilly.com/index.html"}}, {"type": "node", "id": 3529171171, "lat": 39.9499718, "lon": -75.1624278, "tags": {"addr:city": "Philadelphia", "addr:housenumber": "1311", "addr:postcode": "19107", "addr:street": "Sansom Street", "amenity": "restaurant", "check_date": "2023-10-12", "contact:instagram": "https://www.instagram.com/dbgphilly", "cuisine": "burger", "name": "DBG", "opening_hours": "Mo-Tu off, We-Fr 16:00-26:00, Sa-Su 12:00-26:00", "phone": "+1 215-545-0170", "website": "https://dbgphilly.com"}}, {"type": "node", "id": 3529171172, "lat": 39.9500002, "lon": -75.162644, "tags": {"addr:housenumber": "1315", "addr:street": "Sansom Street", "amenity": "restaurant", "name": "Time"}}, {"type": "node", "id": 3529346615, "lat": 39.9565995, "lon": -75.1559237}, {"type": "node", "id": 3529346616, "lat": 39.9565732, "lon": -75.1557286}, {"type": "node", "id": 3529347052, "lat": 39.9606387, "lon": -75.1546565}, {"type": "node", "id": 3529347053, "lat": 39.9606829, "lon": -75.1546525}, {"type": "node", "id": 3529347054, "lat": 39.9606716, "lon": -75.154497}, {"type": "node", "id": 3529347055, "lat": 39.960613, "lon": -75.1544943}, {"type": "node", "id": 3531082350, "lat": 39.9488574, "lon": -75.1666412}, {"type": "node", "id": 3531082351, "lat": 39.9487981, "lon": -75.1666538}, {"type": "node", "id": 3532578442, "lat": 39.9483204, "lon": -75.1624047, "tags": {"addr:housenumber": "1301", "addr:street": "Locust Street", "amenity": "restaurant", "check_date": "2023-04-11", "contact:phone": "+1 267-861-0314", "contact:website": "https://greeneggscafe.com", "name": "Green Eggs Cafe", "opening_hours": "Mo-Fr 09:00-15:00; Sa-Su 09:00-16:00", "ref": "Midtown Village"}}, {"type": "node", "id": 3540215754, "lat": 39.9486807, "lon": -75.1745485}, {"type": "node", "id": 3540215755, "lat": 39.9486498, "lon": -75.1743115}, {"type": "node", "id": 3545078824, "lat": 39.9501513, "lon": -75.1659493, "tags": {"addr:city": "Philadelphia", "addr:housenumber": "124", "addr:postcode": "19102", "addr:street": "South 15th Street", "amenity": "restaurant", "check_date": "2023-10-12", "contact:instagram": "https://www.instagram.com/oceanprimephilly", "name": "Ocean Prime", "opening_hours": "Mo-Th,Su 16:00-21:00; Fr-Sa 16:00-22:00", "phone": "+1 215-563-0163", "website": "https://www.ocean-prime.com/locations-menus/philadelphia"}}, {"type": "node", "id": 3548494994, "lat": 39.9484091, "lon": -75.1653065, "tags": {"addr:housenumber": "1405", "addr:street": "Locust Street", "amenity": "restaurant", "check_date": "2023-04-11", "contact:facebook": "https://www.facebook.com/EstiaRestaurant", "contact:phone": "+1 215-735-7700", "contact:website": "https://estiarestaurant.com/philadelphia-pa/philadelphia-pa.asp", "cuisine": "greek", "name": "Estia", "opening_hours": "Mo-Th,Sa 15:00-20:30 \"(last seating)\"; Fr-Sa 15:00-21:30 \"(last seating)\""}}, {"type": "node", "id": 3548911780, "lat": 39.9501147, "lon": -75.1588484, "tags": {"addr:city": "Philadelphia", "addr:housenumber": "1102", "addr:postcode": "19107", "addr:street": "Chestnut Street", "amenity": "restaurant", "check_date": "2023-04-12", "contact:facebook": "https://www.facebook.com/HiroRamen", "contact:website": "http://hiroramenhouse.com", "cuisine": "ramen", "name": "Hiro Ramen", "opening_hours": "Mo-Sa 12:00-18:00; Su off"}}, {"type": "node", "id": 3548911781, "lat": 39.9497363, "lon": -75.1604902, "tags": {"addr:city": "Philadelphia", "addr:housenumber": "118", "addr:postcode": "19107", "addr:street": "South 12th Street", "amenity": "pub", "check_date": "2023-04-12", "contact:phone": "+1 215-923-3090", "contact:website": "https://www.finnmccoolsphilly.com", "name": "Finn McCools Ale House"}}, {"type": "node", "id": 3548911782, "lat": 39.9498213, "lon": -75.1602317, "tags": {"addr:city": "Philadelphia", "addr:housenumber": "117", "addr:postcode": "19107", "addr:street": "South 12th Street", "amenity": "restaurant", "name": "Kitchenette"}}, {"type": "node", "id": 3554597075, "lat": 39.9556376, "lon": -75.1556719}, {"type": "node", "id": 3554597076, "lat": 39.9554392, "lon": -75.155715}, {"type": "node", "id": 3554597112, "lat": 39.9539283, "lon": -75.155354}, {"type": "node", "id": 3566597888, "lat": 39.9570269, "lon": -75.1758821, "tags": {"addr:city": "Philadelphia", "addr:housenumber": "129", "addr:postcode": "19103", "addr:street": "North 22nd Street", "amenity": "pub", "check_date": "2023-10-10", "name": "Cherry Street Tavern", "phone": "+1 215-561-5683"}}, {"type": "node", "id": 3567104221, "lat": 39.9520229, "lon": -75.1785874}, {"type": "node", "id": 3567104222, "lat": 39.9519678, "lon": -75.1786006}, {"type": "node", "id": 3567104223, "lat": 39.951942, "lon": -75.1784024}, {"type": "node", "id": 3567104224, "lat": 39.9519976, "lon": -75.1783911}, {"type": "node", "id": 3572807729, "lat": 39.9497479, "lon": -75.1436572, "tags": {"addr:city": "Philadelphia", "addr:housenumber": "138", "addr:postcode": "19106", "addr:street": "Market Street", "amenity": "bar", "name": "Continental Restaurant & Martini Bar", "phone": "215 923 6069"}}, {"type": "node", "id": 3573041119, "lat": 39.9562945, "lon": -75.1542048, "tags": {"addr:city": "Philadelphia", "addr:housenumber": "234", "addr:postcode": "19107", "addr:street": "North 9th Street", "amenity": "restaurant", "check_date": "2023-10-11", "cuisine": "chinese", "name": "Ocean City Restaurant", "name:zh": "\u6771\u65b9\u660e\u73e0\u9152\u5bb6", "opening_hours": "Mo-Th 10:30-22:00; Fr 10:30-22:30; Sa 10:00-22:30; Su 10:00-22:00", "phone": "+1-215-829-0688", "website": "https://www.oceancityrestaurantphilly.com"}}, {"type": "node", "id": 3587740667, "lat": 39.9498952, "lon": -75.1447997, "tags": {"addr:city": "Philadelphia", "addr:housenumber": "228", "addr:postcode": "19106", "addr:street": "Market Street", "amenity": "restaurant", "name": "Sonny's Famous Steaks", "opening_hours": "Mo-Th 11:00-22:00; Fr 11:00-24:00; Sa 00:00-03:00,11:00-24:00; Su 00:00-03:00,11:00-22:00", "phone": "215-629-5760"}}, {"type": "node", "id": 3587740668, "lat": 39.9498391, "lon": -75.1443109, "tags": {"addr:city": "Philadelphia", "addr:housenumber": "214", "addr:postcode": "19106", "addr:street": "Market Street", "amenity": "restaurant", "check_date": "2023-10-17", "cuisine": "sandwich", "name": "Campo's Deli", "phone": "+1 215-923-1000", "website": "https://camposdeli.com/philadelphia-sandwich-shop"}}, {"type": "node", "id": 3696144857, "lat": 39.9423535, "lon": -75.1457164, "tags": {"addr:housenumber": "420", "addr:postcode": "19106", "addr:street": "South 2nd Street", "amenity": "restaurant", "capacity": "150", "cuisine": "pizza", "name": "Pizzeria Stella", "opening_hours": "Su 11:00-10:00, Mo-Th 11:30-10:00, Fr 11:30-11:00, Sa 11:00-11:00", "outdoor_seating": "yes", "smoking": "no", "takeaway": "yes"}}, {"type": "node", "id": 3892460932, "lat": 39.950609, "lon": -75.1625931, "tags": {"addr:city": "Philadelphia", "addr:housenumber": "1320", "addr:postcode": "19107", "addr:street": "Chestnut Street", "amenity": "bar", "check_date": "2023-10-12", "contact:instagram": "https://www.instagram.com/ubahnphilly", "name": "U-Bahn", "opening_hours": "Fr-Sa 22:00-26:00", "phone": "+1 215-800-1079", "website": "https://www.ubahnphilly.com"}}, {"type": "node", "id": 3896676608, "lat": 39.949889, "lon": -75.1447378, "tags": {"amenity": "pub", "fax": "267-324-5508", "kitchen_hours": "Mo 16:00-23:00; Tu-Su 11:00-23:00", "name": "Mac's Tavern", "opening_hours": "Mo 00:00-02:00,16:00-24:00; Tu-Su 00:00-02:00,11:00-24:00", "outdoor_seating": "yes", "phone": "+1-267-324-5507", "website": "http://macstavern.com/"}}, {"type": "node", "id": 4055253177, "lat": 39.9514573, "lon": -75.1694699, "tags": {"addr:city": "Philadelphia", "addr:housenumber": "1716", "addr:postcode": "19103", "addr:state": "PA", "addr:street": "Chestnut Street", "amenity": "restaurant", "check_date": "2023-04-11", "contact:website": "https://grancaffelaquila.com", "cuisine": "italian", "delivery": "no", "internet_access": "wlan", "name": "Gran Caffe L'Aquila", "opening_hours": "Mo-Th 07:00-23:00; Fr 07:00-24:00; Sa 08:00-24:00; Su 08:00-23:00", "phone": "+1 215 568 5600"}}, {"type": "node", "id": 4140719306, "lat": 39.9503121, "lon": -75.1653423, "tags": {"amenity": "restaurant", "name": "Jazz"}}, {"type": "node", "id": 4175142992, "lat": 39.9506905, "lon": -75.166966, "tags": {"addr:housenumber": "1524", "addr:street": "Sansom Street", "amenity": "bar", "name": "Oscar's Dive Bar"}}, {"type": "node", "id": 4175143496, "lat": 39.9549545, "lon": -75.1389185, "tags": {"addr:city": "Philadelphia", "addr:housenumber": "221", "addr:postcode": "19106", "addr:street": "North Christopher Columbus Boulevard", "amenity": "restaurant", "check_date": "2023-06-10", "email": "info@morganspier.com", "name": "Morgan's Pier", "opening_hours": "Mo-Th 16:00-26:00; Fr-Su 12:00-26:00", "website": "https://www.morganspier.com/"}}, {"type": "node", "id": 4175144190, "lat": 39.9482833, "lon": -75.1744332, "tags": {"addr:housenumber": "276", "addr:street": "South 20th Street", "amenity": "restaurant", "check_date": "2023-04-14", "contact:facebook": "https://www.facebook.com/charleydovephilly", "contact:phone": "+1 215-732-1222", "contact:website": "https://charleydovephilly.com", "cuisine": "french", "name": "Charley Dove", "opening_hours": "Mo,Su off; Tu-Th 17:00-21:00; Fr-Sa 17:00-22:00"}}, {"type": "node", "id": 4175144191, "lat": 39.9454134, "lon": -75.1627756, "tags": {"addr:street": "Pine Street", "amenity": "bar", "name": "Dirty Franks"}}, {"type": "node", "id": 4236656389, "lat": 39.9482416, "lon": -75.1610596, "tags": {"amenity": "restaurant"}}, {"type": "node", "id": 4236656391, "lat": 39.9479023, "lon": -75.1613868, "tags": {"addr:city": "Philadelphia", "addr:housenumber": "1221", "addr:state": "PA", "addr:street": "Locust Street", "amenity": "restaurant", "cuisine": "fine_dining", "diet:vegan": "only", "name": "Vedge", "phone": "+1 215 3207500", "smoking": "no", "website": "https://www.vedgerestaurant.com/", "wikidata": "Q61968737"}}, {"type": "node", "id": 4236713604, "lat": 39.9509517, "lon": -75.1722659, "tags": {"addr:city": "Philadelphia", "addr:housenumber": "126", "addr:state": "PA", "addr:street": "South 19th Street", "amenity": "restaurant", "diet:vegan": "only", "name": "Vstreet", "opening_hours": "Mo off", "phone": "+1 215 2787943", "smoking": "no", "website": "https://www.vstreetfood.com/"}}, {"type": "node", "id": 4271027594, "lat": 39.9495876, "lon": -75.1604344, "tags": {"addr:housenumber": "122", "addr:street": "South 12th Street", "amenity": "restaurant", "check_date": "2023-04-12", "contact:facebook": "https://www.facebook.com/hatchandcoopphilly", "contact:phone": "+1 215-922-0102", "contact:website": "https://www.hatchandcoop.com", "cuisine": "american", "email": "hello@hatchandcoop.com", "name": "Hatch & Coop", "opening_hours": "24/7"}}, {"type": "node", "id": 4305816202, "lat": 39.9497775, "lon": -75.1449101, "tags": {"amenity": "restaurant", "name": "Happily Ever After"}}, {"type": "node", "id": 4514675789, "lat": 39.950618, "lon": -75.1704475, "tags": {"addr:city": "Philadelphia", "addr:housenumber": "133", "addr:postcode": "19103", "addr:state": "PA", "addr:street": "South 18th Street", "amenity": "restaurant", "cuisine": "cuban", "description": "Snug spot serving vegan arepas, tacos & empanadas, plus a take-out window for java, juices & more.", "diet:vegan": "yes", "diet:vegetarian": "yes", "name": "Bar Bombon", "opening_hours": "Mo-Th 11:30-22:00; Fr 11:30-23:00; Su 11:00-21:00", "phone": "+1 267-606-6612", "website": "https://barbombon.com/"}}, {"type": "node", "id": 4542120004, "lat": 39.9504294, "lon": -75.1672599, "tags": {"addr:housenumber": "121", "addr:postcode": "19102", "addr:street": "South 16th Street", "amenity": "restaurant", "check_date": "2023-10-08", "internet_access": "wlan", "name": "Marathon - 16th & Sansom", "name:en": "Marathon", "opening_hours": "Mo-Th,Su 11:00-21:00; Fr-Sa 11:00-22:00", "phone": "+1-215-569-3278", "website": "https://www.eatmarathon.com"}}, {"type": "node", "id": 4779956683, "lat": 39.9481789, "lon": -75.1430737, "tags": {"addr:city": "Philadelphia", "addr:housenumber": "112", "addr:postcode": "19106", "addr:state": "PA", "addr:street": "Chestnut Street", "amenity": "bar", "check_date": "2023-10-17", "contact:instagram": "https://www.instagram.com/brasils_night_club_", "description": "On second floor of building.  Holds dance classes some nights, and functions as a nightclub on weekends.", "name": "Brasil's Nightclub", "outdoor_seating": "no", "phone": "+1 609-713-6944", "smoking": "no", "website": "https://brasilsnightclub-philly.com"}}, {"type": "node", "id": 4790082821, "lat": 39.9493994, "lon": -75.16841, "tags": {"addr:housenumber": "1615", "addr:street": "Chancellor Street", "amenity": "restaurant", "check_date": "2023-04-11", "contact:facebook": "https://www.facebook.com/PizzeriaVetri", "contact:phone": "+1 215-763-3760", "contact:website": "http://www.pizzeriavetri.com/location/rittenhouse-square/", "name": "Pizzeria Vetri", "opening_hours": "Mo-Th,Su 11:30-21:00; Fr-Sa 11:30-22:00"}}, {"type": "node", "id": 4880698721, "lat": 39.9495012, "lon": -75.152127, "tags": {"addr:postcode": "19106", "amenity": "restaurant", "cuisine": "italian", "email": "Eat@lascalasphilly.com", "internet_access": "wlan", "name": "LaScala's", "name:en": "LaScala's", "opening_hours": "Mo-Th 11:00-22:00; Fr-Sa 11:00-23:00; Su 11:00-21:00", "phone": "+1 215 928 09 00", "website": "http://lascalasphilly.com/"}}, {"type": "node", "id": 4949327723, "lat": 39.9476934, "lon": -75.1680792, "tags": {"addr:housenumber": "264", "addr:postcode": "19102", "addr:street": "South 16th Street", "amenity": "bar", "name": "Monk's Cafe", "name:en": "Monk's Cafe", "name:es": "Monk's Cafe", "opening_hours": "Mo-Su 11:30-02:00", "phone": "+1-215-545-7005", "website": "https://monkscafe.com/"}}, {"type": "node", "id": 5172104653, "lat": 39.9530129, "lon": -75.1701856, "tags": {"addr:city": "Philadelphia", "addr:housenumber": "1800", "addr:postcode": "19103", "addr:state": "PA", "addr:street": "Market Street", "amenity": "restaurant", "brand": "Ruth's Chris Steak House", "brand:wikidata": "Q7382829", "brand:wikipedia": "en:Ruth's Chris Steak House", "check_date": "2023-10-09", "cuisine": "american", "name": "Ruth's Chris Steak House", "opening_hours": "Mo-Th 11:30-15:00,16:00-21:00; Fr 11:30-15:00,16:00-22:00; Sa 16:00-22:00; Su 16:00-21:00", "phone": "+1 215-790-1515", "website": "https://ruthschris.com/philadelphia"}}, {"type": "node", "id": 5281092753, "lat": 39.9533718, "lon": -75.1404129, "tags": {"addr:city": "Philadelphia", "addr:housenumber": "140", "addr:postcode": "19106", "addr:state": "PA", "addr:street": "North Christopher Columbus Boulevard", "amenity": "restaurant", "cuisine": "bistro", "name": "La Peg", "opening_hours": "Mo-Th 17:00-22:30, Fr-Sa 17:00-23:30, Su 17:00-22:00", "outdoor_seating": "yes", "phone": "+1 215-375-7744", "smoking": "outside", "website": "http://lapegbrasserie.com/"}}, {"type": "node", "id": 5366495321, "lat": 39.9480826, "lon": -75.1592322, "tags": {"addr:housenumber": "216", "addr:street": "South 11th Street", "amenity": "bar", "check_date": "2023-04-12", "contact:facebook": "https://www.facebook.com/Strangelovesbeerbar", "contact:phone": "+1 215-873-0404", "contact:website": "https://www.strangelovesbeerbar.com", "name": "Strangelove's", "opening_hours": "Mo-We 11:00-22:00; Th-Fr 11:00-24:00; Sa 10:30-23:00; Su 10:30-20:00"}}, {"type": "node", "id": 5437614221, "lat": 39.9488836, "lon": -75.1470298, "tags": {"addr:housenumber": "325", "addr:postcode": "19106", "addr:street": "Chestnut Street", "amenity": "restaurant", "check_date": "2023-10-16", "cuisine": "asian", "name": "Buddakan", "opening_hours": "Mo-Th 17:00-22:00; Fr-Sa 17:00-23:00; Su 16:00-22:00", "phone": "+1 215-574-9440", "website": "https://buddakan.com", "wikidata": "Q21015930", "wikipedia": "en:Buddakan"}}, {"type": "node", "id": 5437614421, "lat": 39.9497016, "lon": -75.161896, "tags": {"addr:housenumber": "121", "addr:postcode": "19107", "addr:street": "South 13th Street", "amenity": "restaurant", "check_date": "2023-10-12", "contact:instagram": "https://www.instagram.com/elvezphilly", "name": "El Vez", "opening_hours": "Mo-Th 11:30-22:00; Fr 11:30-24:00; Sa 11:30-15:00,16:00-24:00; Su 11:30-15:00,16:00-22:00", "phone": "+1 215-928-9800", "website": "https://elvezrestaurant.com"}}, {"type": "node", "id": 5595413962, "lat": 39.9495249, "lon": -75.1618901, "tags": {"addr:city": "Philadelphia", "addr:housenumber": "131", "addr:postcode": "19107", "addr:state": "PA", "addr:street": "South 13th Street", "amenity": "restaurant", "check_date": "2023-10-12", "description": "High-end vegan bar with small plates, open late.", "diet:vegan": "yes", "name": "Charlie Was a Sinner", "opening_hours": "Mo-Th,Su 16:00-23:00 \"kitchen closes at 10pm\", Fr-Sa 16:00-24:00 \"kitchen closes at 11pm\"", "phone": "+1 267-758-5372", "website": "https://charliewasasinner.com/"}}, {"type": "node", "id": 5595443764, "lat": 39.9502614, "lon": -75.1638109, "tags": {"addr:city": "Philadelphia", "addr:housenumber": "121", "addr:postcode": "19107", "addr:state": "PA", "addr:street": "South Broad Street", "amenity": "restaurant", "cuisine": "american;fast_food", "description": "Vegan fast food.", "diet:vegan": "only", "diet:vegetarian": "yes", "name": "HipCityVeg"}}, {"type": "node", "id": 5595446575, "lat": 39.9487788, "lon": -75.1697905, "tags": {"addr:city": "Philadelphia", "addr:housenumber": "1706", "addr:postcode": "19103", "addr:state": "PA", "addr:street": "Locust Street", "amenity": "restaurant", "cuisine": "bakery;smoothie;juice", "description": "Rustic vegan bakery and cafe with a quiet, sophisticated vibe.", "diet:vegan": "only", "name": "P.S. and Co", "opening_hours": "09:00-20:00 || \"these are typical, but hours may vary\"", "phone": "+1 215-985-1706"}}, {"type": "node", "id": 5595478221, "lat": 39.9507673, "lon": -75.1704223, "tags": {"addr:city": "Philadelphia", "addr:housenumber": "127", "addr:postcode": "19103", "addr:state": "PA", "addr:street": "South 18th Street", "amenity": "restaurant", "cuisine": "american;sandwich;cheesesteak", "description": "Healthful dine-in or take-out vegan food & smoothies served in a small, industrial-looking space.", "diet:vegan": "yes", "diet:vegetarian": "yes", "name": "HipCityVeg", "opening_hours": "Mo-Su 10:00-22:00", "phone": "+1 215-278-7605", "website": "https://hipcityveg.com/"}}, {"type": "node", "id": 5605096053, "lat": 39.954431, "lon": -75.154323, "tags": {"addr:city": "Philadelphia", "addr:housenumber": "135", "addr:postcode": "19107", "addr:state": "PA", "addr:street": "North 9th Street", "amenity": "restaurant", "cuisine": "chinese", "description": "Chinese vegan restaurant with mock meat options.", "diet:vegan": "only", "diet:vegetarian": "only", "name": "New Harmony Vegetarian Restaurant", "opening_hours": "Th-Tu 11:00-22:30", "phone": "+1 215-627-4520", "takeaway": "yes", "website": "http://www.newharmonyphilly.com/"}}, {"type": "node", "id": 5605233860, "lat": 39.9503026, "lon": -75.1663275, "tags": {"addr:city": "Philadelphia", "addr:housenumber": "1508", "addr:postcode": "19102", "addr:state": "PA", "addr:street": "Sansom Street", "amenity": "restaurant", "cuisine": "chinese", "diet:vegan": "yes", "diet:vegetarian": "only", "name": "Su Xing House", "opening_hours": "Mo-Th 11:00-22:30; Fr-Sa 11:00-23:00; Su 12:00-22:00", "phone": "+1-215-564-1419", "website": "http://suxinghouse.com/"}}, {"type": "node", "id": 5636054821, "lat": 39.9518174, "lon": -75.1704471, "tags": {"addr:city": "Philadelphia", "addr:housenumber": "1801", "addr:postcode": "19103", "addr:state": "PA", "addr:street": "Chestnut Street", "amenity": "restaurant", "check_date": "2023-10-09", "contact:instagram": "continental_midtown", "cuisine": "american", "happy_hours": "Mo-Fr 16:00-18:00", "name": "The Continental Mid-Town", "opening_hours:brunch": "Sa-Su 10:00-15:00", "opening_hours:dinner": "Mo-Th 16:00-22:00; Fr-Sa 16:00-23:00; Su 16:00-22:00", "opening_hours:lunch": "Mo-Fr 11:30-15:00", "phone": "+1 215-567-1800", "website": "https://continentalmidtown.com"}}, {"type": "node", "id": 5861898622, "lat": 39.9463276, "lon": -75.1635376, "tags": {"addr:housenumber": "1342", "addr:street": "Cypress Street", "amenity": "bar", "name": "Writer's Block Rehab"}}, {"type": "node", "id": 5976183421, "lat": 39.9629821, "lon": -75.1742083, "tags": {"addr:city": "Philadelphia", "addr:housenumber": "2101", "addr:postcode": "19130", "addr:state": "PA", "addr:street": "Pennsylvania Avenue", "amenity": "restaurant", "cuisine": "fried_chicken;donut", "name": "Federal Donuts", "opening_hours": "Mo-Su 08:00-20:00", "outdoor_seating": "no", "takeaway": "yes"}}, {"type": "node", "id": 6100284400, "lat": 39.9532639, "lon": -75.1594341, "tags": {"addr:city": "Philadelphia", "addr:housenumber": "51", "addr:postcode": "19107", "addr:state": "PA", "addr:street": "North 12th Street", "amenity": "restaurant", "cuisine": "sandwich;deli", "diet:vegan": "only", "name": "LUHV Vegan Deli", "opening_hours": "Mo-Su 08:00-18:00", "website": "https://deli.luhvfood.com/"}}, {"type": "node", "id": 6100332166, "lat": 39.9630538, "lon": -75.1743045, "tags": {"addr:city": "Philadelphia", "addr:housenumber": "2101", "addr:postcode": "19130", "addr:state": "PA", "addr:street": "Pennsylvania Avenue", "amenity": "restaurant", "cuisine": "mediterranean;falafel;milkshake", "diet:vegan": "only", "name": "Goldie", "opening_hours": "Mo-Su 11:00-20:00", "website": "http://goldiefalafel.com"}}, {"type": "node", "id": 6221547185, "lat": 39.9494459, "lon": -75.1656902, "tags": {"addr:city": "Philadelphia", "addr:housenumber": "1430", "addr:postcode": "19102", "addr:street": "Walnut Street", "alt_name": "Cheesecake Factory", "amenity": "restaurant", "brand": "The Cheesecake Factory", "brand:wikidata": "Q1045842", "brand:wikipedia": "en:The Cheesecake Factory", "check_date": "2023-10-15", "cuisine": "american", "name": "The Cheesecake Factory", "name:ca": "Cheesecake factory", "opening_hours": "Mo-Th 11:30-22:00; Fr 11:30-23:00; Sa 11:00-23:00; Su 10:00-22:00", "phone": "+1 267-457-2203", "website": "https://locations.thecheesecakefactory.com/pa/philadelphia-181.html"}}, {"type": "node", "id": 6222237222, "lat": 39.9477524, "lon": -75.1615347, "tags": {"addr:city": "Philadelphia", "addr:housenumber": "1220", "addr:postcode": "19107", "addr:state": "PA", "addr:street": "Locust Street", "amenity": "bar", "check_date:opening_hours": "2021-04-02", "name": "Ubar", "opening_hours": "Mo-Su 11:00-02:00", "outdoor_seating": "no", "website": "https://www.ubarphilly.com/", "wheelchair": "no"}}, {"type": "node", "id": 6327451791, "lat": 39.9513876, "lon": -75.1705328, "tags": {"addr:housenumber": "108", "addr:street": "South 18th Street", "amenity": "bar", "check_date": "2023-04-11", "contact:facebook": "https://www.facebook.com/cleaversphilly", "contact:phone": "+1 215-515-3828", "contact:website": "https://www.cleaversphilly.com", "name": "Cleavers", "opening_hours": "Mo-We,Su 11:00-21:00; Th-Sa 11:00-22:00"}}, {"type": "node", "id": 6374481270, "lat": 39.9463061, "lon": -75.1451873, "tags": {"addr:city": "Philadelphia", "addr:housenumber": "237", "addr:postcode": "19106", "addr:state": "PA", "addr:street": "St James Place", "amenity": "restaurant", "email": "info@zahavrestaurant.com", "name": "Zahav", "opening_hours": "Su-Th 17:00-22:00; Fr-Sa 17:00-23:00", "phone": "+1-215-625-8800", "website": "http://www.zahavrestaurant.com"}}, {"type": "node", "id": 6376952525, "lat": 39.9508062, "lon": -75.1748916, "tags": {"addr:city": "Philadelphia", "addr:housenumber": "2031", "addr:postcode": "19103", "addr:state": "PA", "addr:street": "Walnut Street", "amenity": "restaurant", "name": "Vernick Food & Drink"}}, {"type": "node", "id": 6377045777, "lat": 39.9500306, "lon": -75.1461104, "tags": {"addr:city": "Philadelphia", "addr:housenumber": "306", "addr:postcode": "19106", "addr:state": "PA", "addr:street": "Market Street", "amenity": "restaurant", "check_date": "2023-10-16", "name": "Fork", "phone": "+1 215-625-9425", "website": "https://forkrestaurant.com"}}, {"type": "node", "id": 6417151886, "lat": 39.9541459, "lon": -75.1576212, "tags": {"amenity": "pub", "name": "Bar Ly"}}, {"type": "node", "id": 6421970485, "lat": 39.9608191, "lon": -75.1452396, "tags": {"amenity": "restaurant", "name": "Spring Garden Restaurant"}}, {"type": "node", "id": 6448326618, "lat": 39.9517161, "lon": -75.1595773, "tags": {"addr:city": "Philadelphia", "addr:housenumber": "1150", "addr:postcode": "19107", "addr:street": "Market Street", "amenity": "pub", "check_date": "2023-10-15", "name": "Iron Hill Brewery", "opening_hours": "Mo-Th 11:00-23:00; Fr-Sa 11:00-24:00; Su 11:00-22:00", "phone": "+1 267-507-7365", "website": "https://ironhillbrewery.com/location/philadelphia-pa"}}, {"type": "node", "id": 6521815586, "lat": 39.9547869, "lon": -75.1646447}, {"type": "node", "id": 6521815587, "lat": 39.9547964, "lon": -75.1647204}, {"type": "node", "id": 6556392885, "lat": 39.9539174, "lon": -75.1561117, "tags": {"amenity": "restaurant", "name": "Siu Kee Duck House", "name:zh": "\u8d99\u8a18\u6e2f\u5f0f\u71d2\u81d8"}}, {"type": "node", "id": 6556392888, "lat": 39.9538331, "lon": -75.1570828, "tags": {"amenity": "restaurant", "name": "Happy Lamb", "name:zh": "\u5feb\u4e50\u5c0f\u7f8a"}}, {"type": "node", "id": 6556392895, "lat": 39.9535807, "lon": -75.1551656, "tags": {"addr:housenumber": "909", "addr:street": "Arch Street", "amenity": "restaurant", "check_date": "2023-04-12", "contact:phone": "+1 267-930-7634", "contact:website": "https://bubblefishphilly.com", "cuisine": "japanese", "email": "bubblefishphilly@gmail.com", "name": "Bubblefish", "opening_hours": "Mo-Th,Su 11:00-23:30; Fr-Sa 11:00-24:30"}}, {"type": "node", "id": 6556392900, "lat": 39.9538831, "lon": -75.1574417, "tags": {"addr:housenumber": "1025", "addr:street": "Arch Street", "amenity": "bar", "check_date": "2023-04-12", "contact:phone": "+1 215-592-8128", "contact:website": "https://lairktv.com", "description": "Karaoke bar with luxury private rooms for rent.  The lower level is open Friday and Saturday; the upper rooms are available every day.  By reservation only.", "email": "lairktv@gmail.com", "name": "KTV", "opening_hours": "19:00-26:00"}}, {"type": "node", "id": 6556392904, "lat": 39.9540692, "lon": -75.1560607, "tags": {"amenity": "restaurant", "cuisine": "chinese", "name": "Penang"}}, {"type": "node", "id": 6556392908, "lat": 39.9538547, "lon": -75.157219, "tags": {"amenity": "bar", "name": "Tango"}}, {"type": "node", "id": 6556404818, "lat": 39.9542464, "lon": -75.1552492, "tags": {"amenity": "restaurant", "cuisine": "asian", "name": "Chowbus"}}, {"type": "node", "id": 6556417040, "lat": 39.9550412, "lon": -75.1561244, "tags": {"amenity": "restaurant", "name": "Ming River Side Walk House", "name:zh": "\u95a9\u6c5f\u8857\u908a\u5c0f\u5403"}}, {"type": "node", "id": 6556417041, "lat": 39.9549969, "lon": -75.1561314, "tags": {"amenity": "restaurant", "name": "Chubby Cattle"}}, {"type": "node", "id": 6556417042, "lat": 39.9548174, "lon": -75.1561826, "tags": {"amenity": "restaurant", "name": "Xun Yu Si Kao"}}, {"type": "node", "id": 6556417044, "lat": 39.9547662, "lon": -75.1561914, "tags": {"amenity": "restaurant", "cuisine": "chinese", "name": "Ting Wong Restaurant", "name:zh": "\u5929\u65fa\u5927\u98ef\u5e97"}}, {"type": "node", "id": 6556417045, "lat": 39.9553881, "lon": -75.1549275, "tags": {"addr:city": "Philadelphia", "addr:housenumber": "915", "addr:street": "Race Street", "amenity": "restaurant", "check_date": "2023-10-11", "cuisine": "japanese", "name": "Megumi Japanese Ramen & Sushi Bar", "opening_hours": "Mo-Tu,Th-Su 11:00-21:30; We off", "phone": "+1 215-733-0129", "website": "https://www.megumisushi.com"}}, {"type": "node", "id": 6556417048, "lat": 39.9546597, "lon": -75.1562147, "tags": {"amenity": "restaurant", "name": "Tai Lake Seafood Restaurant"}}, {"type": "node", "id": 6556417049, "lat": 39.9554571, "lon": -75.1554864, "tags": {"amenity": "restaurant", "cuisine": "barbecue", "name": "Red Kings B.B.Q. Bar"}}, {"type": "node", "id": 6556417050, "lat": 39.9542177, "lon": -75.1562996, "tags": {"amenity": "restaurant", "cuisine": "chinese", "name": "Hidden Gem"}}, {"type": "node", "id": 6556417053, "lat": 39.955465, "lon": -75.1556482, "tags": {"amenity": "restaurant", "cuisine": "seafood", "name": "Ocean Harmony"}}, {"type": "node", "id": 6558075398, "lat": 39.9493817, "lon": -75.1530828, "tags": {"amenity": "restaurant", "name": "El Azteca"}}, {"type": "node", "id": 6558075399, "lat": 39.9493345, "lon": -75.1526809, "tags": {"amenity": "bar", "name": "Las Vegas Lounge"}}, {"type": "node", "id": 6592175968, "lat": 39.9519, "lon": -75.1756, "tags": {"addr:housenumber": "102", "addr:street": "S 21st Street", "amenity": "restaurant", "check_date": "2023-04-13", "description": "Roman-style pizza.", "name": "Rione", "opening_hours": "Mo-We 11:30-20:30; Th-Fr 11:30-21:00; Sa 12:00-21:00; Su 12:00-20:30", "phone": "2155759075", "website": "https://www.rionepizza.com/"}}, {"type": "node", "id": 6592287326, "lat": 39.9518706, "lon": -75.1756131, "tags": {"addr:city": "Philadelphia", "addr:housenumber": "21", "addr:state": "PA", "addr:street": "Chestnut Street", "amenity": "restaurant", "cuisine": "asian", "name": "Tampopo", "opening_hours": "Mo-Fr 11:30-14:30,17:00-21:00; Sa 12:00-20:30", "phone": "215-557-9593", "website": "http://tampoporestaurant.com/"}}, {"type": "node", "id": 6597326016, "lat": 39.9457682, "lon": -75.1749904, "tags": {"addr:city": "Philadelphia", "addr:housenumber": "500", "addr:postcode": "19146", "addr:state": "PA", "addr:street": "South 20th Street", "air_conditioning": "yes", "amenity": "restaurant", "cuisine": "american", "indoor_seating": "yes", "internet_access": "yes", "name": "Lou Bird's", "opening_hours": "Mo 12:00-17:00, 17:00-02:00; Tu-Fr 17:00-02:00; Sa 10:00-00:00, Su 10:00-21:00", "outdoor_seating": "yes", "phone": "(267) 804-7977", "website": "https://loubirds.net", "wheelchair": "yes"}}, {"type": "node", "id": 6597367956, "lat": 39.9457205, "lon": -75.1747533, "tags": {"addr:city": "Philadelphia", "addr:housenumber": "1946", "addr:postcode": "19146", "addr:state": "PA", "addr:street": "Lombard Street", "amenity": "restaurant", "cuisine": "burger;european;american", "indoor_seating": "yes", "name": "Pub & Kitchen", "opening_hours": "Mo-Fr 16:00-02:00; Sa 11:00-02:00; Su 10:00-02:00", "outdoor_seating": "yes", "phone": "(215) 545-0350", "reservation": "recommended", "website": "https://thepubandkitchen.com", "wheelchair": "no"}}, {"type": "node", "id": 6597387162, "lat": 39.9476975, "lon": -75.1665331, "tags": {"addr:city": "Philadelphia", "addr:housenumber": "258", "addr:postcode": "19102", "addr:state": "PA", "addr:street": "South 15th Street", "amenity": "bar", "check_date": "2023-04-11", "contact:phone": "+1 267-519-2189", "contact:website": "https://www.howlatthemoon.com/philadelphia", "description": "The Philadelphia branch of the Howl at the Moon franchise.", "name": "Howl at the Moon", "opening_hours": "Mo-We,Su \"open for events\"; Th 19:00-26:00; Fr-Sa 18:00-26:00", "toilets:wheelchair": "yes", "wheelchair": "yes"}}, {"type": "node", "id": 6600287516, "lat": 39.9492006, "lon": -75.142403, "tags": {"addr:housenumber": "10", "addr:street": "South Front Street", "amenity": "restaurant", "check_date": "2023-10-17", "cuisine": "mediterranean", "name": "Lilly's Ferry", "opening_hours": "Mo off; Tu-We 11:00-23:00; Th 11:00-24:00, Fr 11:00-25:00, Sa 10:00-26:00, Su 10:00-22:00", "phone": "+1-215-543-6089", "website": "https://www.lillysferry.com", "wheelchair": "no"}}, {"type": "node", "id": 6611205185, "lat": 39.9565775, "lon": -75.1606101, "tags": {"addr:housenumber": "218", "addr:street": "North 13th Street", "amenity": "restaurant", "cuisine": "chinese", "internet_access": "wlan", "name": "Nom Wah", "opening_hours": "Mo, We-Fr 11:30-22:00; Su 10:30-21:00; Sa 10:30-22:00", "phone": "2675192889"}}, {"type": "node", "id": 6611740530, "lat": 39.953852, "lon": -75.1591312, "tags": {"amenity": "restaurant", "name": "dutch eating place"}}, {"type": "node", "id": 6625360703, "lat": 39.9468964, "lon": -75.1441362, "tags": {"addr:housenumber": "126", "addr:street": "Walnut Street", "amenity": "bar", "check_date": "2023-04-12", "contact:phone": "+1 215-253-3777", "contact:website": "https://www.theoldebar.com", "name": "The Olde Bar", "opening_hours": "Mo-Fr 16:00-22:00; Sa-Su 12:00-15:00,16:00-22:00"}}, {"type": "node", "id": 6648727687, "lat": 39.9519491, "lon": -75.1443216, "tags": {"addr:city": "Philadelphia", "addr:housenumber": "228", "addr:postcode": "19106", "addr:state": "PA", "addr:street": "Arch Street", "amenity": "restaurant", "cuisine": "asian;japanese", "name": "Tomo Sushi & Ramen", "opening_hours": "Tu-Th 15:00-21:30; Su 15:00-21:30; Fr-Sa 15:00-22:30", "phone": "+1-267-519-0209", "website": "http://www.tomosushiandramen.com/"}}, {"type": "node", "id": 6682051476, "lat": 39.9500093, "lon": -75.1796671, "tags": {"addr:city": "Philadelphia", "addr:housenumber": "231", "addr:postcode": "19103", "addr:state": "PA", "addr:street": "S 24th St", "amenity": "restaurant", "check_date": "2023-07-20", "cuisine": "italian", "diet:vegetarian": "yes", "email": "info@ambrosiabyob.com", "name": "Ambrosia", "opening_hours": "Mo-Sa 11:30-14:30,17:00-22:00; Su 17:00-21:00", "outdoor_seating": "yes", "phone": "+1-215-703-2010", "website": "https://www.ambrosiabyob.com/", "website:menu": "https://www.ambrosiabyob.com/menus/"}}, {"type": "node", "id": 6682336050, "lat": 39.9484369, "lon": -75.1437157, "tags": {"addr:city": "Philadelphia", "addr:country": "US", "addr:housenumber": "123", "addr:postcode": "19106", "addr:state": "PA", "addr:street": "Chestnut Street", "air_conditioning": "yes", "amenity": "restaurant", "cuisine": "chinese", "name": "Han Dynasty", "opening_hours": "Su-Th 11:30-22:00; Fr-Sa 11:30-22:30", "phone": "+1-215-922-1888", "website": "https://www.handynasty.net/"}}, {"type": "node", "id": 6693379145, "lat": 39.9520039, "lon": -75.1737779, "tags": {"addr:city": "Philadelphia", "addr:country": "US", "addr:housenumber": "2004", "addr:postcode": "19103", "addr:state": "PA", "addr:street": "Chestnut Street", "amenity": "restaurant", "cuisine": "indian;street_food", "diet:vegan": "no", "diet:vegetarian": "yes", "email": "info@masalakitchenphilly.com", "name": "Masala Kitchen", "opening_hours": "Mo-Th 11:00-24:00; Fr 11:00-03:30; Sa 12:00-03:30; Su 12:00-23:00", "phone": "+1-267-639-9405", "website": "http://masalakitchenphilly.com"}}, {"type": "node", "id": 6833543203, "lat": 39.9600066, "lon": -75.1535317}, {"type": "node", "id": 6833543204, "lat": 39.9600028, "lon": -75.1533519}, {"type": "node", "id": 6833543205, "lat": 39.960086, "lon": -75.1533489}, {"type": "node", "id": 6833543206, "lat": 39.9600915, "lon": -75.1536071}, {"type": "node", "id": 6833543207, "lat": 39.960021, "lon": -75.1536097}, {"type": "node", "id": 6833543208, "lat": 39.9600193, "lon": -75.1535312}, {"type": "node", "id": 6899331049, "lat": 39.9564037, "lon": -75.1571701, "tags": {"amenity": "restaurant", "cuisine": "chinese", "name": "TT Skewer"}}, {"type": "node", "id": 6899331050, "lat": 39.9562671, "lon": -75.1571995, "tags": {"amenity": "restaurant", "cuisine": "chinese", "name": "Lee How Fook"}}, {"type": "node", "id": 6899331051, "lat": 39.9562758, "lon": -75.1574431, "tags": {"amenity": "restaurant", "cuisine": "vietnamese", "name": "Vietnam Palace"}}, {"type": "node", "id": 6899331060, "lat": 39.955461, "lon": -75.1573588, "tags": {"addr:city": "Philadelphia", "addr:housenumber": "1038", "addr:street": "Race Street", "amenity": "restaurant", "check_date": "2023-10-11", "contact:facebook": "https://www.facebook.com/BaiWei1038", "cuisine": "chinese", "name": "Bai Wei", "name:zh": "\u767e\u5473\u8ed2", "opening_hours": "Mo-Th,Su 11:00-22:00; Fr-Sa 11:30-22:30", "phone": "+1 215-873-8338", "website": "https://www.baiweipa.com"}}, {"type": "node", "id": 7098783385, "lat": 39.9553946, "lon": -75.1568023, "tags": {"addr:city": "Philadelphia", "addr:housenumber": "1022", "addr:postcode": "19107", "addr:street": "Race Street", "amenity": "restaurant", "check_date": "2023-10-11", "cuisine": "chinese", "name": "Nan Zhou Hand Drawn Noodle House", "name:zh": "\u7f8e\u5473\u862d\u5dde\u624b\u62c9\u9eb5", "opening_hours": "Mo-Th,Su 11:00-22:00; Fr-Sa 11:00-22:30", "phone": "+1-215-923-1550", "website": "https://www.nanzhounoodlehouse.com"}}, {"type": "node", "id": 7098832902, "lat": 39.9553187, "lon": -75.1561036, "tags": {"amenity": "restaurant", "cuisine": "chinese", "name": "M Kee", "name:zh": "\u6587\u65fa\u5927\u98ef\u5e97"}}, {"type": "node", "id": 7098832903, "lat": 39.9553914, "lon": -75.1567386, "tags": {"addr:city": "Philadelphia", "addr:housenumber": "1020", "addr:postcode": "19107", "addr:street": "Race Street", "amenity": "restaurant", "check_date": "2023-10-11", "cuisine": "chinese", "name": "Dim Sum Garden", "name:zh": "\u9ede\u5712", "opening_hours": "11:00-22:00", "phone": "+1 215-873-0258", "website": "https://www.dimsumgardenphilly.com"}}, {"type": "node", "id": 7170137585, "lat": 39.952329, "lon": -75.1453277, "tags": {"addr:housenumber": "100", "addr:street": "North 3rd Street", "amenity": "restaurant", "cuisine": "italian_pizza;american", "name": "Old City Pizza & Restaurant", "opening_hours": "Mo-Sa 09:00-23:00; Su 09:00-22:00"}}, {"type": "node", "id": 7402711440, "lat": 39.9602964, "lon": -75.1555496, "tags": {"amenity": "bar", "craft": "brewery", "name": "Love City Brewing"}}, {"type": "node", "id": 7533950455, "lat": 39.9533256, "lon": -75.149594, "tags": {"amenity": "restaurant", "name": "Delegates\u2019 Cafe"}}, {"type": "node", "id": 7953388778, "lat": 39.9608469, "lon": -75.1712178, "tags": {"addr:city": "Philadelphia", "addr:housenumber": "1939", "addr:postcode": "19130", "addr:state": "PA", "addr:street": "Callowhill Street", "amenity": "restaurant", "cuisine": "pizza", "name": "Pizzeria Vetri", "opening_hours": "11:30-20:00; Fr,Sa 11:30-21:00", "phone": "+12156002629", "website": "https://www.pizzeriavetri.com/"}}, {"type": "node", "id": 7953388779, "lat": 39.9608063, "lon": -75.1707918, "tags": {"addr:city": "Philadelphia", "addr:housenumber": "1901", "addr:postcode": "19130", "addr:state": "PA", "addr:street": "Callowhill Street", "amenity": "restaurant", "cuisine": "mexican;tacos", "name": "Buena Onda", "phone": "+12153023530", "website": "https://www.buenaondatacos.com/menu.html"}}, {"type": "node", "id": 7953388780, "lat": 39.9607156, "lon": -75.1701396, "tags": {"addr:city": "Philadelphia", "addr:housenumber": "1901", "addr:postcode": "19130", "addr:state": "PA", "addr:street": "Callowhill Street", "amenity": "restaurant", "branch": "Japanese BBQ", "brand": "Gyu-Kaku", "brand:wikidata": "Q11349387", "cuisine": "japanese;barbecue", "name": "Gyu-Kaku", "phone": "+12676039482", "website": "https://www.gyu-kaku.com/philadelphia"}}, {"type": "node", "id": 7973721782, "lat": 39.9491321, "lon": -75.1490461, "tags": {"amenity": "restaurant", "name": "Red Owl Tavern", "outdoor_seating": "yes"}}, {"type": "node", "id": 7973722887, "lat": 39.9485144, "lon": -75.1443929, "tags": {"addr:city": "Philadelphia", "addr:housenumber": "207", "addr:postcode": "19106", "addr:street": "Chestnut Street", "amenity": "restaurant", "check_date": "2023-10-16", "contact:instagram": "https://www.instagram.com/luchacartelphilly", "cuisine": "mexican", "name": "Lucha Cartel", "opening_hours": "Mo-We,Su 12:00-22:00, Th-Sa 12:00-26:00", "phone": "+1 267-761-9209", "website": "https://www.luchacartel.com"}}, {"type": "node", "id": 7976943939, "lat": 39.9487125, "lon": -75.1598497, "tags": {"addr:housenumber": "1116", "addr:street": "Walnut Street", "amenity": "restaurant", "check_date": "2023-04-11", "contact:phone": "+1 215-627-7676", "contact:website": "https://moriartyspub.com", "name": "Moriarty\u2019s Restaurant", "opening_hours": "Mo,Su 11:00-24:00 \"Kitchen open until 10pm\"; Tu-Th 11:00-26:00 \"\"Kitchen open until 10pm\"; Fr-Sa 11:00-26:00 \"Kitchen open until 12am\""}}, {"type": "node", "id": 8127686617, "lat": 39.950302, "lon": -75.166539, "tags": {"addr:city": "Philadelphia", "addr:housenumber": "1516", "addr:postcode": "19102", "addr:street": "Sansom Street", "amenity": "restaurant", "check_date": "2023-10-12", "happy_hours": "Tu-Fr 16:00-18:00", "name": "Oyster House", "opening_hours": "Mo,Su off; Tu-Th 11:30-21:00; Fr-Sa 11:30-22:00", "phone": "+1 215-567-7683", "website": "https://oysterhousephilly.com"}}, {"type": "node", "id": 8127755217, "lat": 39.9495191, "lon": -75.1622021, "tags": {"addr:city": "Philadelphia", "addr:housenumber": "124", "addr:postcode": "19107", "addr:street": "South 13th Street", "amenity": "restaurant", "check_date": "2023-10-12", "contact:facebook": "https://www.facebook.com/sampanphilly", "contact:instagram": "https://www.instagram.com/sampanphilly", "name": "Sampan", "opening_hours": "Mo-Tu,Su 16:00-22:00; We-Th 16:00-23:00; Fr-Sa 16:00-24:00", "phone": "+1 215-732-3501", "website": "http://www.sampanphilly.com"}}, {"type": "node", "id": 8127767717, "lat": 39.9467593, "lon": -75.1447634, "tags": {"addr:housenumber": "212 2nd floor", "addr:street": "Walnut Street", "amenity": "restaurant", "name": "Positano Coast by Aldo Lamberti"}}, {"type": "node", "id": 8410340128, "lat": 39.9500607, "lon": -75.1731075, "tags": {"addr:city": "Philadelphia", "addr:housenumber": "210", "addr:postcode": "19103", "addr:street": "West Rittenhouse Square", "amenity": "restaurant", "check_date": "2023-10-14", "contact:website": "https://www.lacroixrestaurant.com", "name": "Lacroix", "phone": "+1 215-790-2533"}}, {"type": "node", "id": 8410340129, "lat": 39.9499162, "lon": -75.1730466, "tags": {"addr:housenumber": "210", "addr:street": "West Rittenhouse Square", "amenity": "restaurant", "check_date": "2023-04-11", "contact:phone": "+1 215-790-2533", "contact:website": "https://www.rittenhousehotel.com/dining/tea", "description": "The Signature Tea $70 The Impressionist Tea $95 The Rittenhouse Tea $120 The Opulence Tea $275", "name": "Mary Cassatt Tea Room", "opening_hours": "Mo-We off; Th-Su 12:00-15:00"}}, {"type": "node", "id": 8410340130, "lat": 39.9500338, "lon": -75.1732073, "tags": {"addr:city": "Philadelphia", "addr:housenumber": "210", "addr:postcode": "19103", "addr:street": "West Rittenhouse Square", "amenity": "bar", "check_date": "2023-10-14", "description": "inside Lacroix", "name": "Bar210", "opening_hours": "Mo-Tu off; We-Th 17:00-21:00; Fr-Sa 14:00-21:30; Su 14:00-21:00", "phone": "+1 215-546-9000", "website": "https://www.rittenhousehotel.com/dining/bar210"}}, {"type": "node", "id": 8410340131, "lat": 39.9499956, "lon": -75.1730503, "tags": {"addr:housenumber": "210", "addr:street": "West Rittenhouse Square", "amenity": "bar", "check_date": "2023-10-15", "contact:website": "https://www.rittenhousehotel.com/dining/librarybar", "name": "The Library Bar", "opening_hours": "Mo-Th,Su 17:00-23:00; Fr-Sa 17:00-24:30", "phone": "+1 215-546-9000"}}, {"type": "node", "id": 8410340132, "lat": 39.9500579, "lon": -75.1729745, "tags": {"addr:housenumber": "210", "addr:street": "West Rittenhouse Square", "amenity": "restaurant", "check_date": "2023-04-11", "contact:facebook": "https://www.facebook.com/ScarpettaPhiladelphia", "contact:phone": "+1 215-558-4199", "contact:website": "https://www.scarpettarestaurants.com/location/scarpetta-philadelphia/", "description": "bar and lounge open until 11pm", "name": "Scarpetta", "opening_hours": "Mo-Sa 17:30-21:00; Su off"}}, {"type": "node", "id": 8410355483, "lat": 39.9526323, "lon": -75.1713516, "tags": {"addr:city": "Philadelphia", "addr:housenumber": "1830", "addr:postcode": "19103", "addr:state": "PA", "addr:street": "Ludlow Street", "amenity": "restaurant", "check_date": "2023-10-09", "description": "another entrance is at 31 South 19th Street", "name": "Condesa", "opening_hours:Condesa": "Mo-Th 17:00-22:00; Fr-Sa 17:00-23:00; Su off", "opening_hours:El_Cafe": "Mo-Fr 06:00-12:00; Sa-Su 07:00-13:00", "opening_hours:El_Techo": "Mo-Th 16:00-23:00 \"food until 10pm\"; Fr 16:00-24:00+ \"food until 11pm\"; Sa 14:00-24:00+ \"food until 11pm\"; Su 11:00-16:00", "phone": "+1 267-930-5600", "website": "https://www.condesaphilly.com"}}, {"type": "node", "id": 8587322044, "lat": 39.9484805, "lon": -75.1642317, "tags": {"amenity": "restaurant", "branch": "Grille", "brand": "Del Frisco's Double Eagle Steakhouse", "brand:wikidata": "Q23461481", "cuisine": "steak_house", "name": "Del Frisco's Double Eagle Steakhouse"}}, {"type": "node", "id": 8591425502, "lat": 39.9522461, "lon": -75.1682872, "tags": {"amenity": "bar", "name": "Blue Bird Distilling - Center City Tasting Room", "website": "https://bluebirddistilling.com/center-city/"}}, {"type": "node", "id": 8591448483, "lat": 39.9533378, "lon": -75.1588565, "tags": {"amenity": "restaurant", "name": "A Taste of Spain"}}, {"type": "node", "id": 8591448484, "lat": 39.9532512, "lon": -75.1593062, "tags": {"amenity": "restaurant", "name": "Beck's Cajun Cafe"}}, {"type": "node", "id": 8591448485, "lat": 39.9534645, "lon": -75.1593962, "tags": {"amenity": "restaurant", "name": "By George! Pizza, Pasta & Cheesesteaks"}}, {"type": "node", "id": 8591448486, "lat": 39.953697, "lon": -75.1593564, "tags": {"amenity": "restaurant", "name": "Careda's Caribbean Cuisine"}}, {"type": "node", "id": 8591448487, "lat": 39.9536793, "lon": -75.1592372, "tags": {"amenity": "restaurant", "name": "DiNic's"}}, {"type": "node", "id": 8591448488, "lat": 39.9530475, "lon": -75.1594757, "tags": {"amenity": "restaurant", "name": "Down Home Diner"}}, {"type": "node", "id": 8591448492, "lat": 39.9536184, "lon": -75.1593669, "tags": {"amenity": "restaurant", "name": "Kamal's Middle Eastern Specialities"}}, {"type": "node", "id": 8591448493, "lat": 39.9533378, "lon": -75.1594234, "tags": {"amenity": "restaurant", "name": "Keven Parker's Soul Food Cafe"}}, {"type": "node", "id": 8591448495, "lat": 39.9534035, "lon": -75.1588481, "tags": {"amenity": "restaurant", "name": "Nanee's Kitchen"}}, {"type": "node", "id": 8591448497, "lat": 39.9530315, "lon": -75.1593502, "tags": {"addr:housenumber": "51", "addr:street": "North 12th Street", "amenity": "restaurant", "check_date": "2023-04-12", "contact:phone": "+1 215-964-9792", "contact:website": "https://pearlsrtm.com", "description": "Inside Reading Terminal Market; entrance at 12th and Filbert St.", "name": "Pearl's Oyster Bar"}}, {"type": "node", "id": 8591448498, "lat": 39.9534564, "lon": -75.159279, "tags": {"amenity": "restaurant", "name": "Sang Kee Peking Duck"}}, {"type": "node", "id": 8591448499, "lat": 39.9535254, "lon": -75.1592644, "tags": {"amenity": "restaurant", "name": "Shanghai Gourmet"}}, {"type": "node", "id": 8591448502, "lat": 39.9531149, "lon": -75.1593272, "tags": {"amenity": "restaurant", "name": "Umi Seafood and Sushi Bar"}}, {"type": "node", "id": 8765431382, "lat": 39.950461, "lon": -75.1674766, "tags": {"addr:city": "Philadelphia", "addr:housenumber": "118", "addr:postcode": "19102", "addr:state": "PA", "addr:street": "South 16th Street", "amenity": "restaurant", "check_date": "2023-10-08", "name": "The Happy Rooster", "opening_hours": "11:30-26:00", "phone": "+1 215-963-9311", "website": "https://thehappyroosterpa.com"}}, {"type": "node", "id": 8765431385, "lat": 39.9503759, "lon": -75.1675031, "tags": {"addr:city": "Philadelphia", "addr:housenumber": "122", "addr:postcode": "19102", "addr:state": "PA", "addr:street": "South 16th Street", "amenity": "restaurant", "check_date": "2023-10-08", "contact:facebook": "https://www.facebook.com/joespizzaphilly", "name": "Joe's Pizza", "opening_hours": "Mo-Fr 10:00-20:30; Sa 11:00-20:30; Su 11:00-19:00", "phone": "+1 215-569-0898", "website": "https://www.joespizzaphl.com"}}, {"type": "node", "id": 8765431386, "lat": 39.950243, "lon": -75.1675348, "tags": {"addr:city": "Philadelphia", "addr:housenumber": "126", "addr:postcode": "19102", "addr:state": "PA", "addr:street": "South 16th Street", "amenity": "restaurant", "check_date": "2023-10-08", "contact:facebook": "https://www.facebook.com/DanDanRittenhouse", "contact:instagram": "https://www.instagram.com/dandanrittenhouse", "cuisine": "asian", "name": "DanDan", "opening_hours": "Mo-Th 11:00-22:00; Fr 11:00-22:30; Sa 11:30-22:30; Su 11:30-22:00", "phone": "+1 215-800-1165", "website": "https://www.dandanrestaurant.com/location/dan-dan-philadelphia"}}, {"type": "node", "id": 8822229338, "lat": 39.9488839, "lon": -75.1597813, "tags": {"addr:housenumber": "1115", "addr:street": "Walnut Street", "amenity": "restaurant", "check_date": "2023-04-13", "contact:facebook": "https://www.facebook.com/masalakitchenphilly", "contact:phone": "+1 215-309-3301", "contact:website": "https://www.masalakitchenphilly.com", "cuisine": "indian", "name": "Masala Kitchen", "opening_hours": "Mo-Th 11:00-24:00; Fr 11:00-27:30; Sa 12:00-27:30; Su 12:00-23:00", "takeaway": "yes"}}, {"type": "node", "id": 8912426703, "lat": 39.9563923, "lon": -75.1385965}, {"type": "node", "id": 8912426706, "lat": 39.9563277, "lon": -75.1386177}, {"type": "node", "id": 8968478939, "lat": 39.9521521, "lon": -75.1756048, "tags": {"addr:city": "Philadelphia", "addr:housenumber": "2102", "addr:postcode": "19103", "addr:state": "PA", "addr:street": "Chestnut Street", "amenity": "restaurant", "check_date": "2023-10-15", "cuisine": "japanese;ramen", "name": "Maple Japanese Ramen", "opening_hours": "Mo-Th 11:00-21:30; Fr-Sa 11:00-22:00; Su 11:30-21:30", "phone": "+1 215-988-0788", "website": "www.maplejapaneseramen.com"}}, {"type": "node", "id": 8968533260, "lat": 39.9524635, "lon": -75.1703806, "tags": {"addr:city": "Philadelphia", "addr:housenumber": "20", "addr:postcode": "19103", "addr:state": "PA", "addr:street": "South 18th Street", "amenity": "restaurant", "check_date": "2023-04-13", "contact:phone": "+1 215-988-0898", "cuisine": "ramen", "name": "Nom Nom Ramen", "opening_hours": "Mo-Th,Su 11:00-15:30,17:00-21:30; Fr-Sa 11:00-15:30,17:00-22:30", "website": "nomnomramen.com"}}, {"type": "node", "id": 9078268217, "lat": 39.9500257, "lon": -75.1620492, "tags": {"addr:city": "Philadelphia", "addr:housenumber": "110", "addr:postcode": "19107", "addr:street": "South 13th Street", "amenity": "restaurant", "check_date": "2023-10-12", "cuisine": "mediterranean", "name": "Barbuzzo", "opening_hours": "Mo-Th 17:00-22:00; Fr 17:00-23:00; Sa 11:00-15:00,17:00-23:00; Su 11:00-15:00,16:00-22:00", "phone": "+1 215-546-9300", "website": "https://barbuzzo.com"}}, {"type": "node", "id": 9382669317, "lat": 39.9464897, "lon": -75.1579158, "tags": {"addr:housenumber": "262", "addr:street": "South 10th Street", "amenity": "restaurant", "check_date": "2023-04-12", "contact:facebook": "https://www.facebook.com/bleusushi", "contact:phone": "+1 215-829-0800", "contact:website": "https://www.bleusushiphilly.com", "cuisine": "japanese", "name": "Bleu Sushi", "opening_hours": "Mo-Th 11:00-22:00; Fr 11:00-23:00; Sa 12:00-23:00; Su 12:00-22:00", "outdoor_seating": "yes"}}, {"type": "node", "id": 9459428358, "lat": 39.9428981, "lon": -75.1455617, "tags": {"addr:city": "Philadelphia", "addr:housenumber": "408", "addr:postcode": "19147", "addr:state": "PA", "addr:street": "South 2nd Street", "air_conditioning": "yes", "amenity": "restaurant", "bar": "yes", "cuisine": "mexican", "name": "Xochitl", "phone": "2152387280", "reservation": "yes", "website": "https://www.xochitlphilly.com/resevations"}}, {"type": "node", "id": 9459428360, "lat": 39.9430129, "lon": -75.1455311, "tags": {"addr:city": "Philadelphia", "addr:housenumber": "400", "addr:postcode": "19147", "addr:state": "PA", "addr:street": "South 2nd Street", "amenity": "restaurant", "cuisine": "argentinian", "name": "Malbec Argentine Steakhouse", "phone": "215 515 3899", "website": "http://www.malbecsteakhouse.com/"}}, {"type": "node", "id": 9459428362, "lat": 39.942737, "lon": -75.1455915, "tags": {"addr:city": "Philadelphia", "addr:housenumber": "414", "addr:postcode": "19147", "addr:state": "PA", "addr:street": "South 2nd Street", "amenity": "restaurant", "name": "Bloomsday Cafe", "phone": "267 319 8018", "website": "https://bloomsdaycafe.com/"}}, {"type": "node", "id": 9461228249, "lat": 39.9444608, "lon": -75.1411184}, {"type": "node", "id": 9461228250, "lat": 39.9444401, "lon": -75.1411221}, {"type": "node", "id": 9461228251, "lat": 39.9444316, "lon": -75.1410571}, {"type": "node", "id": 9461228252, "lat": 39.9444515, "lon": -75.1410515}, {"type": "node", "id": 9765915617, "lat": 39.9505401, "lon": -75.1668604, "tags": {"addr:city": "Philadelphia", "addr:housenumber": "1525", "addr:postcode": "19102", "addr:state": "PA", "addr:street": "Sansom Street", "amenity": "restaurant", "check_date": "2023-10-08", "contact:facebook": "https://www.facebook.com/harpcrownphl", "name": "Harp & Crown", "phone": "+1 215-330-2800", "website": "https://harpcrown.com"}}, {"type": "node", "id": 9915336017, "lat": 39.9553587, "lon": -75.1565868, "tags": {"addr:housenumber": "1016", "addr:street": "Race Street", "amenity": "restaurant", "name:en": "Chinatown Dumpling  House"}}, {"type": "node", "id": 9966262962, "lat": 39.950423, "lon": -75.1463459, "tags": {"amenity": "restaurant", "food": "asian", "name": "Bubble Tea Room"}}, {"type": "node", "id": 10007099636, "lat": 39.9421183, "lon": -75.1411037, "tags": {"access": "customers", "entrance": "main", "level": "0"}}, {"type": "node", "id": 10068995157, "lat": 39.9590156, "lon": -75.1580579}, {"type": "node", "id": 10068995158, "lat": 39.9589187, "lon": -75.1580797}, {"type": "node", "id": 10068995159, "lat": 39.9589412, "lon": -75.1582502}, {"type": "node", "id": 10159500549, "lat": 39.9596669, "lon": -75.1636227, "tags": {"amenity": "pub", "name": "West Tavern"}}, {"type": "node", "id": 10288004360, "lat": 39.9486061, "lon": -75.1743275}, {"type": "node", "id": 10288004367, "lat": 39.9486284, "lon": -75.1745252}, {"type": "node", "id": 10300980672, "lat": 39.9520112, "lon": -75.178497}, {"type": "node", "id": 10574765233, "lat": 39.9537413, "lon": -75.1434093, "tags": {"addr:city": "Philadelphia", "addr:housenumber": "208", "addr:postcode": "19106", "addr:state": "PA", "addr:street": "Race Street", "amenity": "restaurant", "bar": "yes", "cuisine": "burger;american;salad;breakfast", "name": "Race Street Cafe", "opening_hours": "Mo-Th 11:30-22:00; Fr 11:30-23:00; Sa 10:30-23:00; Su 10:30-22:00", "phone": "+1-215-627-6181", "website": "https://www.racestreetcafe.net/"}}, {"type": "node", "id": 10575315227, "lat": 39.9519618, "lon": -75.1444403, "tags": {"addr:city": "Philadelphia", "addr:housenumber": "232", "addr:postcode": "19106", "addr:state": "PA", "addr:street": "Arch Street", "amenity": "restaurant", "cuisine": "mediterranean", "name": "Olea", "opening_hours": "Th-Sa 17:00-22:00; Su-Mo 17:00-21:00", "payment:cash": "yes", "phone": "+1-267-519-8315", "website": "https://www.oleaphilly.com/"}}, {"type": "node", "id": 10736232843, "lat": 39.9622378, "lon": -75.1726765, "tags": {"amenity": "restaurant", "cuisine": "chinese", "delivery:partner": "Postmates", "name": "Dim Sum & Noodle", "opening_hours": "Tu-Su 11:30-21:30; Fr,Sa 11:30-22:30", "phone": "+1-215-515-3992", "toilets": "yes", "toilets:access": "customers", "website": "https://www.dimsumandnoodle.com/"}}, {"type": "node", "id": 10752328344, "lat": 39.9622252, "lon": -75.1725246, "tags": {"addr:city": "Philadelphia", "addr:country": "US", "addr:housenumber": "2000", "addr:postcode": "19130", "addr:state": "PA", "addr:street": "Hamilton Street", "addr:unit": "106", "amenity": "restaurant", "cuisine": "chinese", "name": "Unit Su Vege", "opening_hours": "Mo-Th 11:00-22:00; Fr,Sa 11:00-22:30; Su 12:00-22:00", "phone": "+1-215-988-1888", "website": "http://www.unitsuvege.com/"}}, {"type": "node", "id": 10978033944, "lat": 39.9584521, "lon": -75.1638617, "tags": {"amenity": "restaurant", "cuisine": "thai", "name": "Chon Tong", "opening_hours": "Mo-Su 11:00-21:00; Tu off", "toilets": "no", "website:menu": "https://me-qr.com/ZruLQCo"}}, {"type": "node", "id": 10978033950, "lat": 39.9622951, "lon": -75.1622625, "tags": {"addr:housenumber": "490", "addr:street": "North Broad Street", "addr:unit": "3B", "amenity": "restaurant", "check_date": "2023-10-11", "cuisine": "chinese", "name": "Golden Chopsticks", "opening_hours": "Mo-Sa 11:00-22:00; Su 12:00-22:00", "phone": "+1-215-496-9190", "website": "http://www.goldenchopsticksonline.net/"}}, {"type": "node", "id": 10979953124, "lat": 39.9554905, "lon": -75.1696667, "tags": {"amenity": "restaurant", "cuisine": "sushi", "fixme": "Zushi is temporarily closed. The opening_hours should be changed once it opens again.", "name": "Zushi", "opening_hours": "closed \"Temporarily closed\""}}, {"type": "node", "id": 10979953125, "lat": 39.9555681, "lon": -75.1696513, "tags": {"amenity": "restaurant", "cuisine": "sandwich", "name": "Matt & Marie's", "opening_hours": "Mo-Fr 10:00-14:00", "payment:cash": "yes", "payment:contactless": "yes", "payment:credit_cards": "yes", "payment:debit_cards": "yes", "website:menu": "https://mattandmaries.square.site/?location=11ea7f438a037e78bee054ab3a4df151"}}, {"type": "node", "id": 11001863067, "lat": 39.9486055, "lon": -75.1743221}, {"type": "node", "id": 11001863068, "lat": 39.9486335, "lon": -75.1745591}, {"type": "node", "id": 11018275014, "lat": 39.9521242, "lon": -75.174893, "tags": {"addr:city": "Philadelphia", "addr:housenumber": "2034", "addr:state": "PA", "addr:street": "Chestnut Street", "amenity": "bar", "check_date": "2023-10-10", "contact:facebook": "https://www.facebook.com/ButcherBarPHL", "name": "Butcher Bar", "opening_hours": "Mo 11:30-22:00, Tu,Fr-Sa 11:30-26:00, We-Th 11:30-23:00, Su 10:30-22:00", "phone": "+1 215-563-6328", "website": "http://www.butcherbarphilly.com"}}, {"type": "node", "id": 11018800562, "lat": 39.9468161, "lon": -75.1624829, "tags": {"amenity": "restaurant", "name": "Libertine"}}, {"type": "node", "id": 11018837131, "lat": 39.9497889, "lon": -75.1589017, "tags": {"addr:city": "Philadelphia", "addr:housenumber": "110", "addr:street": "South 11th Street", "amenity": "restaurant", "check_date": "2023-10-11", "name": "Morea", "opening_hours": "Mo-Th 16:00-24:00, Fr 10:30-25:00, Sa 10:00-25:00, Su 10:00-23:00", "phone": "+1 267-930-1110", "website": "https://moreaphilly.com"}}, {"type": "node", "id": 11020595806, "lat": 39.9490228, "lon": -75.1480548, "tags": {"amenity": "restaurant", "name": "Franklin Social"}}, {"type": "node", "id": 11020598865, "lat": 39.9481263, "lon": -75.1432848, "tags": {"addr:city": "Philadelphia", "addr:housenumber": "118", "addr:postcode": "19106", "addr:street": "Chestnut Street", "amenity": "bar", "check_date": "2023-10-17", "contact:instagram": "https://www.instagram.com/buffalo_billiards", "min_age": "21", "name": "Buffalo Billiards", "opening_hours": "Mo-Fr 16:00-26:00, Sa-Su 14:00-26:00", "phone": "+1 215-574-7665", "website": "https://www.buffalobilliardsphilly.com"}}, {"type": "node", "id": 11020622675, "lat": 39.9472736, "lon": -75.1616368, "tags": {"amenity": "restaurant", "name": "TOC - Tavern on Camac"}}, {"type": "node", "id": 11054765996, "lat": 39.9542937, "lon": -75.1462703, "tags": {"amenity": "restaurant", "cuisine": "japanese", "name": "Kisso"}}, {"type": "node", "id": 11068025194, "lat": 39.9561914, "lon": -75.1686628, "tags": {"addr:city": "Philadelphia", "addr:housenumber": "1776", "addr:postcode": "19103", "addr:state": "PA", "addr:street": "Benjamin Franklin Parkway", "amenity": "restaurant", "bar": "yes", "brewery": "yes", "check_date": "2023-07-21", "contact:facebook": "https://www.facebook.com/victorytaproomPHL/", "name": "Victory Brewing Company", "opening_hours": "Mo-Th 11:00-22:00; Fr-Sa 11:00-23:00; Su 11:00-21:00", "outdoor_seating": "yes", "phone": "+1-445-223-1130", "website": "https://taprooms.victorybeer.com/victory-brewing-company-philadelphia-d1474f3f7a0c", "website:menu": "https://taprooms.victorybeer.com/victory-brewing-company-philadelphia-d1474f3f7a0c#food"}}, {"type": "node", "id": 11068037602, "lat": 39.9521739, "lon": -75.1702051, "tags": {"addr:city": "Philadelphia", "addr:housenumber": "33", "addr:postcode": "19103", "addr:state": "PA", "addr:street": "South 18th Street", "amenity": "restaurant", "check_date": "2023-07-22", "contact:facebook": "https://www.facebook.com/MyGreenEggsCafe/", "name": "Green Eggs Cafe", "opening_hours": "Mo-Fr 09:00-15:00; Sa-Su 09:00-16:00", "outdoor_seating": "yes", "payment:cash": "yes", "phone": "+1-267-687-8013", "website": "https://greeneggscafe.com/", "website:menu": "https://greeneggscafe.com/menu/"}}, {"type": "node", "id": 11068116875, "lat": 39.9552155, "lon": -75.1553392, "tags": {"addr:city": "Philadelphia", "addr:housenumber": "926-928", "addr:postcode": "19107", "addr:state": "PA", "addr:street": "Race Street", "amenity": "restaurant", "branch": "Chinatown", "check_date": "2023-10-11", "contact:facebook": "https://www.facebook.com/ninetingchinatown", "cuisine": "korean", "name": "Nine Ting", "opening_hours": "Mo-Th,Su 12:00-23:00; Fr-Sa 12:00-24:00", "phone": "+1-215-238-9996", "website": "https://ninetingpa.com/location/philadelphia-chinatown"}}, {"type": "node", "id": 11300340569, "lat": 39.9521978, "lon": -75.1757345, "tags": {"addr:housenumber": "2104", "addr:postcode": "19103", "addr:street": "Chestnut Street", "amenity": "restaurant", "name": "El Merkury", "opening_hours": "Tu-Su 11:00-20:00", "website": "https://www.elmerkury.com/"}}, {"type": "node", "id": 11360882069, "lat": 39.9485012, "lon": -75.1660454, "tags": {"addr:housenumber": "235", "addr:street": "South 15th Street", "amenity": "restaurant", "cuisine": "pizza", "name": "Alice Pizza and Restaurant"}}, {"type": "way", "id": 170349587, "nodes": [1815002393, 1815002332, 1815002361, 1815002395, 1815002404, 1815002403, 1815002389, 10007099636, 1815002399, 1815002346, 1815002338, 1815002366, 1815002358, 1815002356, 1815002355, 1815002362, 1815002372, 1815002337, 1815002396, 1815002381, 1815002336, 1815002394, 1815002393], "tags": {"addr:city": "Philadelphia", "addr:housenumber": "401", "addr:postcode": "19106", "addr:state": "PA", "addr:street": "Columbus Boulevard", "amenity": "restaurant", "building": "ship", "check_date": "2023-06-10", "contact:facebook": "https://www.facebook.com/moshuluphilly", "cuisine": "american", "historic": "ship", "name": "Moshulu", "opening_hours": "Mo-Th 16:00-21:00; Fr 16:00-22:00; Sa 10:00-22:00; Su 10:00-20:00", "outdoor_seating": "yes", "payment:cards": "yes", "payment:cash": "yes", "phone": "+1 215-923-2500", "ship:type": "cargo_ship", "start_date": "1904", "website": "https://www.moshulu.com/", "wheelchair": "yes", "wikidata": "Q20688", "wikipedia": "en:Moshulu"}}, {"type": "way", "id": 332974956, "nodes": [3400941943, 3400941945, 3409971723, 3400941944, 3400941943], "tags": {"addr:city": "Philadelphia", "addr:housenumber": "1939", "addr:postcode": "19103", "addr:street": "Arch Street", "amenity": "restaurant", "building": "yes", "building:levels": "4", "check_date": "2023-10-10", "cuisine": "indian", "name": "Thanal Indian Tavern", "opening_hours": "Mo-Th 11:30-14:30,17:00-22:00; Fr-Sa 11:30-14:30,17:00-23:00; Su 11:30-15:00,17:00-21:00", "phone": "+1 215-515-2511", "website": "https://www.thanalphilly.com"}}, {"type": "way", "id": 333012788, "nodes": [3401274279, 3401274280, 3401274281, 3401274282, 3401274279], "tags": {"addr:city": "Philadelphia", "addr:housenumber": "1214", "addr:street": "Sansom Street", "amenity": "pub", "building": "yes", "building:levels": "2", "check_date": "2023-04-12", "contact:phone": "+1 215-928-8118", "contact:website": "https://www.fergies.com", "name": "Fergie's Pub", "opening_hours": "12:00-26:00 \"Kitchen open until 23:45\""}}, {"type": "way", "id": 333012793, "nodes": [3401274295, 3401274296, 3441501224, 3401274297, 3401274298, 3401274295], "tags": {"addr:city": "Philadelphia", "addr:housenumber": "1310", "addr:postcode": "19107", "addr:street": "Drury Street", "amenity": "pub", "building": "yes", "building:levels": "2", "check_date": "2023-10-12", "name": "McGillin's Olde Ale House", "opening_hours": "11:00-26:00 \"kitchen closes at 1am\"", "phone": "+1-215-735-5562", "website": "https://mcgillins.com"}}, {"type": "way", "id": 333012808, "nodes": [3308112714, 3308112715, 3401274364, 3308112713, 3308112714], "tags": {"addr:street": "Arch Street", "amenity": "restaurant", "building": "yes", "building:levels": "4", "cuisine": "chinese", "name": "China King"}}, {"type": "way", "id": 334239522, "nodes": [3413417147, 3404334299, 3413417148, 3413417149, 3413417147], "tags": {"addr:housenumber": "222", "addr:street": "South 15th Street", "amenity": "restaurant", "building": "yes", "building:levels": "2", "check_date": "2023-04-11", "contact:phone": "+1 215-735-4444", "contact:website": "http://shiroihana.com/", "cuisine": "japanese", "email": "sushishiroihana@gmail.com", "name": "Shiroi Hana"}}, {"type": "way", "id": 334239526, "nodes": [3413417149, 3413417151, 3413417154, 3413417152, 3413417147, 3413417149], "tags": {"addr:housenumber": "224", "addr:street": "South 15th Street", "amenity": "pub", "building": "yes", "building:levels": "3", "check_date": "2023-04-11", "contact:facebook": "https://www.facebook.com/gooddogphilly", "contact:phone": "+1 215-985-9600", "contact:website": "https://gooddogbar.com/", "name": "Good Dog Bar", "opening_hours": "11:30-26:00"}}, {"type": "way", "id": 334264527, "nodes": [3413742596, 8912426703, 8912426706, 3413742597, 3413742598, 3413742599, 3413742596], "tags": {"addr:city": "Philadelphia", "addr:country": "US", "addr:housenumber": "325", "addr:postcode": "19106", "addr:state": "NJ", "addr:street": "Christopher Columbus Boulevard", "amenity": "restaurant", "brand": "Dave & Buster's", "brand:wikidata": "Q5228205", "brand:wikipedia": "en:Dave & Buster's", "building": "yes", "check_date": "2023-06-10", "cuisine": "american", "leisure": "amusement_arcade", "name": "Dave & Buster's", "opening_hours": "Mo-Tu,Su 11:00-24:00; We-Th 11:00-25:00; Fr-Sa 11:00-26:00", "phone": "+1 215-413-1951", "website": "https://www.daveandbusters.com/us/en/about/locations/philadelphia"}}, {"type": "way", "id": 334658102, "nodes": [3417195707, 3417195708, 3531082351, 3531082350, 3413417149, 3417195707], "tags": {"addr:city": "Philadelphia", "addr:housenumber": "1511", "addr:postcode": "19102", "addr:street": "Locust Street", "amenity": "bar", "building": "yes", "building:levels": "1", "check_date": "2023-04-11", "contact:facebook": "https://www.facebook.com/misconductphl", "contact:phone": "+1 215-732-5797", "contact:website": "https://misconducttavern.com/rittenhouse/", "name": "Misconduct Tavern"}}, {"type": "way", "id": 335828101, "nodes": [3429439376, 3429439379, 3429439383, 3429439380, 3429439377, 3429439376], "tags": {"addr:housenumber": "1002", "addr:street": "Arch Street", "amenity": "restaurant", "building": "yes", "building:levels": "5", "name": "Hippot Shabu Shabu"}}, {"type": "way", "id": 336505649, "nodes": [3435455075, 3405465319, 3435455072, 3435455073, 3435455075], "tags": {"addr:city": "Philadelphia", "addr:housenumber": "124", "addr:postcode": "19103", "addr:street": "South 18th Street", "air_conditioning": "yes", "amenity": "pub", "building": "yes", "building:levels": "3", "email": "thedandelion.info@starr-restaurants.com", "name": "The Dandelion", "opening_hours": "Mo-Th 11:30-23:00; Fr 11:30-24:00; Sa 10:00-24:00; Su 10:00-22:00", "phone": "+1 215 558 2500", "roof:levels": "1", "smoking": "no", "toilets": "yes", "website": "https://thedandelionpub.com/"}}, {"type": "way", "id": 338020156, "nodes": [3450860946, 3450860945, 3450860954, 3450860961, 3450860983, 3450861096, 3450861111, 3450861115, 3450861094, 3450860980, 3450860981, 3450860974, 3450860963, 3450860946], "tags": {"addr:city": "Philadelphia", "addr:housenumber": "907", "addr:street": "Race Street", "amenity": "restaurant", "building": "yes", "building:levels": "3", "check_date": "2023-10-11", "cuisine": "asian", "name": "Xe Lua Vietnamese & Thai Restaurant", "opening_hours": "Mo-Tu,Th-Su 11:00-20:00; We off", "phone": "+1 215-627-8883", "website": "https://phoxeluavietthai.com"}}, {"type": "way", "id": 338020211, "nodes": [3450861163, 3450860979, 3554597076, 3554597075, 3450861163], "tags": {"addr:city": "Philadelphia", "addr:housenumber": "941", "addr:postcode": "19107", "addr:street": "Race Street", "amenity": "restaurant", "building": "yes", "building:levels": "4", "name": "Wong Wong Restaurant", "name:zh": "\u65fa\u65fa\u996d\u5e97"}}, {"type": "way", "id": 338020228, "nodes": [3450860957, 3450860958, 3450861138, 3450861156, 3450861150, 3450860957], "tags": {"addr:city": "Philadelphia", "addr:housenumber": "925", "addr:street": "Race Street", "amenity": "restaurant", "building": "yes", "building:levels": "3", "name": "Jin Wei Restaurant"}}, {"type": "way", "id": 338020235, "nodes": [3450860983, 3450860961, 3450860960, 3450860956, 3450860967, 3450860983], "tags": {"addr:city": "Philadelphia", "addr:housenumber": "204", "addr:postcode": "19107", "addr:street": "North 9th Street", "amenity": "restaurant", "building": "yes", "building:levels": "2", "check_date": "2023-10-11", "contact:instagram": "https://www.instagram.com/terakawaphilly", "cuisine": "ramen", "name": "Terakawa Ramen", "name:ja": "\u5bfa\u5ddd\u3089\u30fc\u3081\u3093", "opening_hours": "Mo off; Tu-Th,Su 11:30-22:00; Fr-Sa 11:30-23:00", "phone": "+1 267-687-1355", "website": "https://terakawaramen.com"}}, {"type": "way", "id": 338020239, "nodes": [3450860945, 3450860944, 3450860949, 3450860953, 3450860954, 3450860945], "tags": {"addr:city": "Philadelphia", "addr:housenumber": "200", "addr:street": "North 9th Street", "amenity": "restaurant", "building": "yes", "building:levels": "4", "name": "Vietnam House", "name:zh": "\u8d8a\u4e4b\u5bb6"}}, {"type": "way", "id": 338894900, "nodes": [3460473832, 3460473838, 3460473837, 3460473831, 3460473832], "tags": {"addr:housenumber": "902", "addr:street": "Arch Street", "amenity": "restaurant", "building": "yes", "building:levels": "3", "check_date": "2023-04-12", "contact:phone": "+1 215-925-1688", "contact:website": "https://xiansizzlingwoksphilly.com", "name": "Xi\u2019an Sizzling Woks", "opening_hours": "Mo,We-Th,Su 11:00-22:00; Tu off; Fr-Sa 11:00-22:30"}}, {"type": "way", "id": 338894903, "nodes": [3429660044, 3460473846, 3460473853, 3429660045, 3429660044], "tags": {"addr:city": "Philadelphia", "addr:housenumber": "935", "addr:street": "Arch Street", "amenity": "restaurant", "building": "yes", "check_date": "2023-04-12", "contact:phone": "+1 215-982-1997", "contact:website": "http://www.lanzhou-hand-pulled-noodles.com/", "cuisine": "chinese", "name": "Lan Zhou Hand-Pulled Noodles", "name:zh": "\u862d\u5dde\u62c9\u9eb5", "name:zn": "\u5170\u5dde\u62c9\u9762", "opening_hours": "08:00-22:00"}}, {"type": "way", "id": 338894904, "nodes": [3460473834, 3460473833, 3460473839, 3460473840, 3460473834], "tags": {"addr:housenumber": "906", "addr:street": "Arch Street", "amenity": "restaurant", "building": "yes", "building:levels": "4", "check_date": "2023-04-12", "name": "Delightful Garden", "name:zh": "\u6210\u90fd\u5c0f\u5403"}}, {"type": "way", "id": 338894912, "nodes": [3460473831, 3460473830, 3460473836, 3460473837, 3460473831], "tags": {"addr:housenumber": "900", "addr:street": "Arch Street", "amenity": "restaurant", "building": "yes", "building:levels": "3", "check_date": "2023-04-12", "name": "Banh Mi Cali"}}, {"type": "way", "id": 338894916, "nodes": [3429439406, 3554597112, 3460473860, 3460473857, 3460473842, 3429439407, 3429439406], "tags": {"addr:city": "Philadelphia", "addr:housenumber": "915", "addr:street": "Arch Street", "amenity": "restaurant", "building": "yes", "check_date": "2023-04-12", "contact:phone": "+1 215-627-2500", "contact:website": "https://emeiphilly.com", "cuisine": "chinese", "email": "hello@emei.restaurant", "name": "E Mei Szechuan Style Restaurant", "name:zh": "\u5ce8\u5d4b\u5c71\u5e84", "opening_hours": "Mo-Th,Su 11:00-21:00; Fr-Sa 11:00-22:00"}}, {"type": "way", "id": 338894919, "nodes": [3429439405, 3429439404, 3429659657, 3429659664, 3460473862, 3429439405], "tags": {"addr:city": "Philadelphia", "addr:street": "North 9th Street", "amenity": "restaurant", "building": "yes", "building:levels": "3", "name": "Rangoon"}}, {"type": "way", "id": 338894930, "nodes": [3460473941, 3460473943, 3460473942, 3460473926, 3460473927, 3460473932, 3460473941], "tags": {"addr:city": "Philadelphia", "amenity": "restaurant", "building": "yes", "building:levels": "4", "name": "Spice C", "name:zh": "\u5170\u5dde\u624b\u62c9\u9762"}}, {"type": "way", "id": 338894934, "nodes": [3460473899, 3460473904, 3460473898, 3460473886, 3460473890, 3460473892, 3460473897, 3460473895, 3460473899], "tags": {"addr:street": "North 10th Street", "amenity": "restaurant", "building": "yes", "cuisine": "chinese", "name": "Shanghai 1"}}, {"type": "way", "id": 341092941, "nodes": [3483213549, 3483213550, 3483213551, 3483213552, 3483213553, 3483213554, 3483213555, 3483213556, 3483213549], "tags": {"addr:housenumber": "261", "addr:street": "South 20th Street", "amenity": "restaurant", "building": "yes", "check_date": "2023-04-14", "contact:facebook": "https://www.facebook.com/TwentyManning", "contact:phone": "+1 215-731-0900", "contact:website": "https://twentymanning.com", "cuisine": "american", "delivery": "no", "name": "20 Manning", "opening_hours": "Tu-Sa 17:00-22:00; Su 10:00-16:00", "smoking": "no", "takeaway": "no"}}, {"type": "way", "id": 341790034, "nodes": [3424828944, 3488810602, 3488810601, 3488810599, 3488810600, 3424828944], "tags": {"addr:city": "Philadelphia", "addr:housenumber": "116", "addr:postcode": "19107", "addr:street": "South 11th Street", "amenity": "restaurant", "building": "yes", "building:levels": "2", "check_date": "2023-04-13", "contact:facebook": "https://www.facebook.com/toptomatobar", "contact:phone": "+1 215-592-8242", "contact:website": "https://www.toptomatophilly.com/", "cuisine": "pizza", "description": "Kitchen open until 10pm, pizza all night", "email": "Info@Toptomatophilly.Com", "happy_hours": "16:00-19:00", "name": "Top Tomato Bar & Pizza", "opening_hours": "Mo-Fr 10:00-26:00; Sa-Su 11:00-26:00"}}, {"type": "way", "id": 342989912, "nodes": [3499206798, 3499206804, 3499206805, 3499206803, 3499206802, 3499206806, 3499206807, 3499206799, 3499206798], "tags": {"addr:city": "Philadelphia", "addr:housenumber": "1119", "addr:postcode": "19107", "addr:state": "PA", "addr:street": "Walnut Street", "amenity": "restaurant", "building": "retail", "check_date": "2023-02-27", "cuisine": "thai", "name": "Xiandu Thai", "phone": "+1-215-940-8855"}}, {"type": "way", "id": 345167249, "nodes": [3518601791, 3518601792, 3518602093, 3518602094, 3518602095, 3518602096, 3518602097, 3518602098, 3518602099, 3518602100, 3518602101, 3518602102, 3518602103, 3518602104, 3432401170, 3518601791], "tags": {"addr:city": "Philadelphia", "addr:housenumber": "942", "addr:postcode": "19107", "addr:street": "Race Street", "amenity": "restaurant", "building": "yes", "building:levels": "4", "check_date": "2023-10-11", "cuisine": "chinese", "description": "website says hours are 4pm-3am; Yelp says Sun-Thu 4pm-2:30am and Fri-Sat 4pm-3am", "name": "Jade Harbor Restaurant", "name:zh": "\u9280\u6cc9\u6d77\u9bae\u9152\u5bb6", "phone": "+1 215-928-0451", "website": "https://www.jade-harbor.com"}}, {"type": "way", "id": 346392052, "nodes": [3520099609, 3529346615, 3529346616, 3520099610, 3520099609], "tags": {"amenity": "restaurant", "building": "yes", "name": "Pho 20"}}, {"type": "way", "id": 346392079, "nodes": [3529347052, 3529347053, 3529347054, 3529347055, 3529347052], "tags": {"addr:housenumber": "469", "addr:street": "North 10th Street", "amenity": "restaurant", "building": "yes", "cuisine": "mexican", "name": "El Purepecha", "nonsquare": "yes"}}, {"type": "way", "id": 350991334, "nodes": [3567104221, 3567104222, 3567104223, 3567104224, 10300980672, 3567104221], "tags": {"addr:city": "Philadelphia", "addr:housenumber": "120", "addr:state": "PA", "addr:street": "South 23rd Street", "amenity": "bar", "building": "yes", "check_date": "2023-10-10", "contact:instagram": "https://www.instagram.com/bonnersirishpub", "name": "Bonner's Irish Pub", "phone": "+1 215-567-5748"}}, {"type": "way", "id": 694556251, "nodes": [3414251603, 3414251604, 6521815586, 6521815587, 3414251603], "tags": {"addr:city": "Philadelphia", "addr:housenumber": "1435", "addr:postcode": "19102", "addr:state": "PA", "addr:street": "Arch Street", "amenity": "restaurant", "cuisine": "sandwich;coffee_shop", "name": "Old Nelson", "opening_hours": "Mo-Fr 07:00-19:00, Sa 08:00-16:00", "phone": "+1-215-568-1730"}}, {"type": "way", "id": 729417378, "nodes": [6833543203, 6833543204, 6833543205, 6833543206, 6833543207, 6833543208, 6833543203], "tags": {"amenity": "restaurant", "building": "yes", "name": "New Town Restaurant"}}, {"type": "way", "id": 1026177161, "nodes": [9461228249, 9461228250, 9461228251, 9461228252, 9461228249], "tags": {"amenity": "bar", "building": "yes"}}, {"type": "way", "id": 1099888891, "nodes": [826274416, 10068995157, 10068995158, 10068995159, 826274416], "tags": {"addr:city": "Philadelphia", "addr:housenumber": "345", "addr:postcode": "19107", "addr:state": "PA", "addr:street": "North 12th Street", "amenity": "restaurant", "cuisine": "dominican", "name": "Parada Maimon", "opening_hours": "Mo-Su 8:00-22:00", "outdoor_seating": "yes", "phone": "+12159252000", "website": "http://www.paradamaimon.net/"}}, {"type": "way", "id": 1143802424, "nodes": [3540215755, 11001863067, 10288004360, 10288004367, 11001863068, 3540215754, 3540215755], "tags": {"amenity": "restaurant", "building": "yes", "layer": "1", "name": "Italian Restaurant"}}]}